{"type":"FeatureCollection","barch":{"title":"FBDS - Hidrografia da Circunscrição hidrográfica do rio Paraopeba","geometryBasis":"gleba-georreferenciada.geojson","source":"https://geoserver.meioambiente.mg.gov.br/ows?service=WFS&version=1.0.0&request=GetFeature&typeName=IDE%3Aide_240901_sf3_hidrografia_fbds_lin&srsName=EPSG%3A4326&outputFormat=application%2Fjson&bbox=-44.08%2C-20.25%2C-43.96%2C-20.14%2CEPSG%3A4326&maxFeatures=20000","sourceScale":null,"displaySimplificationM":1,"contextBufferM":500},"features":[{"type":"Feature","id":"ide_240901_sf3_hidrografia_fbds_lin.38399","properties":{"id":38399,"geocodigo":3109006,"municipio":"BRUMADINHO","uf":"MG","cd_uf":31,"hidro":"curso d'água (0 - 10m)","comp_km":0.340314,"app_m":null},"geometry":{"type":"LineString","coordinates":[[-44.01050403017242,-20.22298016786915],[-44.00992535,-20.222818890000003],[-44.00969635,-20.222779889999995],[-44.00937935,-20.222764889999993],[-44.00907035,-20.22280089],[-44.008596566744366,-20.22308476295192]]}},{"type":"Feature","id":"ide_240901_sf3_hidrografia_fbds_lin.38403","properties":{"id":38403,"geocodigo":3109006,"municipio":"BRUMADINHO","uf":"MG","cd_uf":31,"hidro":"curso d'água (0 - 10m)","comp_km":0.558478,"app_m":null},"geometry":{"type":"LineString","coordinates":[[-44.00829234,-20.21866989],[-44.00845234,-20.2194709],[-44.00868134,-20.219970899999993],[-44.00871234,-20.220107890000005],[-44.00870834,-20.22063689000001],[-44.00861334,-20.22100289],[-44.00805634,-20.2217829],[-44.00787634000001,-20.2220729],[-44.00775434,-20.222440900000006],[-44.00777334,-20.222568899999995],[-44.00792234000001,-20.222881899999997],[-44.00797634,-20.2230879],[-44.00796925627731,-20.22325968048212]]}},{"type":"Feature","id":"ide_240901_sf3_hidrografia_fbds_lin.38404","properties":{"id":38404,"geocodigo":3109006,"municipio":"BRUMADINHO","uf":"MG","cd_uf":31,"hidro":"curso d'água (0 - 10m)","comp_km":0.763556,"app_m":null},"geometry":{"type":"LineString","coordinates":[[-44.00627033,-20.2186149],[-44.00605333,-20.2189259],[-44.00592333,-20.219203899999997],[-44.00566033,-20.219567900000005],[-44.00517233,-20.219970899999993],[-44.00487033,-20.220384900000006],[-44.00472933,-20.220607899999994],[-44.00456533,-20.22075690000001],[-44.00376033,-20.22125489999999],[-44.00339833,-20.2213959],[-44.00308133,-20.221475900000005],[-44.00248633,-20.221595910000005],[-44.00201333,-20.221654910000005],[-44.001715669229704,-20.22173782751846]]}},{"type":"Feature","id":"ide_240901_sf3_hidrografia_fbds_lin.38406","properties":{"id":38406,"geocodigo":3109006,"municipio":"BRUMADINHO","uf":"MG","cd_uf":31,"hidro":"curso d'água (0 - 10m)","comp_km":0.492609,"app_m":null},"geometry":{"type":"LineString","coordinates":[[-44.00356632,-20.2182709],[-44.00307732,-20.218751900000004],[-44.00286032,-20.2188509],[-44.00255132,-20.21887389999999],[-44.00226532,-20.218927900000004],[-44.00206732000001,-20.219012909999996],[-44.00173932,-20.219230909999997],[-44.00149132,-20.219440909999992],[-44.001334320000005,-20.219680909999994],[-44.00128532,-20.219911909999997],[-44.00121232,-20.220040909999998],[-44.00111332000001,-20.220132909999997],[-44.00094932,-20.220226910000004],[-44.00077032,-20.220479910000005],[-44.00073532,-20.220615910000003],[-44.00073532,-20.220765909999994],[-44.0008057478409,-20.221262695942258]]}},{"type":"Feature","id":"ide_240901_sf3_hidrografia_fbds_lin.38407","properties":{"id":38407,"geocodigo":3109006,"municipio":"BRUMADINHO","uf":"MG","cd_uf":31,"hidro":"curso d'água (0 - 10m)","comp_km":0.604389,"app_m":null},"geometry":{"type":"LineString","coordinates":[[-44.00255162,-20.216658089999992],[-44.00237662,-20.21664209],[-44.00159062,-20.2166251],[-44.00112462,-20.216654099999996],[-44.00090762,-20.216698100000002],[-44.00074362,-20.216688100000002],[-44.00054562,-20.216637099999993],[-44.00022062,-20.2164971],[-44.00010262,-20.2164321],[-43.99994962,-20.216288100000003],[-43.99986262,-20.216181100000004],[-43.99977062,-20.215984100000004],[-43.99974062,-20.21584710000001],[-43.99963362,-20.215544100000002],[-43.99959162,-20.215376100000007],[-43.99951862,-20.215233099999992],[-43.99943161,-20.2151281],[-43.99915661,-20.2149181],[-43.99903861,-20.214779100000005],[-43.99898861,-20.2146891],[-43.99892761,-20.214519099999986],[-43.99882461,-20.214359099999996],[-43.99854261,-20.214083099999996],[-43.99844661000001,-20.213938099999996],[-43.99843961,-20.213865099999996]]}},{"type":"Feature","id":"ide_240901_sf3_hidrografia_fbds_lin.38408","properties":{"id":38408,"geocodigo":3109006,"municipio":"BRUMADINHO","uf":"MG","cd_uf":31,"hidro":"curso d'água (0 - 10m)","comp_km":0.680694,"app_m":null},"geometry":{"type":"LineString","coordinates":[[-44.00904464,-20.21777908],[-44.00903264,-20.217699079999985],[-44.00897164,-20.217598080000002],[-44.00887664,-20.21748508],[-44.00828564,-20.21691708],[-44.00814064,-20.21679908],[-44.00807564,-20.216703079999995],[-44.00796463,-20.21640609],[-44.00791163,-20.21609508],[-44.00773963,-20.215795089999997],[-44.00766763,-20.21560309],[-44.00764463,-20.21545209],[-44.00763663,-20.21530909],[-44.00777763,-20.214962090000004],[-44.00794963,-20.21473308],[-44.00801063,-20.214615080000005],[-44.00801863,-20.21449708],[-44.00795363,-20.21422908],[-44.00795363,-20.21408608999999],[-44.00798763,-20.213987079999995],[-44.00807963,-20.21390709],[-44.00839563,-20.213735079999992],[-44.00852563,-20.21361208],[-44.00857863,-20.213507079999996],[-44.00861663,-20.21337508],[-44.00864363,-20.21326408],[-44.00864363,-20.213152080000004],[-44.00862063,-20.213064080000002],[-44.00849463,-20.212927079999993],[-44.00841863000001,-20.212723080000004],[-44.00837263,-20.212509079999993]]}},{"type":"Feature","id":"ide_240901_sf3_hidrografia_fbds_lin.38409","properties":{"id":38409,"geocodigo":3109006,"municipio":"BRUMADINHO","uf":"MG","cd_uf":31,"hidro":"curso d'água (0 - 10m)","comp_km":0.609699,"app_m":null},"geometry":{"type":"LineString","coordinates":[[-44.00453163,-20.21714809],[-44.00446663,-20.216860089999997],[-44.00434463,-20.216494090000005],[-44.00429863,-20.216268089999996],[-44.00419563,-20.21595208999999],[-44.00412363,-20.21580909],[-44.00409263,-20.215671089999997],[-44.00398562,-20.215523089999998],[-44.00395562,-20.215336089999994],[-44.00399762000001,-20.21512409],[-44.00411562,-20.21492609],[-44.00427962,-20.21472209],[-44.00432962,-20.21457909],[-44.004344620000005,-20.214416089999997],[-44.00431062,-20.214292089999997],[-44.00429162,-20.21410009],[-44.00426862,-20.21364009],[-44.00441662,-20.21349109000001],[-44.00453562,-20.213430089999996],[-44.00480662,-20.213350089999995],[-44.00522562,-20.213352090000004],[-44.00538962,-20.213318089999994],[-44.00552362,-20.21324309],[-44.00562262,-20.21316309],[-44.00571362,-20.213064089999996],[-44.00593862,-20.212929090000003]]}},{"type":"Feature","id":"ide_240901_sf3_hidrografia_fbds_lin.38410","properties":{"id":38410,"geocodigo":3109006,"municipio":"BRUMADINHO","uf":"MG","cd_uf":31,"hidro":"curso d'água (0 - 10m)","comp_km":0.420258,"app_m":null},"geometry":{"type":"LineString","coordinates":[[-44.00701063,-20.216234090000004],[-44.00653463,-20.21583909],[-44.00625163000001,-20.215578089999998],[-44.00611463,-20.215317090000006],[-44.00607663000001,-20.215141089999996],[-44.00606463,-20.214979090000003],[-44.00608063,-20.214888089999995],[-44.00617163,-20.21477509],[-44.00617963,-20.214731089999994],[-44.00616463000001,-20.214651089999993],[-44.00609563,-20.214577090000002],[-44.00600363,-20.214390090000002],[-44.00587763,-20.21407109],[-44.00575262,-20.21366709],[-44.00574462,-20.21352909000001],[-44.00593862,-20.212929090000003]]}},{"type":"Feature","id":"ide_240901_sf3_hidrografia_fbds_lin.38643","properties":{"id":38643,"geocodigo":3109006,"municipio":"BRUMADINHO","uf":"MG","cd_uf":31,"hidro":"curso d'água (0 - 10m)","comp_km":0.115248,"app_m":null},"geometry":{"type":"LineString","coordinates":[[-44.01494065,-20.221219880000007],[-44.01480708408166,-20.221408005306245]]}},{"type":"Feature","id":"ide_240901_sf3_hidrografia_fbds_lin.38644","properties":{"id":38644,"geocodigo":3109006,"municipio":"BRUMADINHO","uf":"MG","cd_uf":31,"hidro":"curso d'água (0 - 10m)","comp_km":0.551627,"app_m":null},"geometry":{"type":"LineString","coordinates":[[-44.01094263,-20.21906689],[-44.01101163,-20.219066889999993],[-44.01108763,-20.21909689],[-44.01120264,-20.219190889999997],[-44.01163364,-20.219813890000005],[-44.01162964,-20.21994589000001],[-44.01169464,-20.220355889999997],[-44.01176364,-20.220468889999992],[-44.01199564,-20.22063289],[-44.01284264,-20.221139889999993],[-44.01299164,-20.22125189000001],[-44.01322065,-20.22159589],[-44.01330465,-20.221677889999995],[-44.01344165,-20.22175789],[-44.01395977458355,-20.221927517605224]]}},{"type":"Feature","id":"ide_240901_sf3_hidrografia_fbds_lin.38645","properties":{"id":38645,"geocodigo":3109006,"municipio":"BRUMADINHO","uf":"MG","cd_uf":31,"hidro":"curso d'água (0 - 10m)","comp_km":0.479484,"app_m":null},"geometry":{"type":"LineString","coordinates":[[-44.01512934309436,-20.221163039259185],[-44.01494065,-20.221219880000007]]}},{"type":"Feature","id":"ide_240901_sf3_hidrografia_fbds_lin.38646","properties":{"id":38646,"geocodigo":3109006,"municipio":"BRUMADINHO","uf":"MG","cd_uf":31,"hidro":"curso d'água (0 - 10m)","comp_km":0.548198,"app_m":null},"geometry":{"type":"LineString","coordinates":[[-44.01409364,-20.216901879999998],[-44.01475365,-20.217265879999985],[-44.01494465,-20.217441880000006],[-44.01508965,-20.21760388],[-44.01523865,-20.21791988],[-44.01518865,-20.218192879999997],[-44.01500165,-20.218839880000004],[-44.01490265,-20.219031879999996],[-44.01486065,-20.219205879999993],[-44.01483365000001,-20.219441879999998],[-44.01483065,-20.219808880000002],[-44.01484965,-20.21998988],[-44.01500565,-20.22026788],[-44.01506265,-20.22053087999999],[-44.01506265,-20.22064188],[-44.01508165,-20.220704879999996],[-44.01504765,-20.22094188],[-44.01494065,-20.221219880000007]]}},{"type":"Feature","id":"ide_240901_sf3_hidrografia_fbds_lin.38647","properties":{"id":38647,"geocodigo":3109006,"municipio":"BRUMADINHO","uf":"MG","cd_uf":31,"hidro":"curso d'água (0 - 10m)","comp_km":0.604046,"app_m":null},"geometry":{"type":"LineString","coordinates":[[-44.01296164,-20.215746080000002],[-44.01283264,-20.21552808],[-44.01276764,-20.21547107999999],[-44.01216064,-20.215139079999993],[-44.01173764,-20.214868079999988],[-44.01127564,-20.21455007999999],[-44.01061563,-20.214043079999993],[-44.00989863,-20.213634079999995],[-44.00957063,-20.21347007999999],[-44.00918563,-20.213215080000005],[-44.00883863,-20.212957079999995],[-44.00860963,-20.212677079999995],[-44.00837263,-20.212509079999993]]}},{"type":"Feature","id":"ide_240901_sf3_hidrografia_fbds_lin.38648","properties":{"id":38648,"geocodigo":3109006,"municipio":"BRUMADINHO","uf":"MG","cd_uf":31,"hidro":"curso d'água (0 - 10m)","comp_km":0.812048,"app_m":null},"geometry":{"type":"LineString","coordinates":[[-44.01927836800705,-20.21393867203449],[-44.01932065,-20.212871069999995],[-44.01942365,-20.212109070000004],[-44.01950465,-20.211885060000004],[-44.01963765,-20.211599059999998],[-44.01984365,-20.211285059999998],[-44.02006865,-20.211037059999995],[-44.02030181942433,-20.210738684581113]]}},{"type":"Feature","id":"ide_240901_sf3_hidrografia_fbds_lin.38650","properties":{"id":38650,"geocodigo":3109006,"municipio":"BRUMADINHO","uf":"MG","cd_uf":31,"hidro":"curso d'água (0 - 10m)","comp_km":1.53749,"app_m":null},"geometry":{"type":"LineString","coordinates":[[-44.01829865,-20.21627206999999],[-44.01791765,-20.216041069999992],[-44.01760465000001,-20.215723069999992],[-44.01724965,-20.21529807],[-44.01702065,-20.21488607],[-44.01689065,-20.21443707],[-44.01682265,-20.213978070000003],[-44.01682665,-20.21344407],[-44.01677264,-20.212627069999996],[-44.01674264,-20.21232406999999],[-44.01662064,-20.211733069999998],[-44.01579664,-20.21056007],[-44.01559064,-20.209867069999994],[-44.01542964,-20.209576070000004],[-44.01539564000001,-20.209450069999992],[-44.01539963,-20.209165069999997],[-44.01544163,-20.208923070000004],[-44.01551063,-20.207176070000003],[-44.01554463,-20.207033069999998],[-44.01561663,-20.20689206999999],[-44.01571263,-20.20677907],[-44.01586163,-20.20667406999999],[-44.01622763,-20.206365070000004],[-44.01636463,-20.206194070000002],[-44.01643363,-20.206070070000003],[-44.01643363,-20.20590007],[-44.01645663,-20.205702070000008],[-44.01636863,-20.205522070000004],[-44.01616263,-20.20530907],[-44.01567763,-20.205109069999992],[-44.01555263,-20.20485507],[-44.01554381565954,-20.20466603480112]]}},{"type":"Feature","id":"ide_240901_sf3_hidrografia_fbds_lin.38720","properties":{"id":38720,"geocodigo":3109006,"municipio":"BRUMADINHO","uf":"MG","cd_uf":31,"hidro":"curso d'água (0 - 10m)","comp_km":0.96889,"app_m":null},"geometry":{"type":"LineString","coordinates":[[-43.99736162542486,-20.215286348894093],[-43.99742061,-20.215235099999994],[-43.99751961,-20.215183100000004],[-43.99772561,-20.2151451],[-43.99780661,-20.215158100000004],[-43.99796661,-20.215069099999997],[-43.99803161,-20.214994100000002],[-43.99806961,-20.214920100000004],[-43.99806961,-20.2148281],[-43.99815361,-20.214601100000003],[-43.99815361,-20.2144971],[-43.99812261,-20.214422100000004],[-43.99814561000001,-20.2142661],[-43.99835161,-20.2139611],[-43.99843961,-20.213865099999996]]}},{"type":"Feature","id":"ide_240901_sf3_hidrografia_fbds_lin.38721","properties":{"id":38721,"geocodigo":3109006,"municipio":"BRUMADINHO","uf":"MG","cd_uf":31,"hidro":"curso d'água (0 - 10m)","comp_km":1.39578,"app_m":null},"geometry":{"type":"LineString","coordinates":[[-43.997481683158114,-20.211516910030046],[-43.9976116,-20.211403100000005]]}},{"type":"Feature","id":"ide_240901_sf3_hidrografia_fbds_lin.38723","properties":{"id":38723,"geocodigo":3109006,"municipio":"BRUMADINHO","uf":"MG","cd_uf":31,"hidro":"curso d'água (0 - 10m)","comp_km":1.34943,"app_m":null},"geometry":{"type":"LineString","coordinates":[[-43.99871043392214,-20.2061381485125],[-43.998839600000004,-20.2061751],[-43.9989966,-20.206280100000008],[-43.9991066,-20.206402099999995],[-43.9993206,-20.206715099999993],[-43.9993736,-20.2067621],[-43.99948460000001,-20.206804099999996],[-43.9996146,-20.206825100000003],[-43.9997216,-20.2068251],[-43.999877600000005,-20.206802099999994],[-44.0002326,-20.206715099999993],[-44.0004076,-20.206709100000005],[-44.0004616,-20.206720099999995],[-44.0006256,-20.206861099999998],[-44.000701600000006,-20.2069661],[-44.000831600000005,-20.20723509999999],[-44.0008466,-20.2073731],[-44.0008926,-20.20745809999999],[-44.0009836,-20.207527099999993],[-44.0013956,-20.207624089999996]]}},{"type":"Feature","id":"ide_240901_sf3_hidrografia_fbds_lin.38725","properties":{"id":38725,"geocodigo":3109006,"municipio":"BRUMADINHO","uf":"MG","cd_uf":31,"hidro":"curso d'água (0 - 10m)","comp_km":3.03526,"app_m":null},"geometry":{"type":"LineString","coordinates":[[-44.00126593972347,-20.202673011943602],[-44.0014606,-20.202907090000004],[-44.0015976,-20.2031021],[-44.0016706,-20.203138100000004],[-44.0017616,-20.203140090000005],[-44.0018646,-20.203178089999998],[-44.0020366,-20.203264090000005],[-44.0024186,-20.203541090000005],[-44.0027386,-20.20379808999999],[-44.0030326,-20.20413609],[-44.0031166,-20.204334090000003],[-44.0031546,-20.204504090000004],[-44.0032456,-20.20471409],[-44.0035476,-20.20505909],[-44.0037306,-20.20518909],[-44.00396661,-20.205328089999988],[-44.00472561,-20.20557409]]}},{"type":"Feature","id":"ide_240901_sf3_hidrografia_fbds_lin.38727","properties":{"id":38727,"geocodigo":3109006,"municipio":"BRUMADINHO","uf":"MG","cd_uf":31,"hidro":"curso d'água (0 - 10m)","comp_km":0.307509,"app_m":null},"geometry":{"type":"LineString","coordinates":[[-43.99843961,-20.213865099999996],[-43.99847361,-20.213707099999997],[-43.99848561,-20.2134511],[-43.99848161,-20.212835100000003],[-43.99845861,-20.212709099999998],[-43.99839361,-20.2125871],[-43.99793961,-20.212219100000002],[-43.99765761,-20.211897100000005],[-43.9976116,-20.211403100000005]]}},{"type":"Feature","id":"ide_240901_sf3_hidrografia_fbds_lin.38728","properties":{"id":38728,"geocodigo":3109006,"municipio":"BRUMADINHO","uf":"MG","cd_uf":31,"hidro":"curso d'água (0 - 10m)","comp_km":0.149869,"app_m":null},"geometry":{"type":"LineString","coordinates":[[-44.00593862,-20.212929090000003],[-44.00600062,-20.21281009],[-44.00601962,-20.21271709],[-44.00599262,-20.21210909],[-44.00591962,-20.21195209],[-44.00572562,-20.211658089999993]]}},{"type":"Feature","id":"ide_240901_sf3_hidrografia_fbds_lin.38729","properties":{"id":38729,"geocodigo":3109006,"municipio":"BRUMADINHO","uf":"MG","cd_uf":31,"hidro":"curso d'água (0 - 10m)","comp_km":0.296132,"app_m":null},"geometry":{"type":"LineString","coordinates":[[-44.00837263,-20.212509079999993],[-44.00786963,-20.212173079999996],[-44.00767863,-20.21209309],[-44.00728163,-20.212009090000002],[-44.00686262,-20.211950090000002],[-44.00632462,-20.21182409],[-44.00572562,-20.211658089999993]]}},{"type":"Feature","id":"ide_240901_sf3_hidrografia_fbds_lin.38730","properties":{"id":38730,"geocodigo":3109006,"municipio":"BRUMADINHO","uf":"MG","cd_uf":31,"hidro":"curso d'água (0 - 10m)","comp_km":0.602004,"app_m":null},"geometry":{"type":"LineString","coordinates":[[-43.9976116,-20.211403100000005],[-43.99761561,-20.211382100000005],[-43.99765761,-20.211342100000003],[-43.99788661,-20.211164099999998],[-43.99801961,-20.211000099999996],[-43.9984396,-20.2108571],[-43.99855361,-20.2107121],[-43.99880161,-20.210491099999995],[-43.99900061,-20.210369099999998],[-43.99924061,-20.210270099999992],[-43.99935861000001,-20.210239100000003],[-43.99943461,-20.2102031],[-43.99950761,-20.210144100000004],[-43.99964061,-20.20996809999999],[-43.9999346,-20.2092061],[-44.0002856,-20.208565099999994],[-44.0003196,-20.2085341],[-44.00067461,-20.208397099999996],[-44.00080061,-20.2082671],[-44.00088861,-20.208137099999995],[-44.00101461,-20.208025099999997],[-44.00112461,-20.20788409999999],[-44.0013956,-20.207624089999996]]}},{"type":"Feature","id":"ide_240901_sf3_hidrografia_fbds_lin.38731","properties":{"id":38731,"geocodigo":3109006,"municipio":"BRUMADINHO","uf":"MG","cd_uf":31,"hidro":"curso d'água (0 - 10m)","comp_km":0.684336,"app_m":null},"geometry":{"type":"LineString","coordinates":[[-44.00572562,-20.211658089999993],[-44.00543562,-20.21144109],[-44.00535162,-20.21133409],[-44.00522562,-20.211098090000004],[-44.00517662,-20.210966089999996],[-44.00509562,-20.210853090000004],[-44.00498562,-20.210766090000003],[-44.00479062,-20.21068908999999],[-44.00464962,-20.210565089999996],[-44.00457362,-20.210422089999998],[-44.00457762,-20.210241089999997],[-44.00443962,-20.20990008999999],[-44.00422261,-20.209604089999996],[-44.00361961,-20.20904309],[-44.00331461,-20.20854409],[-44.00320361,-20.208258089999994],[-44.00318061,-20.20800209],[-44.00319661,-20.207724090000003],[-44.00340961,-20.207146089999995],[-44.00380261,-20.206495089999997]]}},{"type":"Feature","id":"ide_240901_sf3_hidrografia_fbds_lin.38732","properties":{"id":38732,"geocodigo":3109006,"municipio":"BRUMADINHO","uf":"MG","cd_uf":31,"hidro":"curso d'água (0 - 10m)","comp_km":0.302542,"app_m":null},"geometry":{"type":"LineString","coordinates":[[-44.0013956,-20.207624089999996],[-44.00151361,-20.207544089999992],[-44.00165561000001,-20.20748909],[-44.00181961,-20.20744708999999],[-44.00229261,-20.207418090000004],[-44.00257861,-20.20742409],[-44.00266261,-20.20740709],[-44.00272361,-20.20737109],[-44.00280361,-20.207271089999995],[-44.00308161,-20.20680609],[-44.003173610000005,-20.206728089999995],[-44.00340661,-20.20659109],[-44.00355461,-20.206530089999998],[-44.00380261,-20.206495089999997]]}},{"type":"Feature","id":"ide_240901_sf3_hidrografia_fbds_lin.38733","properties":{"id":38733,"geocodigo":3109006,"municipio":"BRUMADINHO","uf":"MG","cd_uf":31,"hidro":"curso d'água (0 - 10m)","comp_km":0.147024,"app_m":null},"geometry":{"type":"LineString","coordinates":[[-44.00380261,-20.206495089999997],[-44.00388661,-20.20628909],[-44.00410061,-20.205978090000006],[-44.00418861,-20.20587909],[-44.00429161,-20.205782089999996],[-44.00450461,-20.205627089999997],[-44.00472561,-20.20557409]]}},{"type":"Feature","id":"ide_240901_sf3_hidrografia_fbds_lin.38734","properties":{"id":38734,"geocodigo":3109006,"municipio":"BRUMADINHO","uf":"MG","cd_uf":31,"hidro":"curso d'água (0 - 10m)","comp_km":0.781283,"app_m":null},"geometry":{"type":"LineString","coordinates":[[-44.00878062,-20.207781080000004],[-44.00870862,-20.207575079999998],[-44.00859762,-20.20742608],[-44.00849862,-20.207338079999996],[-44.00841062,-20.207231079999993],[-44.00830762,-20.206835079999998],[-44.00830062,-20.20646708],[-44.00834261,-20.205528079999993],[-44.00829261,-20.205019079999992],[-44.00830061,-20.204857079999993],[-44.00836161,-20.204634079999998],[-44.00841461,-20.204311079999997],[-44.00840361,-20.203874079999995],[-44.00838061,-20.203739080000002],[-44.00822761,-20.203520079999993],[-44.00814361,-20.20331608],[-44.00809861,-20.203154080000004],[-44.00807561,-20.202860079999997],[-44.00809061,-20.202705080000012],[-44.00812161,-20.20257608],[-44.00823561,-20.20228908],[-44.00844161,-20.20193708],[-44.0088626442314,-20.2015084813587]]}},{"type":"Feature","id":"ide_240901_sf3_hidrografia_fbds_lin.38735","properties":{"id":38735,"geocodigo":3109006,"municipio":"BRUMADINHO","uf":"MG","cd_uf":31,"hidro":"curso d'água (0 - 10m)","comp_km":0.8003,"app_m":null},"geometry":{"type":"LineString","coordinates":[[-44.00472561,-20.20557409],[-44.00484061,-20.205549089999998],[-44.00501261,-20.20546909],[-44.00503161000001,-20.20544409],[-44.00503861,-20.20507608999999],[-44.00501961,-20.204979089999995],[-44.00497061,-20.20488909],[-44.00495061,-20.204773089999996],[-44.00495061,-20.20463609],[-44.00495861,-20.20449208999999],[-44.00500061,-20.20434909],[-44.00508061,-20.204220090000003],[-44.00535161,-20.203930089999993],[-44.00548861,-20.203850089999996],[-44.00583961,-20.20373309],[-44.00616061000001,-20.203705090000003],[-44.00632861,-20.203668090000004],[-44.006637610000006,-20.203508090000003],[-44.00718261,-20.202715080000004],[-44.00720961,-20.202597080000007],[-44.00720961,-20.20242908],[-44.00723561,-20.202343090000003],[-44.00736961,-20.202183079999998],[-44.00759461,-20.202009079999996],[-44.00770161,-20.20194008],[-44.007808610000005,-20.201893080000005],[-44.00789961,-20.201824080000005],[-44.00796461,-20.201738080000005],[-44.00796461,-20.201631079999988],[-44.00789961,-20.20153807999999],[-44.00788061,-20.20142508],[-44.007895610000006,-20.201321080000007],[-44.00794161,-20.201235080000004],[-44.00801061,-20.201177080000004],[-44.00807561,-20.20115508],[-44.00821261,-20.201149080000004],[-44.0085470853229,-20.20126672769516]]}},{"type":"Feature","id":"ide_240901_sf3_hidrografia_fbds_lin.38738","properties":{"id":38738,"geocodigo":3109006,"municipio":"BRUMADINHO","uf":"MG","cd_uf":31,"hidro":"curso d'água (0 - 10m)","comp_km":0.706263,"app_m":null},"geometry":{"type":"LineString","coordinates":[[-44.00609352890476,-20.20038132352951],[-44.0061866,-20.200489090000005],[-44.0063246,-20.20060709],[-44.0068466,-20.20093909],[-44.0070986,-20.200977079999994],[-44.0071976,-20.200960080000005],[-44.0073426,-20.200893080000004],[-44.007506773702126,-20.200706712503912]]}}]}