{"type":"FeatureCollection","features":[{"type":"Feature","id":"drenagem.719","properties":{"cd_identificador":719,"cd_tipo_acidente":"COR","tx_tipo_acidente":"CORREGO","cd_numero_ordem":"2","nm_acidente":"CORREGO MARANHAO","qt_comprimento_hidrografia":17.46251432902,"cd_tipo_curso_hidrografia":10,"nm_tipo_curso_hidrografia":"Trecho canalizado subterrâneo","nm_via_proximo":"R ARNALDO CINTRA","nm_descritivo":"Córrego Maranhão","nm_tipo_trecho":"Trecho fechado","dt_atualizacao":"2026-08-19T03:00:00Z","cd_usuario_atualizacao":null},"geometry":{"type":"LineString","coordinates":[[-46.56202927670482,-23.52634338107299],[-46.56197440620637,-23.52634122263027],[-46.561899918546565,-23.526336551886278],[-46.561858925256026,-23.52633109273013]]}},{"type":"Feature","id":"drenagem.3375","properties":{"cd_identificador":3375,"cd_tipo_acidente":"RIO","tx_tipo_acidente":"RIO","cd_numero_ordem":"5","nm_acidente":"RIO ARICANDUVA","qt_comprimento_hidrografia":148.03864990535,"cd_tipo_curso_hidrografia":9,"nm_tipo_curso_hidrografia":"Trecho canalizado a céu aberto","nm_via_proximo":"AV CDSSA ELISABETH DE ROBIANO","nm_descritivo":"Rio Aricanduva","nm_tipo_trecho":"Trecho a céu aberto","dt_atualizacao":"2026-08-19T03:00:00Z","cd_usuario_atualizacao":null},"geometry":{"type":"LineString","coordinates":[[-46.5583881884703,-23.526030401368466],[-46.55860384348088,-23.52546473547154],[-46.558858082396554,-23.52476593377741]]}},{"type":"Feature","id":"drenagem.3885","properties":{"cd_identificador":3885,"cd_tipo_acidente":"RIO","tx_tipo_acidente":"RIO","cd_numero_ordem":"5","nm_acidente":"RIO ARICANDUVA","qt_comprimento_hidrografia":233.08429439869,"cd_tipo_curso_hidrografia":9,"nm_tipo_curso_hidrografia":"Trecho canalizado a céu aberto","nm_via_proximo":"AV MORVAN DIAS DE FIGUEIREDO","nm_descritivo":"Rio Aricanduva","nm_tipo_trecho":"Trecho a céu aberto","dt_atualizacao":"2026-08-19T03:00:00Z","cd_usuario_atualizacao":null},"geometry":{"type":"LineString","coordinates":[[-46.558858082396554,-23.52476593377741],[-46.55887518766476,-23.52472151275453],[-46.55904287485669,-23.524490457130373],[-46.5593455802687,-23.52424811505744],[-46.56002366447203,-23.5237807619625],[-46.56043421051448,-23.523548173621197],[-46.56061744499183,-23.5234731890302]]}},{"type":"Feature","id":"drenagem.4497","properties":{"cd_identificador":4497,"cd_tipo_acidente":"RIO","tx_tipo_acidente":"RIO","cd_numero_ordem":"5","nm_acidente":"RIO ARICANDUVA","qt_comprimento_hidrografia":329.11508860836,"cd_tipo_curso_hidrografia":10,"nm_tipo_curso_hidrografia":"Trecho canalizado subterrâneo","nm_via_proximo":"AV ARICANDUVA","nm_descritivo":"Rio Aricanduva","nm_tipo_trecho":"Trecho fechado","dt_atualizacao":"2026-08-19T03:00:00Z","cd_usuario_atualizacao":null},"geometry":{"type":"LineString","coordinates":[[-46.55268973981795,-23.53166734316735],[-46.55273906954981,-23.531614473667222],[-46.55307482592829,-23.531515398903622],[-46.55360518690805,-23.531390901101158],[-46.55392526955509,-23.531124915722398],[-46.55415511049713,-23.53076410715705],[-46.55447392794925,-23.530390669749593],[-46.55481988484824,-23.530076562253694],[-46.55505926470734,-23.529861049131117],[-46.55508261904047,-23.52984817296637]]}},{"type":"Feature","id":"drenagem.5035","properties":{"cd_identificador":5035,"cd_tipo_acidente":"RIO","tx_tipo_acidente":"RIO","cd_numero_ordem":"5","nm_acidente":"RIO ARICANDUVA","qt_comprimento_hidrografia":567.6936767757,"cd_tipo_curso_hidrografia":9,"nm_tipo_curso_hidrografia":"Trecho canalizado a céu aberto","nm_via_proximo":"AV CELSO GARCIA","nm_descritivo":"Rio Aricanduva","nm_tipo_trecho":"Trecho a céu aberto","dt_atualizacao":"2026-08-19T03:00:00Z","cd_usuario_atualizacao":null},"geometry":{"type":"LineString","coordinates":[[-46.55508261904047,-23.52984817296637],[-46.555568876384875,-23.52955523817176],[-46.55702167283399,-23.528752341576517],[-46.557281080059774,-23.528491472118958],[-46.557531344620266,-23.528119617999433],[-46.5576830934303,-23.527865243735715],[-46.55798544328338,-23.527092814243108],[-46.5583881884703,-23.526030401368466]]}},{"type":"Feature","id":"drenagem.5996","properties":{"cd_identificador":5996,"cd_tipo_acidente":"COR","tx_tipo_acidente":"CORREGO","cd_numero_ordem":"2","nm_acidente":"CORREGO MARANHAO","qt_comprimento_hidrografia":416.13092535355,"cd_tipo_curso_hidrografia":11,"nm_tipo_curso_hidrografia":"Trecho em estado natural","nm_via_proximo":"R ARNALDO CINTRA","nm_descritivo":"Córrego Maranhão","nm_tipo_trecho":"Trecho a céu aberto","dt_atualizacao":"2026-08-19T03:00:00Z","cd_usuario_atualizacao":null},"geometry":{"type":"LineString","coordinates":[[-46.561858925256026,-23.52633109273013],[-46.56185577726988,-23.52633067350624],[-46.56182031077639,-23.526312968355914],[-46.56179565877268,-23.526298766886036],[-46.56176129944446,-23.52629188725868],[-46.561677008566306,-23.526286411728687],[-46.561581030521545,-23.52628647174626],[-46.561489012132185,-23.526290104192203],[-46.56142830871879,-23.526291616295605],[-46.561378291914764,-23.52628579672748],[-46.56131352229996,-23.526274706823],[-46.561254692173165,-23.52626897563187],[-46.56111553084329,-23.526261341077287],[-46.56100664133551,-23.52624617833176],[-46.56094576749395,-23.526233243087624],[-46.56090734205629,-23.526213761291732],[-46.560876846562415,-23.526202327441677],[-46.560820006947324,-23.526199285282964],[-46.56078769140676,-23.52619960937416],[-46.560747595047765,-23.52620452676107],[-46.56072319877909,-23.52621199585405],[-46.5606989090099,-23.526228494418532],[-46.5606669662116,-23.52626042164848],[-46.560564400047426,-23.526366204462946],[-46.56049110505996,-23.52646266317155],[-46.56045230732775,-23.526494659095686],[-46.560405643540165,-23.526524024716934],[-46.56034622803411,-23.526551712067107],[-46.560262405487656,-23.52658596547359],[-46.5602097063439,-23.52660184573058],[-46.56012656488564,-23.526610806713876],[-46.56000433808779,-23.52662738388365],[-46.55991920613251,-23.52663365554647],[-46.55986138706916,-23.526630622861898],[-46.5597975540566,-23.52661591072234],[-46.559751507437255,-23.526614566114354],[-46.559708515685706,-23.526623124476966],[-46.55965968028274,-23.52663445055535],[-46.55960390488795,-23.526638621730445],[-46.559555846520546,-23.526632781952195],[-46.55952233874357,-23.52661505664005],[-46.55950736246397,-23.526590824239392],[-46.55951440902957,-23.52652392758441],[-46.55949385554336,-23.526358874543423],[-46.559483307354895,-23.526294863360665],[-46.55945061930882,-23.526263583993874],[-46.5593829013956,-23.52625161976565],[-46.559274395078134,-23.52626896192901],[-46.55913738378499,-23.52627755904332],[-46.55909624421836,-23.526277068130373],[-46.55904529077141,-23.52627486940953],[-46.55900309747334,-23.526268067644125],[-46.55896575792577,-23.526257605027023],[-46.55891058957988,-23.52623016294718],[-46.558861339365244,-23.526206273787466],[-46.55884346802522,-23.52618568253219],[-46.55883252596954,-23.526171343253264],[-46.558811780684735,-23.526156199109348],[-46.558768384795876,-23.526130445170434],[-46.558724062847965,-23.526109215768162],[-46.55869449361727,-23.526093256929066],[-46.55855503468234,-23.52606033750963],[-46.55846279292196,-23.526045006243336],[-46.55841665077938,-23.526035534692216],[-46.5583881884703,-23.526030401368466]]}},{"type":"Feature","id":"drenagem.6252","properties":{"cd_identificador":6252,"cd_tipo_acidente":"COR","tx_tipo_acidente":"CORREGO","cd_numero_ordem":"2","nm_acidente":"CORREGO MARANHAO","qt_comprimento_hidrografia":350.475712776,"cd_tipo_curso_hidrografia":11,"nm_tipo_curso_hidrografia":"Trecho em estado natural","nm_via_proximo":"R DO TATUAPE","nm_descritivo":"Córrego Maranhão","nm_tipo_trecho":"Trecho a céu aberto","dt_atualizacao":"2026-08-19T03:00:00Z","cd_usuario_atualizacao":null},"geometry":{"type":"LineString","coordinates":[[-46.56155991000482,-23.529143946231553],[-46.56167006515964,-23.528934235397944],[-46.561686211954026,-23.528891629831453],[-46.56170590280527,-23.528817381815678],[-46.56174393343727,-23.528720373400297],[-46.56179662118466,-23.52862050871568],[-46.561841378719315,-23.528512596122656],[-46.561874843243686,-23.528443628172667],[-46.56191102170645,-23.52835566884881],[-46.5619300315665,-23.52830671314838],[-46.56195690758102,-23.528260387654424],[-46.56197953602521,-23.52818611012435],[-46.56198199414469,-23.528145448033708],[-46.561971870961244,-23.528117554975452],[-46.56194276852105,-23.528058245528747],[-46.56193750973383,-23.52802759448261],[-46.56192298980674,-23.527959108129547],[-46.56190476600006,-23.52790872002398],[-46.56187781404611,-23.52786564394521],[-46.561813020977425,-23.527769667462167],[-46.56178986891916,-23.52771661963711],[-46.56178359894108,-23.527683269568964],[-46.56178312997261,-23.527643539906123],[-46.56179837193869,-23.527607264787342],[-46.56183590258087,-23.527550898794313],[-46.56191571088107,-23.52742547638703],[-46.5619675786658,-23.527339165693924],[-46.56200398066255,-23.527270168239372],[-46.562048099488756,-23.52719115972954],[-46.56212502289342,-23.52707028145291],[-46.562224947422926,-23.526906728722786],[-46.562290108700616,-23.526785065391845],[-46.562331204128625,-23.52669886273206],[-46.56233269354074,-23.526659113413135],[-46.56233043649319,-23.526633850565197],[-46.56231437383795,-23.526600598825258],[-46.56224867650739,-23.526510952950783],[-46.5620845202957,-23.526377142637898],[-46.56205189560434,-23.526351281533294],[-46.56202927670482,-23.52634338107299]]}},{"type":"Feature","id":"drenagem.11452","properties":{"cd_identificador":11452,"cd_tipo_acidente":"COR","tx_tipo_acidente":"CORREGO","cd_numero_ordem":"4","nm_acidente":"CORREGO TIQUATIRA","qt_comprimento_hidrografia":521.3599942249,"cd_tipo_curso_hidrografia":9,"nm_tipo_curso_hidrografia":"Trecho canalizado a céu aberto","nm_via_proximo":"AV MORVAN DIAS DE FIGUEIREDO","nm_descritivo":"Córrego Tiquatira","nm_tipo_trecho":"Trecho a céu aberto","dt_atualizacao":"2026-08-19T03:00:00Z","cd_usuario_atualizacao":null},"geometry":{"type":"LineString","coordinates":[[-46.55148142975265,-23.515402690597977],[-46.55155404805091,-23.51541551277316],[-46.552232844558866,-23.515594776341132],[-46.55275487199867,-23.515683488638793],[-46.55374542317307,-23.515891242770046],[-46.554872614332275,-23.51614277867002],[-46.55528331481585,-23.5162578797508],[-46.55549269566983,-23.516408404461995],[-46.55580816619679,-23.51666984771616],[-46.55598440159077,-23.516916426961433],[-46.556047916290495,-23.517071117870234]]}},{"type":"Feature","id":"drenagem.11486","properties":{"cd_identificador":11486,"cd_tipo_acidente":"RIO","tx_tipo_acidente":"RIO","cd_numero_ordem":"5","nm_acidente":"RIO ARICANDUVA","qt_comprimento_hidrografia":99.329236604,"cd_tipo_curso_hidrografia":9,"nm_tipo_curso_hidrografia":"Trecho canalizado a céu aberto","nm_via_proximo":"AV ARICANDUVA","nm_descritivo":"Rio Aricanduva","nm_tipo_trecho":"Trecho a céu aberto","dt_atualizacao":"2026-08-19T03:00:00Z","cd_usuario_atualizacao":null},"geometry":{"type":"LineString","coordinates":[[-46.54792673956826,-23.53534237926841],[-46.54797320855801,-23.53529586102496],[-46.547995447856565,-23.535271257214582],[-46.548020234115704,-23.53521321494818],[-46.54805799119477,-23.535091829625376],[-46.5481408536242,-23.53480744521255],[-46.54822538901329,-23.534498661572513]]}},{"type":"Feature","id":"drenagem.13782","properties":{"cd_identificador":13782,"cd_tipo_acidente":"COR","tx_tipo_acidente":"CORREGO","cd_numero_ordem":"4","nm_acidente":"CORREGO TIQUATIRA","qt_comprimento_hidrografia":302.20928660988,"cd_tipo_curso_hidrografia":10,"nm_tipo_curso_hidrografia":"Trecho canalizado subterrâneo","nm_via_proximo":"AV GOV CARVALHO PINTO","nm_descritivo":"Córrego Tiquatira","nm_tipo_trecho":"Trecho fechado","dt_atualizacao":"2026-08-19T03:00:00Z","cd_usuario_atualizacao":null},"geometry":{"type":"LineString","coordinates":[[-46.54860461500503,-23.5147639723759],[-46.548658638896484,-23.514777883944635],[-46.551432354190105,-23.515393246014362],[-46.55148142975265,-23.515402690597977]]}},{"type":"Feature","id":"drenagem.15197","properties":{"cd_identificador":15197,"cd_tipo_acidente":"RIO","tx_tipo_acidente":"RIO","cd_numero_ordem":"5","nm_acidente":"RIO ARICANDUVA","qt_comprimento_hidrografia":394.40451119061,"cd_tipo_curso_hidrografia":9,"nm_tipo_curso_hidrografia":"Trecho canalizado a céu aberto","nm_via_proximo":"AV ARICANDUVA","nm_descritivo":"Rio Aricanduva","nm_tipo_trecho":"Trecho a céu aberto","dt_atualizacao":"2026-08-19T03:00:00Z","cd_usuario_atualizacao":null},"geometry":{"type":"LineString","coordinates":[[-46.54594177172163,-23.538223001486525],[-46.546428566444405,-23.537971628684204],[-46.54678890685412,-23.537711578132154],[-46.5468742025176,-23.53763487325081],[-46.54709886295,-23.537331018198348],[-46.54723247804673,-23.537114761826967],[-46.54734778524239,-23.53675690747923],[-46.547435430535835,-23.536462542191448],[-46.54754386021438,-23.536102950009056],[-46.54765046804611,-23.535755115626237],[-46.547854452026286,-23.535442434730495],[-46.54792673956826,-23.53534237926841]]}},{"type":"Feature","id":"drenagem.17456","properties":{"cd_identificador":17456,"cd_tipo_acidente":"RIO","tx_tipo_acidente":"RIO","cd_numero_ordem":"7","nm_acidente":"RIO TIETE","qt_comprimento_hidrografia":1205.46060846258,"cd_tipo_curso_hidrografia":9,"nm_tipo_curso_hidrografia":"Trecho canalizado a céu aberto","nm_via_proximo":"AV MORVAN DIAS DE FIGUEIREDO","nm_descritivo":"Rio Tietê","nm_tipo_trecho":"Trecho a céu aberto","dt_atualizacao":"2026-08-19T03:00:00Z","cd_usuario_atualizacao":null},"geometry":{"type":"LineString","coordinates":[[-46.56061744499183,-23.5234731890302],[-46.56124688232908,-23.52344881537976],[-46.562157126001374,-23.52340175386811],[-46.56240278666527,-23.52338845139069],[-46.56264754265315,-23.523381478988476],[-46.56289334181069,-23.523379914051013],[-46.56313823635936,-23.523384679187615],[-46.56338921966561,-23.523407443854968],[-46.563638329910184,-23.523437451360728],[-46.563886535700206,-23.523473788925997],[-46.56413384774345,-23.52351735949948],[-46.56437927616865,-23.52356726997939],[-46.56462380024793,-23.523623510528793],[-46.564865472216766,-23.523687003787046],[-46.56510526067198,-23.52375683697244],[-46.56534218640705,-23.523833019940373],[-46.56576564165202,-23.524030141356764],[-46.56618523457168,-23.524231815691497],[-46.5666019551276,-23.52443893606252],[-46.56701677191273,-23.524650589686082],[-46.567427737166675,-23.5248676992442],[-46.56783581947388,-23.525089351955916],[-46.568240050317215,-23.525316460653787],[-46.56890798486069,-23.525647470234222],[-46.56930086908708,-23.525825925591082],[-46.5695339692909,-23.525909364875954],[-46.5697709010863,-23.525985540736965],[-46.57000971664582,-23.526055375859674],[-46.57025040522157,-23.52611796729385],[-46.57049395674658,-23.52617420809433],[-46.57073840196067,-23.526223215073212],[-46.57098472007846,-23.5262649783435],[-46.571232921782425,-23.526300400841425],[-46.57148102708025,-23.526327696450554],[-46.571731015886556,-23.526348651279847]]}},{"type":"Feature","id":"drenagem.19106","properties":{"cd_identificador":19106,"cd_tipo_acidente":"RIO","tx_tipo_acidente":"RIO","cd_numero_ordem":"7","nm_acidente":"RIO TIETE","qt_comprimento_hidrografia":1010.01330988315,"cd_tipo_curso_hidrografia":9,"nm_tipo_curso_hidrografia":"Trecho canalizado a céu aberto","nm_via_proximo":"AV MORVAN DIAS DE FIGUEIREDO","nm_descritivo":"Rio Tietê","nm_tipo_trecho":"Trecho a céu aberto","dt_atualizacao":"2026-08-19T03:00:00Z","cd_usuario_atualizacao":null},"geometry":{"type":"LineString","coordinates":[[-46.556047916290495,-23.517071117870234],[-46.55592434861589,-23.517639472526422],[-46.55575212197872,-23.518400664453242],[-46.55569151857522,-23.51899367524026],[-46.55569848044043,-23.51958601075297],[-46.555777851495485,-23.520173107247867],[-46.55602380772786,-23.52076847207626],[-46.556462615997134,-23.52152355511587],[-46.55691395295178,-23.522011206775446],[-46.55746402577748,-23.52248342011456],[-46.557880717831765,-23.522689661959873],[-46.55823616583,-23.522934444103853],[-46.55872628114519,-23.523221223438505],[-46.55920486139381,-23.52336001565338],[-46.559610244592314,-23.52343722904042],[-46.5602688572648,-23.523478489994364],[-46.56061744499183,-23.5234731890302]]}},{"type":"Feature","id":"drenagem.19600","properties":{"cd_identificador":19600,"cd_tipo_acidente":"RIO","tx_tipo_acidente":"RIO","cd_numero_ordem":"5","nm_acidente":"RIO ARICANDUVA","qt_comprimento_hidrografia":561.89174652815,"cd_tipo_curso_hidrografia":9,"nm_tipo_curso_hidrografia":"Trecho canalizado a céu aberto","nm_via_proximo":"AV ARICANDUVA","nm_descritivo":"Rio Aricanduva","nm_tipo_trecho":"Trecho a céu aberto","dt_atualizacao":"2026-08-19T03:00:00Z","cd_usuario_atualizacao":null},"geometry":{"type":"LineString","coordinates":[[-46.548247976610895,-23.534252805276296],[-46.548272378457646,-23.53407827243276],[-46.54834674679718,-23.53390504847231],[-46.54842181259212,-23.533791419309576],[-46.54851357955414,-23.533682139184954],[-46.54904176785695,-23.533203679718067],[-46.54947241056019,-23.532926668636758],[-46.54989120907024,-23.532725631180707],[-46.5508413007921,-23.532395579432308],[-46.551077727134995,-23.53226137656447],[-46.55128349797233,-23.532102193403034],[-46.55145155194057,-23.531984023594113],[-46.551684726947734,-23.531906744823246],[-46.55192726625342,-23.53187633124427],[-46.5522687681661,-23.531849445361647],[-46.552492308303776,-23.531785807366912],[-46.55268973981795,-23.53166734316735]]}},{"type":"Feature","id":"drenagem.21003","properties":{"cd_identificador":21003,"cd_tipo_acidente":"RIO","tx_tipo_acidente":"RIO","cd_numero_ordem":"7","nm_acidente":"RIO TIETE","qt_comprimento_hidrografia":801.10514164123,"cd_tipo_curso_hidrografia":9,"nm_tipo_curso_hidrografia":"Trecho canalizado a céu aberto","nm_via_proximo":"AV MORVAN DIAS DE FIGUEIREDO","nm_descritivo":"Rio Tietê","nm_tipo_trecho":"Trecho a céu aberto","dt_atualizacao":"2026-08-19T03:00:00Z","cd_usuario_atualizacao":null},"geometry":{"type":"LineString","coordinates":[[-46.555482193940364,-23.510013057925644],[-46.555557082715694,-23.51013602869283],[-46.55576062676076,-23.510707436643973],[-46.55604376451908,-23.511468593900396],[-46.55630944254169,-23.512493617626244],[-46.55644916009612,-23.51329955396012],[-46.55649866043716,-23.514011571007497],[-46.556494108218615,-23.514957117006883],[-46.55642395049693,-23.515570090880907],[-46.55625094321779,-23.516264464916837],[-46.5560971493885,-23.51684395853252],[-46.556047916290495,-23.517071117870234]]}},{"type":"Feature","id":"drenagem.21498","properties":{"cd_identificador":21498,"cd_tipo_acidente":"ND","tx_tipo_acidente":" ","cd_numero_ordem":"1","nm_acidente":null,"qt_comprimento_hidrografia":951.48596589451,"cd_tipo_curso_hidrografia":10,"nm_tipo_curso_hidrografia":"Trecho canalizado subterrâneo","nm_via_proximo":"AV GOV CARVALHO PINTO","nm_descritivo":null,"nm_tipo_trecho":"Trecho fechado","dt_atualizacao":"2026-08-19T03:00:00Z","cd_usuario_atualizacao":null},"geometry":{"type":"LineString","coordinates":[[-46.54452123743173,-23.520243665911597],[-46.544619988309115,-23.519894104995657],[-46.54471683297315,-23.519549078239493],[-46.54475794544567,-23.51912784442289],[-46.544790919270184,-23.518764487176888],[-46.54480787707399,-23.518287503315563],[-46.54484233819686,-23.518219431847175],[-46.54485060224818,-23.51808840616048],[-46.5448632135086,-23.5178263936517],[-46.54493903029101,-23.51752582537045],[-46.54512420388031,-23.5174490335993],[-46.54520903603292,-23.51741748755458],[-46.54546231057158,-23.517302090908906],[-46.545303999363185,-23.516743765367828],[-46.54536733088079,-23.516716044914055],[-46.54549817415766,-23.516683138928123],[-46.545778295143144,-23.51651871008351],[-46.54585072387983,-23.51651528172471],[-46.54603266568477,-23.516581204463428],[-46.54618032529018,-23.516646564411605],[-46.54753143623847,-23.51703680694724],[-46.54766863739006,-23.516961392164887],[-46.5476742540589,-23.516771693905465],[-46.54775136813691,-23.51574505201542],[-46.547838621534915,-23.515083145170664],[-46.5479996452548,-23.514616468661877]]}},{"type":"Feature","id":"drenagem.24816","properties":{"cd_identificador":24816,"cd_tipo_acidente":"COR","tx_tipo_acidente":"CORREGO","cd_numero_ordem":"2","nm_acidente":"CORREGO MARANHAO","qt_comprimento_hidrografia":782.86840941041,"cd_tipo_curso_hidrografia":10,"nm_tipo_curso_hidrografia":"Trecho canalizado subterrâneo","nm_via_proximo":"AV CELSO GARCIA","nm_descritivo":"Córrego Maranhão","nm_tipo_trecho":"Trecho fechado","dt_atualizacao":"2026-08-19T03:00:00Z","cd_usuario_atualizacao":null},"geometry":{"type":"LineString","coordinates":[[-46.56300419163635,-23.53591318036717],[-46.56254431038343,-23.535040032469936],[-46.562396573987016,-23.534721835396113],[-46.562345961958485,-23.533505028203084],[-46.56217307164669,-23.533047110098423],[-46.56170465680788,-23.532030458937047],[-46.56136379110801,-23.530949312386063],[-46.561391776284786,-23.530250068054237],[-46.56144722746539,-23.529803403119995],[-46.56149790276697,-23.529615962503957],[-46.56151860506361,-23.529544413520895],[-46.56153497334995,-23.52935460798712],[-46.56155991000482,-23.529143946231553]]}},{"type":"Feature","id":"drenagem.26088","properties":{"cd_identificador":26088,"cd_tipo_acidente":"RIO","tx_tipo_acidente":"RIO","cd_numero_ordem":"5","nm_acidente":"RIO ARICANDUVA","qt_comprimento_hidrografia":27.32648081734,"cd_tipo_curso_hidrografia":9,"nm_tipo_curso_hidrografia":"Trecho canalizado a céu aberto","nm_via_proximo":"AV CD DE FRONTIN","nm_descritivo":"Rio Aricanduva","nm_tipo_trecho":"Trecho a céu aberto","dt_atualizacao":"2026-08-19T03:00:00Z","cd_usuario_atualizacao":null},"geometry":{"type":"LineString","coordinates":[[-46.54822538901329,-23.534498661572513],[-46.548247976610895,-23.534252805276296]]}},{"type":"Feature","id":"drenagem.27417","properties":{"cd_identificador":27417,"cd_tipo_acidente":"COR","tx_tipo_acidente":"CORREGO","cd_numero_ordem":"3","nm_acidente":"CORREGO RINCAO","qt_comprimento_hidrografia":208.28665578287,"cd_tipo_curso_hidrografia":9,"nm_tipo_curso_hidrografia":"Trecho canalizado a céu aberto","nm_via_proximo":"AV CD DE FRONTIN","nm_descritivo":"Córrego Rincão","nm_tipo_trecho":"Trecho a céu aberto","dt_atualizacao":"2026-08-19T03:00:00Z","cd_usuario_atualizacao":null},"geometry":{"type":"LineString","coordinates":[[-46.54630566572037,-23.533742928954794],[-46.54634325995189,-23.533775065409873],[-46.546505967075944,-23.53386917238337],[-46.546681962605,-23.533927024776442],[-46.54709727213989,-23.53401320151868],[-46.547825042492,-23.5341847686704],[-46.54795554618818,-23.534205143725462],[-46.54802802673347,-23.534205325661166],[-46.54809174620235,-23.53421011002021],[-46.54821546866604,-23.53423687372594],[-46.548247976610895,-23.534252805276296]]}},{"type":"Feature","id":"drenagem.26125","properties":{"cd_identificador":26125,"cd_tipo_acidente":"ND","tx_tipo_acidente":" ","cd_numero_ordem":"1","nm_acidente":null,"qt_comprimento_hidrografia":2423.63686036414,"cd_tipo_curso_hidrografia":10,"nm_tipo_curso_hidrografia":"Trecho canalizado subterrâneo","nm_via_proximo":"AV ARICANDUVA","nm_descritivo":null,"nm_tipo_trecho":"Trecho fechado","dt_atualizacao":"2026-08-19T03:00:00Z","cd_usuario_atualizacao":null},"geometry":{"type":"LineString","coordinates":[[-46.55252009748853,-23.546],[-46.55253352461972,-23.545892023980574],[-46.552671004086505,-23.5451709170586],[-46.552959093672,-23.54476347239717],[-46.5529974992191,-23.543863646509728],[-46.552794759064554,-23.543281394191265],[-46.55274042754381,-23.542741909769415],[-46.552487591024914,-23.541980448966907],[-46.55248073152591,-23.541396240796033],[-46.55222841892021,-23.540679023754365],[-46.55187606399499,-23.539783096146078],[-46.551624817716075,-23.53915617263688],[-46.55122712056779,-23.53848555616879],[-46.55053344726938,-23.537548777928475],[-46.550084687635476,-23.53669895866023],[-46.54958643829394,-23.53580447785903],[-46.54904449598559,-23.535360152375635],[-46.54869744376514,-23.534913885021254],[-46.54824615568068,-23.534515613011397],[-46.54822538901329,-23.534498661572513]]}}],"barch_provenance":{"source":"[acervo interno]","crs_original":"urn:ogc:def:crs:EPSG::31983","output":"EPSG:4326","operation":"reproject and clip for visualization only","clipped_bbox":[-46.585,-23.546,-46.531,-23.508],"captured_at":"2026-09-28"}}