{"type":"FeatureCollection","features":[{"type":"Feature","id":"lote_principal","properties":{"id":"lote_principal","kind":"cadastro","label":"SQL 062.096.0003-4 — cadastro WFS","status":"hipotese_cartografica_nao_aprovada","area_fiscal_m2":7338,"sql":"06209600034","status_fonte":"cadastro_observado_area_divergente","area_cartografica_m2":8664.906},"geometry":{"type":"Polygon","coordinates":[[[-46.558542161853914,-23.524777928579436],[-46.55819054502862,-23.52578215477188],[-46.55825967299121,-23.525811333953328],[-46.55802338835363,-23.52605571950714],[-46.557976749418984,-23.526103957168996],[-46.557889084841534,-23.52594585165214],[-46.55777629518035,-23.52572864146783],[-46.55772495201567,-23.525629763167707],[-46.55772431669466,-23.52562820723885],[-46.55766917623131,-23.52549327356255],[-46.55765816443166,-23.52549712242604],[-46.557530969270104,-23.52525214091005],[-46.55742979241493,-23.525056747629304],[-46.557429031407196,-23.525054497603126],[-46.55742868485833,-23.52505334515854],[-46.557428347995824,-23.525052183586467],[-46.55742804051087,-23.52505102172043],[-46.55742775261097,-23.5250498596584],[-46.55742748418984,-23.525048688370884],[-46.55742724504009,-23.52504750775991],[-46.55742702547538,-23.525046326952932],[-46.55742682549581,-23.52504514594998],[-46.55742665478753,-23.525043955623563],[-46.55742649397804,-23.525042774228734],[-46.55742636243984,-23.52504158351025],[-46.557426260173024,-23.525040383468475],[-46.557426167805,-23.525039192358108],[-46.55742611450077,-23.52503799182629],[-46.557426071095335,-23.525036800225955],[-46.55742604716876,-23.52503559940015],[-46.55742605272602,-23.52503440730996],[-46.55742608755466,-23.525033205896197],[-46.55742613228198,-23.525032013413934],[-46.55742620628069,-23.5250308116083],[-46.5574262999707,-23.52502961863608],[-46.55742642303836,-23.52502842536996],[-46.55742656579732,-23.52502724093736],[-46.55742672803505,-23.525026047279187],[-46.55742690996408,-23.52502486245461],[-46.55742712137703,-23.525023686365547],[-46.55742735226873,-23.525022501051016],[-46.557427602958015,-23.525021333599554],[-46.55742787312615,-23.525020156922533],[-46.557428172884286,-23.525018998010523],[-46.557428492227544,-23.525017838902606],[-46.55742883115592,-23.525016679598615],[-46.55742919956802,-23.525015529030245],[-46.557429577879006,-23.525014387393355],[-46.55742998556753,-23.52501324546249],[-46.55743041305363,-23.525012121394614],[-46.55743086012485,-23.525010997130845],[-46.55743133667988,-23.525009881602504],[-46.55743182302743,-23.52500876597625],[-46.55743233896506,-23.525007668115006],[-46.55743286480157,-23.525006579185252],[-46.55743342001561,-23.525005489961515],[-46.557433995027225,-23.525004418600776],[-46.55743458973014,-23.52500335607363],[-46.55743520412444,-23.5250023023799],[-46.55743583821004,-23.52500125751976],[-46.557436491986934,-23.52500022149312],[-46.55743716545512,-23.524999194300076],[-46.557437858720874,-23.524998184969935],[-46.55743857167802,-23.524997184473392],[-46.55743929453395,-23.524996192908333],[-46.55744004687367,-23.524995210078778],[-46.55744080921846,-23.524994245210216],[-46.55744160115333,-23.524993298106743],[-46.55744240288079,-23.524992350905187],[-46.5574432245121,-23.52499143059619],[-46.55744406572842,-23.524990510091214],[-46.5574449169498,-23.524989607547308],[-46.55744578796884,-23.524988722866393],[-46.55744667878534,-23.524987856048373],[-46.55744758929323,-23.52498699806403],[-46.55744850969991,-23.5249861490111],[-46.557449440111625,-23.524985317919143],[-46.55745040011353,-23.52498450459228],[-46.55745137012039,-23.52498370922648],[-46.55745235013239,-23.52498293182158],[-46.55745334983558,-23.52498216325025],[-46.557454359543925,-23.524981412639825],[-46.55745538904984,-23.52498067989257],[-46.557456428560805,-23.5249799651062],[-46.557457477970644,-23.524979259251406],[-46.55745854728423,-23.524978580289098],[-46.55745962649658,-23.52497791025828],[-46.55746071582036,-23.52497726721792],[-46.55746182483544,-23.524976633011157],[-46.55746293416933,-23.52497602589285],[-46.557464063194516,-23.52497542760813],[-46.55774436976763,-23.52492565439123],[-46.55784533719524,-23.52490772956086],[-46.55800099394585,-23.52487745427113],[-46.55842042115694,-23.524800248426867],[-46.558542161853914,-23.524777928579436]]]}}]}