{"type":"FeatureCollection","features":[{"type":"Feature","id":"geoconvias_lei_melhoramento_vigente.10","properties":{"cd_identificador_lei_vigente_etl":10,"cd_identificador_lei_vigente_original":8121,"cd_numero_lei_vigente":7692,"an_lei_melhoramento_vigente":1972,"tx_dc_tipo_norma":"LEI","tx_descricao_tipo_melhoramento":"Viário","cd_plano_rodoviario_municipal":null,"nr_folha_lei_vigente":24667,"tp_classe_lei_melhoramento":"A0044","dc_complemento_lei_melhoramento":"99","dt_carga":"2026-05-26Z"},"geometry":{"type":"Polygon","coordinates":[[[-46.561391269186096,-23.518792825632364],[-46.56110106588177,-23.518632463586215],[-46.56015822843112,-23.520082561509398],[-46.55976368507291,-23.52056703166237],[-46.55956296167425,-23.52068680138421],[-46.55933934961439,-23.52081727560671],[-46.56012572652431,-23.52125505424195],[-46.5601494311922,-23.521022821523385],[-46.56015306817537,-23.520766407416847],[-46.560274255025,-23.520545750084175],[-46.560451703760606,-23.520262759634633],[-46.561302888270085,-23.518905149198822],[-46.561391269186096,-23.518792825632364]]]}},{"type":"Feature","id":"geoconvias_lei_melhoramento_vigente.292","properties":{"cd_identificador_lei_vigente_etl":292,"cd_identificador_lei_vigente_original":8146,"cd_numero_lei_vigente":9554,"an_lei_melhoramento_vigente":1982,"tx_dc_tipo_norma":"LEI","tx_descricao_tipo_melhoramento":"Viário","cd_plano_rodoviario_municipal":null,"nr_folha_lei_vigente":26207,"tp_classe_lei_melhoramento":"C0505","dc_complemento_lei_melhoramento":"99","dt_carga":"2026-05-26Z"},"geometry":{"type":"Polygon","coordinates":[[[-46.55615564658795,-23.523126465880697],[-46.555775998021616,-23.52358034481596],[-46.555665802294556,-23.523712118627508],[-46.5555640514573,-23.523679180633764],[-46.555446165311444,-23.523589962739674],[-46.55535658630695,-23.523426049957617],[-46.554671005484636,-23.52198114393418],[-46.5544128787339,-23.52166674860071],[-46.55413478533481,-23.521403303983448],[-46.55359051530814,-23.521307323784335],[-46.552932323938464,-23.521459645276032],[-46.55259427973341,-23.521361603995135],[-46.552330369244935,-23.521129711844683],[-46.55169614399499,-23.520394263048455],[-46.55149924506571,-23.520022178719415],[-46.5513683661153,-23.51962604691107],[-46.55119389982066,-23.517432448919045],[-46.55116967306593,-23.517128359358736],[-46.55117224297099,-23.516754286608403],[-46.55121043919734,-23.51627817439009],[-46.5513709633254,-23.515694553144236],[-46.55115924549668,-23.51564500771274],[-46.5509950560741,-23.516241849963464],[-46.550972878925876,-23.51675627290238],[-46.55095679024169,-23.517130028825644],[-46.5509809000148,-23.517440892549914],[-46.55115093411981,-23.51963263867089],[-46.55118038127044,-23.519797153498857],[-46.551301585259694,-23.52016999266789],[-46.55151875014175,-23.52051649930928],[-46.55222956102001,-23.52132722266348],[-46.55251398521621,-23.521546267551294],[-46.55290025837137,-23.52165647065483],[-46.55340785238016,-23.52155631380718],[-46.55360655460719,-23.521497347726452],[-46.55379234103136,-23.52151445750492],[-46.55407483309322,-23.521568710624994],[-46.55425624563645,-23.521788780608055],[-46.55440318982578,-23.522009194561242],[-46.554634819755954,-23.522418946490053],[-46.555177899938954,-23.52358000060779],[-46.55528943314103,-23.523711996806718],[-46.555411394037755,-23.52385626059168],[-46.55544177616083,-23.523949784618853],[-46.55542422484325,-23.524056340162115],[-46.55538676477528,-23.524168874224515],[-46.55357197336485,-23.52646017607888],[-46.55372644959754,-23.52652094493211],[-46.55524116370669,-23.52467143566123],[-46.55534727323414,-23.52454187028453],[-46.555991168517636,-23.523755734941226],[-46.55651277924867,-23.524263997680244],[-46.55615564658795,-23.523126465880697]]]}},{"type":"Feature","id":"geoconvias_lei_melhoramento_vigente.573","properties":{"cd_identificador_lei_vigente_etl":573,"cd_identificador_lei_vigente_original":4125,"cd_numero_lei_vigente":6320,"an_lei_melhoramento_vigente":1963,"tx_dc_tipo_norma":"LEI","tx_descricao_tipo_melhoramento":"Viário","cd_plano_rodoviario_municipal":null,"nr_folha_lei_vigente":20735,"tp_classe_lei_melhoramento":"P0941","dc_complemento_lei_melhoramento":"99","dt_carga":"2026-05-26Z"},"geometry":{"type":"Polygon","coordinates":[[[-46.56150991180993,-23.52737093431517],[-46.56202455443153,-23.526414852792392],[-46.56205805988518,-23.526341098130324],[-46.56254228040093,-23.52543020228456],[-46.562382694740776,-23.525301854769875],[-46.561854364017584,-23.526267647058344],[-46.561807553806766,-23.526375851292936],[-46.56130952374997,-23.527287425491853],[-46.56150991180993,-23.52737093431517]]]}},{"type":"Feature","id":"geoconvias_lei_melhoramento_vigente.708","properties":{"cd_identificador_lei_vigente_etl":708,"cd_identificador_lei_vigente_original":25215,"cd_numero_lei_vigente":4699,"an_lei_melhoramento_vigente":1955,"tx_dc_tipo_norma":"LEI","tx_descricao_tipo_melhoramento":"Viário","cd_plano_rodoviario_municipal":null,"nr_folha_lei_vigente":11825,"tp_classe_lei_melhoramento":"C0253","dc_complemento_lei_melhoramento":"99","dt_carga":"2026-05-26Z"},"geometry":{"type":"Polygon","coordinates":[[[-46.55174461281228,-23.527818635072784],[-46.55174344966324,-23.527919879462697],[-46.55171040047901,-23.527949558377216],[-46.55138898523589,-23.52792630323417],[-46.55208219874932,-23.52848569872117],[-46.552618106001034,-23.528918155273793],[-46.5527365053672,-23.5289840711292],[-46.553059048876555,-23.529253395242407],[-46.55325453486163,-23.529445059665225],[-46.55339581657965,-23.529549578044996],[-46.55350038192642,-23.52964669653463],[-46.554012427689926,-23.52981460970912],[-46.55433717712653,-23.52992117805853],[-46.55438072941639,-23.52969344360534],[-46.554496424616204,-23.529645780498402],[-46.55445359972359,-23.529460268860774],[-46.55420366062841,-23.5295273338763],[-46.55369745660537,-23.529473148168186],[-46.55348374772272,-23.52930604879287],[-46.55307936193236,-23.528989770677725],[-46.55280724508134,-23.52875272440249],[-46.552552806386856,-23.528553158739978],[-46.55220663746225,-23.528281721131837],[-46.551949428441006,-23.528087961594498],[-46.552000467975645,-23.52790539613962],[-46.55174461281228,-23.527818635072784]]]}},{"type":"Feature","id":"geoconvias_lei_melhoramento_vigente.710","properties":{"cd_identificador_lei_vigente_etl":710,"cd_identificador_lei_vigente_original":8164,"cd_numero_lei_vigente":7246,"an_lei_melhoramento_vigente":1969,"tx_dc_tipo_norma":"LEI","tx_descricao_tipo_melhoramento":"Viário","cd_plano_rodoviario_municipal":null,"nr_folha_lei_vigente":23772,"tp_classe_lei_melhoramento":"P0941","dc_complemento_lei_melhoramento":"99","dt_carga":"2026-05-26Z"},"geometry":{"type":"Polygon","coordinates":[[[-46.55654244495041,-23.524188295753152],[-46.55659446745875,-23.52448126896536],[-46.55664430752469,-23.524630316711246],[-46.55662595764145,-23.52482709570628],[-46.556288054311025,-23.52532489850725],[-46.55681195101892,-23.52562724005563],[-46.55707219126634,-23.52525447377279],[-46.55678726088484,-23.525085291781597],[-46.55708678359179,-23.524738411516612],[-46.55724753613309,-23.524475368302387],[-46.556464696319296,-23.523972881444944],[-46.55654244495041,-23.524188295753152]]]}},{"type":"Feature","id":"geoconvias_lei_melhoramento_vigente.835","properties":{"cd_identificador_lei_vigente_etl":835,"cd_identificador_lei_vigente_original":8177,"cd_numero_lei_vigente":9337,"an_lei_melhoramento_vigente":1981,"tx_dc_tipo_norma":"LEI","tx_descricao_tipo_melhoramento":"Viário","cd_plano_rodoviario_municipal":null,"nr_folha_lei_vigente":26199,"tp_classe_lei_melhoramento":"P0941","dc_complemento_lei_melhoramento":"99","dt_carga":"2026-05-26Z"},"geometry":{"type":"Polygon","coordinates":[[[-46.55645396607909,-23.52393487974508],[-46.55726612519793,-23.52445712117826],[-46.55798023535619,-23.52335547005523],[-46.55720476257061,-23.522887770944976],[-46.55696002029146,-23.52266282955337],[-46.5567271362969,-23.52247181438652],[-46.55650487859866,-23.522284936945134],[-46.55637090777626,-23.52213537572391],[-46.556224630226325,-23.521971940027026],[-46.55595249353192,-23.521632401869866],[-46.555644123772396,-23.52113464838565],[-46.55541793232498,-23.52060437570681],[-46.555142967001146,-23.52060712300636],[-46.555346510291216,-23.521118658225806],[-46.5555306546463,-23.52142105821698],[-46.55570361598534,-23.521705147340963],[-46.55579852062796,-23.521988932775557],[-46.556426817280425,-23.523866518902928],[-46.55645396607909,-23.52393487974508]]]}},{"type":"Feature","id":"geoconvias_lei_melhoramento_vigente.1038","properties":{"cd_identificador_lei_vigente_etl":1038,"cd_identificador_lei_vigente_original":8129,"cd_numero_lei_vigente":9337,"an_lei_melhoramento_vigente":1981,"tx_dc_tipo_norma":"LEI","tx_descricao_tipo_melhoramento":"Viário","cd_plano_rodoviario_municipal":null,"nr_folha_lei_vigente":26199,"tp_classe_lei_melhoramento":"P0941","dc_complemento_lei_melhoramento":"99","dt_carga":"2026-05-26Z"},"geometry":{"type":"Polygon","coordinates":[[[-46.56168591606397,-23.529072691112297],[-46.56212466753358,-23.528357763968025],[-46.562099226124204,-23.527978104174895],[-46.562284431864505,-23.527074273844164],[-46.56292432070902,-23.52581892420302],[-46.56324851530214,-23.526110967115603],[-46.56334006744366,-23.52615077526467],[-46.56387056167979,-23.526603745683946],[-46.563961401342226,-23.52668266285918],[-46.56464158234364,-23.527212962737597],[-46.56469410782759,-23.527058192995444],[-46.56301557615917,-23.525659521642037],[-46.56346719417604,-23.52388815875977],[-46.56333643618324,-23.523870417726563],[-46.562936940736,-23.52556070439038],[-46.562396233789116,-23.525179445200056],[-46.562000446907746,-23.52485380271808],[-46.56156375733217,-23.52454753368122],[-46.56119758435721,-23.52439904225122],[-46.560777904282325,-23.524322337587396],[-46.560249227469505,-23.524403946465767],[-46.56026054023165,-23.524541097537522],[-46.560449792631104,-23.524527821716656],[-46.560724059400464,-23.524473507215923],[-46.56099247659096,-23.52449619124252],[-46.56132367930019,-23.52459428224755],[-46.56152821661415,-23.524689489345946],[-46.56168946959944,-23.524809874198006],[-46.5624640824038,-23.52546792229862],[-46.56269425288235,-23.525668527847966],[-46.56236205051663,-23.52636531897925],[-46.56199843300896,-23.526242992666806],[-46.56197276495803,-23.526325247682024],[-46.56232194627321,-23.52646081326127],[-46.562049581020055,-23.526983435958137],[-46.561771753380484,-23.527516407882768],[-46.5617299565586,-23.527651111605422],[-46.56177698434637,-23.527818517586653],[-46.56181686811479,-23.52793659813618],[-46.56183461865633,-23.528278768115023],[-46.561714078227126,-23.52854619841172],[-46.56160605040409,-23.528712089999342],[-46.56142579672881,-23.528998722227897],[-46.56141257931732,-23.52921486558808],[-46.561695015674516,-23.52926278314561],[-46.56168591606397,-23.529072691112297]]]}},{"type":"Feature","id":"geoconvias_lei_melhoramento_vigente.1357","properties":{"cd_identificador_lei_vigente_etl":1357,"cd_identificador_lei_vigente_original":8142,"cd_numero_lei_vigente":16020,"an_lei_melhoramento_vigente":2014,"tx_dc_tipo_norma":"LEI","tx_descricao_tipo_melhoramento":"Viário","cd_plano_rodoviario_municipal":null,"nr_folha_lei_vigente":26952,"tp_classe_lei_melhoramento":"C0521","dc_complemento_lei_melhoramento":"6","dt_carga":"2026-05-26Z"},"geometry":{"type":"Polygon","coordinates":[[[-46.555459538897225,-23.52762712632069],[-46.5556609442775,-23.527322589140248],[-46.55547076268961,-23.526599064468375],[-46.55539320416559,-23.5267164242712],[-46.55530124539064,-23.526758522692056],[-46.55516746760391,-23.52680067772936],[-46.555038071558684,-23.52682400528629],[-46.55487389479379,-23.526837927213464],[-46.55472801437527,-23.52685031160519],[-46.55459977020798,-23.526838317759545],[-46.55458484168624,-23.52678473497799],[-46.554483931363144,-23.526706815733416],[-46.55442347535651,-23.526762776983574],[-46.55436887293244,-23.526783460515787],[-46.55432221944221,-23.526730465473523],[-46.5542808459518,-23.52674343117226],[-46.553494722577945,-23.526295236141937],[-46.553214529250454,-23.526112273763243],[-46.553155277224086,-23.526012174150946],[-46.55315032885319,-23.525590585881982],[-46.55300934246062,-23.52558594228506],[-46.552894928451934,-23.525634042924477],[-46.55250806048937,-23.525232068265556],[-46.55243416965193,-23.525111253710758],[-46.55199551439776,-23.524293303725372],[-46.55208331203653,-23.524213771855443],[-46.551982280963834,-23.524041753350293],[-46.55192139778907,-23.5240863393637],[-46.55187674346125,-23.52406167958424],[-46.551757214431476,-23.523823831783528],[-46.551686939756785,-23.523585312230225],[-46.55173424729391,-23.523543932055066],[-46.551778681189646,-23.523549810469337],[-46.551893480182926,-23.523451135593625],[-46.55150392343155,-23.52305288727561],[-46.551350779421945,-23.52289646879188],[-46.551421096877576,-23.522837972180497],[-46.55132675457599,-23.522710046035233],[-46.551246763477515,-23.522711926932896],[-46.55093970970905,-23.52210795070516],[-46.55095628394881,-23.522051434691083],[-46.55091248082687,-23.52189040423228],[-46.55083100183417,-23.52188227576736],[-46.550809848618954,-23.521832186143744],[-46.55069147421129,-23.52162566193209],[-46.55060754657167,-23.521450311222928],[-46.55057147064111,-23.521271684310292],[-46.550551934990395,-23.521067065133863],[-46.55052727511568,-23.520809577730848],[-46.5507683241502,-23.520611844810432],[-46.55072595490521,-23.520489541187864],[-46.55069217284873,-23.52022248194669],[-46.55062171254495,-23.519666809135828],[-46.55066593270982,-23.519445570688305],[-46.55066843860193,-23.51936688927507],[-46.550601164030454,-23.518907541059136],[-46.55064605637195,-23.51861829555146],[-46.55064148704707,-23.517935628259774],[-46.55062880968991,-23.517731211599493],[-46.55061116363923,-23.517445388467454],[-46.550622693061186,-23.517209033296513],[-46.55061026186405,-23.517017256992755],[-46.550599581901665,-23.51664891511779],[-46.55063133956696,-23.516291800010986],[-46.550647302757724,-23.51621659677105],[-46.55073317246811,-23.515897593609285],[-46.550783392209354,-23.51577897319664],[-46.55086982454749,-23.51557492383886],[-46.550044279216195,-23.515391335402434],[-46.54989478866449,-23.51592246822804],[-46.54979145606424,-23.516272439189947],[-46.549765982015266,-23.516380156884324],[-46.54959591893943,-23.517027988953195],[-46.549754356462564,-23.517076892860317],[-46.549763768946896,-23.51704437931913],[-46.54979693057947,-23.51703285125747],[-46.55008619889726,-23.517089663547523],[-46.55011097277387,-23.517114521929546],[-46.55013329092794,-23.51785796920404],[-46.550139763438416,-23.51807617422281],[-46.55017562189359,-23.518361816070556],[-46.5501279008688,-23.518384506526075],[-46.550104864697,-23.51873385867155],[-46.55013916347534,-23.518735774783742],[-46.550151542863446,-23.519224206612666],[-46.55015997637652,-23.519551301011873],[-46.550138968072304,-23.519563701515303],[-46.55014704206008,-23.519651037251233],[-46.55015372400824,-23.519736580729028],[-46.550137487615466,-23.519771781112695],[-46.54999887028818,-23.519876922930678],[-46.55009270982415,-23.520020748915538],[-46.55012791074701,-23.519990958653015],[-46.55016302009104,-23.52000352277273],[-46.5501521898344,-23.52044179494873],[-46.550047423582456,-23.520527364561993],[-46.55013308628711,-23.52085098068341],[-46.55015392798409,-23.52093304181802],[-46.55007688426398,-23.521002531847035],[-46.55013345342577,-23.521174994640383],[-46.55017101981738,-23.521171550128432],[-46.55017125996793,-23.521275670449814],[-46.55017983982282,-23.52134764911872],[-46.55019350539033,-23.521460846936495],[-46.55021290906882,-23.52154554124408],[-46.55022762559387,-23.521639764347814],[-46.55025583034115,-23.521714979179514],[-46.550288950147184,-23.521808477148884],[-46.55032520928189,-23.521910793818407],[-46.55037005990275,-23.522002459112304],[-46.55041872053397,-23.5221016721344],[-46.550452354514,-23.5221972419695],[-46.55045660814241,-23.522251021909746],[-46.55040587223497,-23.52229234554272],[-46.55051350953735,-23.522451746927928],[-46.55054739081932,-23.522426304383423],[-46.550581508463964,-23.522429396136687],[-46.55064596888224,-23.522548048049156],[-46.550865872118464,-23.522952504498477],[-46.55085105403582,-23.523008461170303],[-46.55091746493585,-23.52314307764371],[-46.5509651910598,-23.523145762788175],[-46.55116766795918,-23.523533866372563],[-46.551347719807026,-23.523880291229332],[-46.55146454969184,-23.52410516223687],[-46.55158175952123,-23.524337344118425],[-46.55158395307617,-23.524407489883895],[-46.55158006522239,-23.524485191657924],[-46.551388843691505,-23.524639714675665],[-46.55165141450902,-23.524907201948693],[-46.551682298682316,-23.5249518663465],[-46.551789274822134,-23.52503785459924],[-46.551782752515386,-23.525066275656982],[-46.5525747958069,-23.525886571078654],[-46.55266828868001,-23.525983529859364],[-46.55301847305564,-23.526347219160108],[-46.553208719801084,-23.526535143333067],[-46.55351242652961,-23.52668536089388],[-46.55396981734014,-23.5269288643882],[-46.554281152777925,-23.52709471738677],[-46.554492617734404,-23.52722111035517],[-46.554559906114264,-23.527146477847953],[-46.555459538897225,-23.52762712632069]]]}},{"type":"Feature","id":"geoconvias_lei_melhoramento_vigente.1360","properties":{"cd_identificador_lei_vigente_etl":1360,"cd_identificador_lei_vigente_original":8120,"cd_numero_lei_vigente":16541,"an_lei_melhoramento_vigente":2016,"tx_dc_tipo_norma":"LEI","tx_descricao_tipo_melhoramento":"Viário","cd_plano_rodoviario_municipal":null,"nr_folha_lei_vigente":26982,"tp_classe_lei_melhoramento":"T1064","dc_complemento_lei_melhoramento":"57","dt_carga":"2026-05-26Z"},"geometry":{"type":"Polygon","coordinates":[[[-46.562321770317084,-23.529216215859382],[-46.561700347660086,-23.529208365735023],[-46.5614034011105,-23.529167456989274],[-46.5606489558753,-23.52888387995796],[-46.56050085333031,-23.528840844530897],[-46.5596108753882,-23.528458562739868],[-46.55946727085756,-23.528398232850815],[-46.55792125394483,-23.527695697732813],[-46.55705244705938,-23.52746336693487],[-46.5564921406032,-23.527313555785803],[-46.55635336036978,-23.5272967922828],[-46.555831785989184,-23.52712582103688],[-46.55568966741099,-23.527058338508144],[-46.55543488922309,-23.52742147572293],[-46.55567574286635,-23.527498356678525],[-46.55581478225629,-23.527503829980407],[-46.55638648735941,-23.5276734871203],[-46.557512810332426,-23.52793367757146],[-46.55776780302432,-23.52805502465509],[-46.55822454599702,-23.52828407264104],[-46.55845561950271,-23.52857805139949],[-46.558858497895606,-23.528923408540642],[-46.559269524978525,-23.529112363966235],[-46.5601963300263,-23.5292951546267],[-46.5604513251709,-23.529366467787558],[-46.560489772516036,-23.52933790692949],[-46.56067829740952,-23.52934540810625],[-46.56103274245675,-23.52942845595899],[-46.561130459468764,-23.529467661648393],[-46.561655555043465,-23.529553962804435],[-46.561819468757776,-23.529592232811446],[-46.56203667956632,-23.529598812277822],[-46.56206630559561,-23.529627773867134],[-46.56211484739231,-23.529691042257486],[-46.56224349258283,-23.529695259455625],[-46.562321770317084,-23.529216215859382]]]}},{"type":"Feature","id":"geoconvias_lei_melhoramento_vigente.3424","properties":{"cd_identificador_lei_vigente_etl":3424,"cd_identificador_lei_vigente_original":8116,"cd_numero_lei_vigente":16020,"an_lei_melhoramento_vigente":2014,"tx_dc_tipo_norma":"LEI","tx_descricao_tipo_melhoramento":"Viário","cd_plano_rodoviario_municipal":null,"nr_folha_lei_vigente":26952,"tp_classe_lei_melhoramento":"C0521","dc_complemento_lei_melhoramento":"5","dt_carga":"2026-05-26Z"},"geometry":{"type":"Polygon","coordinates":[[[-46.5658112190004,-23.533606196370197],[-46.56582757561929,-23.533540018580904],[-46.56566299178566,-23.533478731965772],[-46.565588237278504,-23.53350151865423],[-46.56550906275483,-23.533448764221568],[-46.5653877219715,-23.533383430000185],[-46.565283415638824,-23.53333399866449],[-46.565200187356815,-23.533294559728528],[-46.56463461409097,-23.53308315391723],[-46.56460522356948,-23.533041096242084],[-46.564473134562895,-23.533002690038007],[-46.56442572811027,-23.533019060425865],[-46.564289599898835,-23.532962091767963],[-46.56418484779597,-23.532899750473863],[-46.564071652289506,-23.532802545796706],[-46.56399932080924,-23.532740330001275],[-46.56398094470535,-23.532702044614634],[-46.56387901590718,-23.532671371908894],[-46.563839860213484,-23.532689736215044],[-46.5636465800443,-23.532620066461764],[-46.5634296932095,-23.532541874029892],[-46.56341648865708,-23.532510219204575],[-46.56342786599158,-23.532486715791062],[-46.5632617064146,-23.53240792310508],[-46.56323855511253,-23.532471098561587],[-46.56320451263353,-23.532474601253163],[-46.56291367529075,-23.53237114302367],[-46.56290126647388,-23.532315639525635],[-46.562922374640145,-23.53231163468139],[-46.56294266519331,-23.53226329808825],[-46.5627954939621,-23.53222486128202],[-46.56276987307286,-23.532294563472],[-46.562723697258654,-23.532315616862466],[-46.56239598419673,-23.532199614294896],[-46.562377793826265,-23.53216042377383],[-46.56222442337437,-23.53211952010718],[-46.56216653623189,-23.532135814419185],[-46.56204878936139,-23.532109182412107],[-46.56191720192603,-23.532113122179158],[-46.561790821548186,-23.532101838256185],[-46.561705374994176,-23.532090053098276],[-46.56158224180353,-23.532046858587215],[-46.56156984756621,-23.532000836882098],[-46.56144088320057,-23.531944877396356],[-46.56137962908864,-23.53195804451191],[-46.56028991077951,-23.53156630307452],[-46.56025220212114,-23.531516381017532],[-46.56010442663748,-23.531468104349003],[-46.56006030286438,-23.531480467053644],[-46.55990254283808,-23.53141603529729],[-46.55979937670045,-23.53133841336311],[-46.559741939739936,-23.53131812852399],[-46.55968456877807,-23.531286825727666],[-46.559600249045396,-23.5312459497075],[-46.55951188017935,-23.53121053255161],[-46.55873141005326,-23.53095493123476],[-46.55828141737433,-23.530809259993607],[-46.55826585328196,-23.530776725236503],[-46.55818858732472,-23.53073595839039],[-46.558158021364896,-23.530760195433672],[-46.55796271776056,-23.530692886552607],[-46.55794579879943,-23.53065341179421],[-46.55786963861965,-23.530639996302067],[-46.55781974054988,-23.53062776275322],[-46.557688640100665,-23.53059810032967],[-46.557555184083064,-23.530568009842597],[-46.557387684838346,-23.53054133034374],[-46.55726478346679,-23.530542560317507],[-46.55709112018823,-23.530566332709018],[-46.55699186349688,-23.53056272028429],[-46.55687930982785,-23.530552738827964],[-46.55678371814647,-23.53054430340389],[-46.555811843458606,-23.530202282830377],[-46.55564534523094,-23.530077429165466],[-46.555442695316366,-23.52995989020148],[-46.555321459985024,-23.52990285481004],[-46.55522005468018,-23.52986639144199],[-46.55505225580074,-23.529797449305597],[-46.55458921872186,-23.52964124129256],[-46.55458626896116,-23.529590248045963],[-46.55439642183049,-23.529495246470034],[-46.55434564209695,-23.529507944951153],[-46.55430108875672,-23.529508751180312],[-46.554262261521465,-23.52947175242308],[-46.55424199514908,-23.529430685132073],[-46.554258751131314,-23.5293896996019],[-46.554342077901396,-23.529279597439167],[-46.555449228391225,-23.52764149767078],[-46.554566983786366,-23.527165371349835],[-46.55451058897487,-23.5272335736485],[-46.55459074472899,-23.527278828895444],[-46.5546205722686,-23.5273001140058],[-46.554635813336986,-23.527338612601387],[-46.55463207245909,-23.52737865540129],[-46.5546281654312,-23.527421228420618],[-46.55460822444457,-23.527449512695306],[-46.5546054598799,-23.527455952017036],[-46.554107974346884,-23.52824341984688],[-46.553462213843524,-23.529265445569727],[-46.55341800060701,-23.52927852972632],[-46.55337918176451,-23.52925056122308],[-46.55331017747453,-23.529312657906253],[-46.55403263291303,-23.529892161143245],[-46.554056536391315,-23.52980929271358],[-46.55438626504599,-23.529922855078034],[-46.554449718274384,-23.52996349094951],[-46.55513437393766,-23.53019279965178],[-46.55520035613823,-23.530248581278112],[-46.55527204035647,-23.5302478648461],[-46.555430106722554,-23.530346975777924],[-46.55552431112482,-23.530429025019455],[-46.55565726809382,-23.530508338843894],[-46.55577041762972,-23.530560668580563],[-46.555783305492916,-23.530615535866563],[-46.55596450200506,-23.530640996476464],[-46.55600669179487,-23.53063073129693],[-46.55661667792761,-23.53084795642531],[-46.55662732459791,-23.530895440982075],[-46.55670975516982,-23.53092568150245],[-46.55677354263699,-23.53091971533036],[-46.55686672460334,-23.53093142585981],[-46.55696004521882,-23.530929950327028],[-46.55705434618834,-23.530928555234272],[-46.55717195532842,-23.53093532526335],[-46.557314145467885,-23.530966863851354],[-46.55791164369425,-23.531179603123952],[-46.5579962569955,-23.53119555280745],[-46.55883784182234,-23.5315009360774],[-46.55890705482307,-23.531523180304795],[-46.55915742015706,-23.531608539154565],[-46.55925601440255,-23.531638977540382],[-46.55956751518772,-23.53174259693704],[-46.56003082129117,-23.53190393422948],[-46.56018052177699,-23.5319493018684],[-46.56089545804628,-23.532194987168616],[-46.56103864252424,-23.532244212146345],[-46.56157755154206,-23.532429439566492],[-46.56170446480464,-23.532460946722086],[-46.56187941575533,-23.532521230553655],[-46.56208475128526,-23.53259999268184],[-46.563134380970475,-23.532946609702723],[-46.5633638152338,-23.533025669812048],[-46.564715056330165,-23.533491518547695],[-46.56486382659324,-23.533540774005186],[-46.56507083295438,-23.533611478055047],[-46.56550356932778,-23.533845259867523],[-46.56552407770311,-23.533873319087512],[-46.56567878519471,-23.533944187268833],[-46.56570925178219,-23.5339281675672],[-46.56577102679009,-23.53395897217366],[-46.56585573150217,-23.533618391162378],[-46.5658112190004,-23.533606196370197]]]}},{"type":"Feature","id":"geoconvias_lei_melhoramento_vigente.1778","properties":{"cd_identificador_lei_vigente_etl":1778,"cd_identificador_lei_vigente_original":8118,"cd_numero_lei_vigente":6320,"an_lei_melhoramento_vigente":1963,"tx_dc_tipo_norma":"LEI","tx_descricao_tipo_melhoramento":"Viário","cd_plano_rodoviario_municipal":null,"nr_folha_lei_vigente":20735,"tp_classe_lei_melhoramento":"P0941","dc_complemento_lei_melhoramento":"23772","dt_carga":"2026-05-26Z"},"geometry":{"type":"Polygon","coordinates":[[[-46.55642169112488,-23.520224450300326],[-46.55655696293667,-23.520559757469528],[-46.55671354707678,-23.520866856566904],[-46.55694572864024,-23.521239844946646],[-46.557205140434334,-23.52142165424559],[-46.557340646070976,-23.52147692024957],[-46.55765971342457,-23.521634833008335],[-46.55802222539867,-23.52184766760309],[-46.558372706838554,-23.52205339729196],[-46.55871551968441,-23.52223156940472],[-46.55904589171748,-23.522426030037437],[-46.55927951775818,-23.52256339261565],[-46.55958188214596,-23.522741245453748],[-46.55975411148783,-23.522737984462854],[-46.56035193227429,-23.522773352582377],[-46.56080653444801,-23.522747392227018],[-46.56153145057632,-23.52270598582914],[-46.56203263800618,-23.522677387212017],[-46.5620363897716,-23.52252229493934],[-46.56171570406849,-23.522534904623924],[-46.561560778826035,-23.522535555922666],[-46.56112829441548,-23.522551814528658],[-46.560936626522185,-23.522542719493753],[-46.560717393171224,-23.52252143845227],[-46.560548581691954,-23.522457388564813],[-46.56036714776185,-23.52235273719927],[-46.56018975870932,-23.52218410869667],[-46.560130420459146,-23.52195234713478],[-46.560079445264854,-23.521682302440915],[-46.56010246461935,-23.521317146736887],[-46.559312474969644,-23.520871999127504],[-46.558979205751434,-23.52096338528815],[-46.5587550225333,-23.521053768718964],[-46.558523711270354,-23.521112706531206],[-46.5582304836593,-23.521128194670528],[-46.558025580220345,-23.521117693246556],[-46.55753297112072,-23.521009379773623],[-46.556934259053854,-23.520581179486005],[-46.55664688763845,-23.52022851987704],[-46.55654802900537,-23.520083213153846],[-46.55646422114096,-23.519960241995317],[-46.55640176775681,-23.519837689414135],[-46.556309572905036,-23.5198259683836],[-46.55642169112488,-23.520224450300326]]]}},{"type":"Feature","id":"geoconvias_lei_melhoramento_vigente.2174","properties":{"cd_identificador_lei_vigente_etl":2174,"cd_identificador_lei_vigente_original":8208,"cd_numero_lei_vigente":1326,"an_lei_melhoramento_vigente":1938,"tx_dc_tipo_norma":"ATO","tx_descricao_tipo_melhoramento":"Viário","cd_plano_rodoviario_municipal":null,"nr_folha_lei_vigente":682,"tp_classe_lei_melhoramento":"S1044","dc_complemento_lei_melhoramento":"99","dt_carga":"2026-05-26Z"},"geometry":{"type":"Polygon","coordinates":[[[-46.563875764409616,-23.530921647303963],[-46.56347709140333,-23.53076798022127],[-46.56341584991548,-23.530748999253294],[-46.563043324138526,-23.530603286100636],[-46.563006373892826,-23.53055958819582],[-46.56238568335656,-23.529726883713877],[-46.56236361730329,-23.529666329682918],[-46.56225710289755,-23.52955397537951],[-46.56217568119836,-23.529468189823337],[-46.56207511256754,-23.52938656985724],[-46.56201607796013,-23.52933875869974],[-46.56194419042248,-23.529297307602217],[-46.56186732471866,-23.529265569119453],[-46.56179781752179,-23.529234930717465],[-46.56169201856341,-23.529216305898593],[-46.561460505183945,-23.529184493591465],[-46.56049479545262,-23.529149298635666],[-46.560437936373056,-23.52931910133988],[-46.561039544533,-23.529357497906258],[-46.56113347794838,-23.529349963302035],[-46.56150071040963,-23.52936298534397],[-46.56166710190071,-23.52940375921557],[-46.56180697687363,-23.529421771136345],[-46.56202855988146,-23.52959130812176],[-46.562063019584144,-23.52962320127316],[-46.56251287313718,-23.530246398209375],[-46.56281701111229,-23.530613957563027],[-46.56292559064288,-23.530760064900885],[-46.56381548079901,-23.531099703261493],[-46.563875764409616,-23.530921647303963]]]}},{"type":"Feature","id":"geoconvias_lei_melhoramento_vigente.2307","properties":{"cd_identificador_lei_vigente_etl":2307,"cd_identificador_lei_vigente_original":8117,"cd_numero_lei_vigente":16020,"an_lei_melhoramento_vigente":2014,"tx_dc_tipo_norma":"LEI","tx_descricao_tipo_melhoramento":"Viário","cd_plano_rodoviario_municipal":null,"nr_folha_lei_vigente":26939,"tp_classe_lei_melhoramento":"A0044","dc_complemento_lei_melhoramento":"1","dt_carga":"2026-05-26Z"},"geometry":{"type":"Polygon","coordinates":[[[-46.55628446861619,-23.52535310973604],[-46.55553935908926,-23.526469151410684],[-46.55524639281916,-23.526907894648456],[-46.555146106295645,-23.527058081823963],[-46.55506994922467,-23.52711140073621],[-46.554950317357964,-23.52709056148282],[-46.55478992209631,-23.526992917999923],[-46.55464094055869,-23.52734154147156],[-46.55472753945503,-23.527385016470202],[-46.55477701382497,-23.527444665810446],[-46.554818760165944,-23.527513422911834],[-46.55481614654358,-23.527582713499246],[-46.55478630805378,-23.527652185774095],[-46.5543135802332,-23.528371135760615],[-46.5537500734198,-23.529249928929033],[-46.553654569309,-23.529398983831342],[-46.553601377056275,-23.52939806999333],[-46.55317356329272,-23.52906342305807],[-46.553102569261895,-23.528981050327307],[-46.55280751088136,-23.52875868192977],[-46.55258731994655,-23.52886527233362],[-46.55257661280006,-23.528904300937157],[-46.552311431156106,-23.529099658857888],[-46.55273638332606,-23.529466034122244],[-46.552598522357954,-23.529619574817332],[-46.55292384888479,-23.52988390455407],[-46.55273120625624,-23.530093078544553],[-46.55284409283423,-23.530181535396316],[-46.55273400843474,-23.530431968013357],[-46.552513704677274,-23.530846321496128],[-46.552335892458025,-23.531109259622877],[-46.55227188602111,-23.531121637878446],[-46.55210862900306,-23.531164355477568],[-46.55211171111166,-23.531193312879346],[-46.551680950451015,-23.531559554370865],[-46.551448759560785,-23.531737423964906],[-46.551256784156095,-23.531886987842377],[-46.5512133892271,-23.531886427086675],[-46.551155092458465,-23.531926381546498],[-46.55182377979527,-23.532756035712396],[-46.551902868726565,-23.532701785931888],[-46.55242061533322,-23.532511675136774],[-46.552464661803796,-23.532534353947366],[-46.55255514062569,-23.532490917203027],[-46.5525767488825,-23.5324376921432],[-46.55298125702848,-23.532304698931636],[-46.553053103168835,-23.53232601645069],[-46.55377985427071,-23.53222755237225],[-46.55377889025601,-23.532020400754867],[-46.55374422579003,-23.531829208525835],[-46.553730906952275,-23.531762605610975],[-46.55377196849666,-23.531689589827206],[-46.553854122906955,-23.53165463391636],[-46.553935759693445,-23.53162564330824],[-46.55400680509209,-23.531570479478948],[-46.55422551851109,-23.531329526859484],[-46.55420089521184,-23.53115105785149],[-46.554351759404966,-23.53085389015946],[-46.55446997855801,-23.530662525485734],[-46.554545653585464,-23.53055132566635],[-46.5545967339078,-23.530480828467375],[-46.554662467819,-23.530398806339786],[-46.55474941547856,-23.53030510341745],[-46.55485390827011,-23.530212579729124],[-46.55494114675415,-23.53013530943525],[-46.555001760964714,-23.530126034400933],[-46.555016167542746,-23.530085162581408],[-46.55469909041374,-23.529989807251688],[-46.55468638311131,-23.53001693560549],[-46.55469507922476,-23.530056854142224],[-46.55459713208718,-23.530139649624903],[-46.55448241641932,-23.530254038937855],[-46.554404973371156,-23.530339790182484],[-46.554314271959676,-23.530439129369995],[-46.55423949831015,-23.53055203588901],[-46.554113471118484,-23.530795765375778],[-46.55403381872065,-23.530985299758452],[-46.55392794416214,-23.53097696527682],[-46.55379389663494,-23.530896486868855],[-46.553786694058005,-23.530858630394352],[-46.55406487770642,-23.529852375538066],[-46.55438141287137,-23.52971827084449],[-46.55437764474754,-23.529664305677436],[-46.5543304978146,-23.52951938442852],[-46.554274753734944,-23.52952635290724],[-46.55423611816032,-23.529514005685524],[-46.55423121955687,-23.529488859320196],[-46.554248716547825,-23.529444254161998],[-46.55490895671937,-23.5284713876514],[-46.55550320121002,-23.527608899695995],[-46.555568660690895,-23.527595331693],[-46.55565186912003,-23.527558648601218],[-46.555771093794675,-23.527544813981507],[-46.555860187402175,-23.527542207493493],[-46.555912542128155,-23.527363691590274],[-46.55587268440997,-23.52733898509247],[-46.55584715894091,-23.527250469798698],[-46.55584773590468,-23.527141284465667],[-46.555925868295496,-23.52693948290223],[-46.555977830522295,-23.526852540860382],[-46.55605615938296,-23.52684236592267],[-46.556236416453075,-23.52658021227502],[-46.556223027588004,-23.526524356638724],[-46.55680317024652,-23.525646743607073],[-46.55628446861619,-23.52535310973604]]]}},{"type":"Feature","id":"geoconvias_lei_melhoramento_vigente.2370","properties":{"cd_identificador_lei_vigente_etl":2370,"cd_identificador_lei_vigente_original":8178,"cd_numero_lei_vigente":6320,"an_lei_melhoramento_vigente":1963,"tx_dc_tipo_norma":"LEI","tx_descricao_tipo_melhoramento":"Viário","cd_plano_rodoviario_municipal":null,"nr_folha_lei_vigente":20735,"tp_classe_lei_melhoramento":"P0941","dc_complemento_lei_melhoramento":"99","dt_carga":"2026-05-26Z"},"geometry":{"type":"Polygon","coordinates":[[[-46.55722048763361,-23.525098025564514],[-46.55744648569953,-23.525028034966386],[-46.5574942919158,-23.524995859287635],[-46.558742958629935,-23.52477737163995],[-46.558957909537895,-23.524759054042892],[-46.56023894993238,-23.52453734052747],[-46.56023376597649,-23.524388388289672],[-46.56073113237598,-23.524300952661342],[-46.560810194803096,-23.524303320523675],[-46.56086534132012,-23.524312339884045],[-46.56078117761509,-23.524201295305748],[-46.56034206673455,-23.524129480166096],[-46.55964369735106,-23.523906200552787],[-46.55887468083571,-23.523704666491582],[-46.558391390568644,-23.523531965265892],[-46.558052778498514,-23.52338644118909],[-46.55800458510823,-23.52337735120575],[-46.557720941785234,-23.52380814870588],[-46.557288543453076,-23.52446466315912],[-46.55709966897555,-23.52475146723323],[-46.55682477624771,-23.525069113034064],[-46.55708917433982,-23.52523290142322],[-46.55722048763361,-23.525098025564514]]]}},{"type":"Feature","id":"geoconvias_lei_melhoramento_vigente.2880","properties":{"cd_identificador_lei_vigente_etl":2880,"cd_identificador_lei_vigente_original":8165,"cd_numero_lei_vigente":4399,"an_lei_melhoramento_vigente":1953,"tx_dc_tipo_norma":"LEI","tx_descricao_tipo_melhoramento":"Viário","cd_plano_rodoviario_municipal":null,"nr_folha_lei_vigente":9563,"tp_classe_lei_melhoramento":"T1126","dc_complemento_lei_melhoramento":"99","dt_carga":"2026-05-26Z"},"geometry":{"type":"Polygon","coordinates":[[[-46.55595328746155,-23.52858819028955],[-46.555232824401315,-23.52891977006504],[-46.55518637265081,-23.52894235918018],[-46.55515150692113,-23.528975759486936],[-46.554968818775414,-23.52914817247817],[-46.55491637313939,-23.529227443073303],[-46.5547575942611,-23.529359250295215],[-46.5547092291918,-23.529360726861494],[-46.55447223800668,-23.52946279185286],[-46.55451177748614,-23.529635422589696],[-46.55489650475065,-23.52951192388421],[-46.55495473619512,-23.529449934170785],[-46.55520753141609,-23.52916764100342],[-46.555243404890675,-23.529111654193123],[-46.55530207359747,-23.529078557807],[-46.556040283531686,-23.528748606350934],[-46.55732027377803,-23.52820092231798],[-46.557615479535094,-23.528352119594228],[-46.55765825141787,-23.528432966537267],[-46.5580335040516,-23.529401711041302],[-46.55813547380263,-23.529627447414562],[-46.55827881914818,-23.529507711760562],[-46.5580205004555,-23.528829755296073],[-46.55774674593744,-23.528163150638864],[-46.557739398797956,-23.52812141268308],[-46.55777580744443,-23.528061085313507],[-46.55780261042003,-23.52801674787769],[-46.557869481537985,-23.527981672042237],[-46.5579448878068,-23.527981097782728],[-46.55799943849866,-23.527997619428106],[-46.55845561950271,-23.52857805139949],[-46.558637440590815,-23.52872324794304],[-46.55888827539093,-23.52894035861642],[-46.55894529230658,-23.528866910854422],[-46.55876619571499,-23.52871193440442],[-46.55851855338163,-23.52854129890548],[-46.55808227864976,-23.5280045563492],[-46.557954864649574,-23.527905141193706],[-46.5578077748626,-23.527881418373585],[-46.55750803555054,-23.52791909584756],[-46.557446907002976,-23.527951133974817],[-46.55668083579404,-23.52825978744742],[-46.55595328746155,-23.52858819028955]]]}},{"type":"Feature","id":"geoconvias_lei_melhoramento_vigente.3142","properties":{"cd_identificador_lei_vigente_etl":3142,"cd_identificador_lei_vigente_original":8139,"cd_numero_lei_vigente":6320,"an_lei_melhoramento_vigente":1963,"tx_dc_tipo_norma":"LEI","tx_descricao_tipo_melhoramento":"Viário","cd_plano_rodoviario_municipal":null,"nr_folha_lei_vigente":20735,"tp_classe_lei_melhoramento":"P0941","dc_complemento_lei_melhoramento":"99","dt_carga":"2026-05-26Z"},"geometry":{"type":"Polygon","coordinates":[[[-46.552887598969676,-23.524809172697825],[-46.55292939043129,-23.524915316552267],[-46.55295978932073,-23.525027082719166],[-46.552974128605925,-23.525197436963808],[-46.552988446028735,-23.525441029408956],[-46.55298793671705,-23.52561460220032],[-46.5526910888991,-23.525798265840645],[-46.552665579433445,-23.525969649797005],[-46.55299973392421,-23.526327719494148],[-46.552995625841035,-23.526853881894045],[-46.553157428777794,-23.52687132173034],[-46.553168199450404,-23.526620796363353],[-46.553211872945546,-23.52652842923812],[-46.553527503667375,-23.52669324760439],[-46.553664771849185,-23.526773152485926],[-46.554083284117006,-23.527016863131923],[-46.55467762514306,-23.527362938682515],[-46.55472753945503,-23.527385016470202],[-46.55497866203372,-23.527527357877098],[-46.55552086209223,-23.527611612953773],[-46.5556167519971,-23.52757895718634],[-46.555693203974016,-23.527559048160352],[-46.5558571363043,-23.527557589961187],[-46.557469814658845,-23.527883717335715],[-46.5574768938473,-23.52790270097441],[-46.55782009706342,-23.527854925788322],[-46.55796473970083,-23.52787876340221],[-46.55811009334138,-23.527996240671555],[-46.55852071234226,-23.52850840605078],[-46.55877897321406,-23.5287074717507],[-46.558849600369975,-23.528567242181154],[-46.55873806835291,-23.528519142813014],[-46.55857608175691,-23.528411495466923],[-46.55846446671579,-23.52827318143945],[-46.55828543833354,-23.528040721480426],[-46.55817372000371,-23.527868633950433],[-46.55803199189361,-23.527751301049612],[-46.557626272740926,-23.527688265279238],[-46.55602956678114,-23.5274126412171],[-46.5558753388145,-23.52734816973413],[-46.55584715894091,-23.527250469798698],[-46.55584794279499,-23.527092246413627],[-46.55523075743363,-23.52691085037287],[-46.55518342039603,-23.526974718014152],[-46.55513207621721,-23.527055964378718],[-46.555061205074026,-23.527109049855273],[-46.55496472004561,-23.527091049718873],[-46.55454512747302,-23.526855570139013],[-46.554438557570286,-23.52680443789307],[-46.55349602185912,-23.526280774251635],[-46.55322741566034,-23.526100405407455],[-46.55317143717041,-23.526012193492907],[-46.55316689890417,-23.52562554946867],[-46.553161985561196,-23.525206940922818],[-46.55310927034819,-23.52482095822825],[-46.55300001069172,-23.524648932279355],[-46.55285056449154,-23.524741180717328],[-46.552887598969676,-23.524809172697825]]]}},{"type":"Feature","id":"geoconvias_lei_melhoramento_vigente.3194","properties":{"cd_identificador_lei_vigente_etl":3194,"cd_identificador_lei_vigente_original":8130,"cd_numero_lei_vigente":6287,"an_lei_melhoramento_vigente":1963,"tx_dc_tipo_norma":"LEI","tx_descricao_tipo_melhoramento":"Viário","cd_plano_rodoviario_municipal":null,"nr_folha_lei_vigente":19765,"tp_classe_lei_melhoramento":"I0609","dc_complemento_lei_melhoramento":"99","dt_carga":"2026-05-26Z"},"geometry":{"type":"Polygon","coordinates":[[[-46.56240886451078,-23.52925986204632],[-46.562404798644,-23.5292224261006],[-46.562507521672735,-23.528856199433715],[-46.56253183319058,-23.52880005624795],[-46.56264956013785,-23.528543309682664],[-46.562694756722344,-23.528439456084758],[-46.56293075609777,-23.52801373409348],[-46.562946446248645,-23.52799054862377],[-46.56319604268675,-23.527994633995664],[-46.563198893585174,-23.527846323803523],[-46.56304287989956,-23.52785484435517],[-46.56301416870621,-23.52783698132134],[-46.563096783477924,-23.527435195314617],[-46.56311486369551,-23.527349042917614],[-46.5632021269969,-23.526934567403647],[-46.563225714658124,-23.526858654498554],[-46.56321167299112,-23.52682240243752],[-46.56335544820278,-23.52615116259631],[-46.56337310663813,-23.526145386274656],[-46.563231286762175,-23.526028781574393],[-46.56324164875918,-23.52606859251398],[-46.563088227769754,-23.526802149625123],[-46.56307025346671,-23.526822648882213],[-46.56290135423987,-23.52679318974652],[-46.562855858124706,-23.52689650456861],[-46.56304328177848,-23.526935440386374],[-46.56305368692466,-23.5269540291151],[-46.56290561381084,-23.527725912168144],[-46.56288679393031,-23.527824082600116],[-46.56287340817507,-23.527843361786882],[-46.562846906578656,-23.52786331452089],[-46.56271155119158,-23.527871266058906],[-46.56268110095061,-23.528004682085687],[-46.56279152449236,-23.528000322241112],[-46.56279884809166,-23.528015058792718],[-46.56248636004898,-23.528573665491315],[-46.562418756411454,-23.528753961818747],[-46.562353770729445,-23.528915448300214],[-46.56232101378906,-23.52901944784165],[-46.562281084022985,-23.529146366670197],[-46.56226829629496,-23.529274367590737],[-46.56224392652023,-23.529516359974803],[-46.56234922343221,-23.52964173049921],[-46.56240886451078,-23.52925986204632]]]}},{"type":"Feature","id":"geoconvias_lei_melhoramento_vigente.3389","properties":{"cd_identificador_lei_vigente_etl":3389,"cd_identificador_lei_vigente_original":22611,"cd_numero_lei_vigente":6320,"an_lei_melhoramento_vigente":1963,"tx_dc_tipo_norma":"LEI","tx_descricao_tipo_melhoramento":"Viário","cd_plano_rodoviario_municipal":null,"nr_folha_lei_vigente":20735,"tp_classe_lei_melhoramento":"P0941","dc_complemento_lei_melhoramento":"99","dt_carga":"2026-05-26Z"},"geometry":{"type":"Polygon","coordinates":[[[-46.56644143630296,-23.52346885679585],[-46.56611469745608,-23.52332594031925],[-46.56591898890674,-23.523240313147653],[-46.56528494123651,-23.522982366770382],[-46.56514890478241,-23.52294056875896],[-46.56470613656963,-23.522791139931932],[-46.5644555072632,-23.522731980602504],[-46.56426635740114,-23.522687374331134],[-46.5640075597,-23.522641390648523],[-46.56363256397667,-23.522574810244034],[-46.56332229340149,-23.522540540359323],[-46.5630094726808,-23.522505934234292],[-46.562665254424005,-23.522499547100082],[-46.562331714044255,-23.522493413247023],[-46.562065705865756,-23.522508545208968],[-46.56205707834258,-23.522673710328117],[-46.56229097056007,-23.52268400566271],[-46.562607408638215,-23.522676584836724],[-46.562992326499995,-23.522696018913745],[-46.56341203065548,-23.5227170893509],[-46.56393313554724,-23.522774526305206],[-46.564445045435676,-23.522923984883086],[-46.564901039321086,-23.523057207102212],[-46.56540459780763,-23.523204217834863],[-46.56589492201116,-23.523383147539604],[-46.566330791790485,-23.523619696662582],[-46.56644143630296,-23.52346885679585]]]}},{"type":"Feature","id":"geoconvias_lei_melhoramento_vigente.3462","properties":{"cd_identificador_lei_vigente_etl":3462,"cd_identificador_lei_vigente_original":8206,"cd_numero_lei_vigente":16541,"an_lei_melhoramento_vigente":2016,"tx_dc_tipo_norma":"LEI","tx_descricao_tipo_melhoramento":"Viário","cd_plano_rodoviario_municipal":null,"nr_folha_lei_vigente":26982,"tp_classe_lei_melhoramento":"T1064","dc_complemento_lei_melhoramento":"56","dt_carga":"2026-05-26Z"},"geometry":{"type":"Polygon","coordinates":[[[-46.5757439764714,-23.531245677661726],[-46.57558699420155,-23.53123065112771],[-46.573449039713175,-23.531205686742606],[-46.57217783839878,-23.531162275434184],[-46.57124673153152,-23.53092460511022],[-46.57125860299938,-23.530885112178193],[-46.57077780001886,-23.530760378384247],[-46.570610099362014,-23.530716918524014],[-46.56992210340366,-23.530538464507607],[-46.56977720373324,-23.53046858517011],[-46.569725068143576,-23.530465950413678],[-46.568968220758826,-23.530089153790545],[-46.568826386914445,-23.53005473257778],[-46.567970869833516,-23.52984734494401],[-46.56781474002503,-23.529796631266265],[-46.56694910565626,-23.52957823223762],[-46.5667516471048,-23.529676485877648],[-46.566446502291896,-23.529696083693153],[-46.565767426295515,-23.5295339565801],[-46.56562119831298,-23.52949226185688],[-46.56437609231411,-23.529194403966535],[-46.564216418258184,-23.529158532294513],[-46.563835519250595,-23.529182408299675],[-46.56383128545639,-23.52906451196422],[-46.56369764683892,-23.529068654330104],[-46.56370146827084,-23.529176530915677],[-46.56234950957841,-23.52921810469976],[-46.5622701653935,-23.529698062066714],[-46.562901292461675,-23.529656686185707],[-46.562913728962556,-23.529639945079126],[-46.56359324293497,-23.529607291584778],[-46.56368712907207,-23.529587474374107],[-46.563847566166025,-23.529571864816017],[-46.564120008799314,-23.529619336493376],[-46.56427516694932,-23.529654260274935],[-46.56546820765091,-23.529946772715032],[-46.56562369620025,-23.52997645408268],[-46.56631771446608,-23.530151344987047],[-46.566461493403004,-23.530118471458334],[-46.56657903304495,-23.530152507290808],[-46.56657924223059,-23.53020325678039],[-46.56677116164803,-23.530249186393803],[-46.566817592162856,-23.530084363215956],[-46.56714354307241,-23.530060039838656],[-46.56769722741361,-23.530202924732606],[-46.567855623455245,-23.530229955687503],[-46.5686998596862,-23.530435651462955],[-46.56886404689521,-23.53048023251376],[-46.56964591985022,-23.530877637616907],[-46.56981199745543,-23.53092463679896],[-46.570465354111,-23.531221108495174],[-46.57062113019596,-23.531250059402577],[-46.572134578069914,-23.53158506970807],[-46.5729904525013,-23.531606943276138],[-46.57319348702372,-23.532191873944882],[-46.57336836341749,-23.53212201573037],[-46.57317893765728,-23.531602599551196],[-46.57323488434919,-23.531604472153557],[-46.575666553360705,-23.53168552480196],[-46.5763254626326,-23.53132882893786],[-46.5757439764714,-23.531245677661726]]]}}],"barch_provenance":{"source":"[acervo interno]","crs_original":"urn:ogc:def:crs:EPSG::31983","output":"EPSG:4326","operation":"reproject and clip for visualization only","clipped_bbox":[-46.585,-23.546,-46.531,-23.508],"captured_at":"2026-09-28"}}