{"type":"FeatureCollection","features":[{"type":"Feature","id":"volume_a","properties":{"id":"volume_a","kind":"massa_ilustrativa","label":"Barra A — 80 × 20 m","status":"hipotese_cartografica_nao_aprovada","largura_m":80,"profundidade_m":20,"pavimentos_hipotese":8,"altura_ilustrativa_m":24,"pavimento_a_pavimento_hipotese_m":3,"variante_pavimentos":7,"variante_altura_m":21,"area_empilhada_8_pav_m2":12800,"area_empilhada_7_pav_m2":11200,"metodo":"dimensoes_escolhidas_para_ilustrar_area_bruta_do_modelo_nao_estimativa_independente","unidades_nao_comprovadas":true,"datum_vertical_nao_definido":true,"area_cartografica_m2":1600,"height_m":24},"geometry":{"type":"Polygon","coordinates":[[[-46.557564196726474,-23.525058355807246],[-46.55833262546069,-23.524917586191027],[-46.55837079228644,-23.52509472443532],[-46.557602362587325,-23.525235494289447],[-46.557564196726474,-23.525058355807246]]]}},{"type":"Feature","id":"volume_b","properties":{"id":"volume_b","kind":"massa_ilustrativa","label":"Barra B — 47 × 20 m","status":"hipotese_cartografica_nao_aprovada","largura_m":47,"profundidade_m":20,"pavimentos_hipotese":8,"altura_ilustrativa_m":24,"pavimento_a_pavimento_hipotese_m":3,"variante_pavimentos":7,"variante_altura_m":21,"area_empilhada_8_pav_m2":7520,"area_empilhada_7_pav_m2":6580,"metodo":"dimensoes_escolhidas_para_ilustrar_area_bruta_do_modelo_nao_estimativa_independente","unidades_nao_comprovadas":true,"datum_vertical_nao_definido":true,"area_cartografica_m2":940,"height_m":24},"geometry":{"type":"Polygon","coordinates":[[[-46.55773855466009,-23.525357849400702],[-46.55819000763708,-23.525275147149486],[-46.55822817440709,-23.525452285425608],[-46.55777672086322,-23.525534987816588],[-46.55773855466009,-23.525357849400702]]]}},{"type":"Feature","id":"volume_c","properties":{"id":"volume_c","kind":"massa_ilustrativa","label":"Barra C — 20 × 28 m","status":"hipotese_cartografica_nao_aprovada","largura_m":20,"profundidade_m":28,"pavimentos_hipotese":8,"altura_ilustrativa_m":24,"pavimento_a_pavimento_hipotese_m":3,"variante_pavimentos":7,"variante_altura_m":21,"area_empilhada_8_pav_m2":4480,"area_empilhada_7_pav_m2":3920,"metodo":"dimensoes_escolhidas_para_ilustrar_area_bruta_do_modelo_nao_estimativa_independente","unidades_nao_comprovadas":true,"datum_vertical_nao_definido":true,"area_cartografica_m2":560,"height_m":24},"geometry":{"type":"Polygon","coordinates":[[[-46.55788988595142,-23.525643148148962],[-46.558081994037494,-23.525607955652717],[-46.55813542752132,-23.52585594926456],[-46.55794331909752,-23.525891141844077],[-46.55788988595142,-23.525643148148962]]]}}]}