{"type":"FeatureCollection","barch":{"title":"CAR - APPs hídricas na URFBio Metropolitana","geometryBasis":"gleba-georreferenciada.geojson","source":"https://geoserver.meioambiente.mg.gov.br/ows?service=WFS&version=1.0.0&request=GetFeature&typeName=IDE%3Aide_210603_mg_hid_app_hidrica_mapcar_cm_pol&srsName=EPSG%3A4326&outputFormat=application%2Fjson&bbox=-44.08%2C-20.25%2C-43.96%2C-20.14%2CEPSG%3A4326&maxFeatures=20000","sourceScale":null,"displaySimplificationM":1,"contextBufferM":500},"features":[{"type":"Feature","id":"ide_210603_mg_hid_app_hidrica_mapcar_cm_pol.238","properties":{"gid":238,"fid":238,"classe":1,"categoria":"Ate 10m","shape_leng":2.02847327762,"shape_area":0.000276704957953},"geometry":{"type":"Polygon","coordinates":[[[-44.00714431,-20.200678200000002],[-44.00709123,-20.200696650000005],[-44.00693940000001,-20.200668399999994],[-44.006587688521556,-20.200446290243978],[-44.00626729225287,-20.20039352224213],[-44.00610822511825,-20.200382355254856],[-44.0061917,-20.200483860000002],[-44.00636129,-20.200623909999997],[-44.00681238,-20.200908780000006],[-44.00691574,-20.20094284],[-44.00709393000001,-20.20096598],[-44.00719243,-20.200951389999997],[-44.00731042,-20.20089885999999],[-44.00750917872358,-20.200707592342084],[-44.00722267996031,-20.200602781110014],[-44.00714431,-20.200678200000002]]]}},{"type":"Feature","id":"ide_210603_mg_hid_app_hidrica_mapcar_cm_pol.4057","properties":{"gid":4057,"fid":4057,"classe":1,"categoria":"Ate 10m","shape_leng":3.46639075432,"shape_area":0.000474279156591},"geometry":{"type":"MultiPolygon","coordinates":[[[[-44.01375039,-20.216913970000004],[-44.01376196,-20.21700745],[-44.01378836,-20.217065220000002],[-44.01387923,-20.21715613],[-44.01397077,-20.21719341],[-44.01406077,-20.217199409999996],[-44.01460113,-20.217506339999996],[-44.01483775,-20.217748399999994],[-44.01493476,-20.217950140000003],[-44.01489688,-20.218169999999997],[-44.01473949,-20.218712689999997],[-44.01461653,-20.219003989999994],[-44.01457729,-20.21917666],[-44.01455117,-20.21940366999999],[-44.01454459,-20.219764789999996],[-44.01456564,-20.2200013],[-44.01473714,-20.220387080000002],[-44.0147694,-20.220534450000002],[-44.01478519,-20.220700800000003],[-44.01476337,-20.220873629999996],[-44.01466912,-20.221112669999993],[-44.01440279,-20.221511640000003],[-44.0143089343815,-20.22172860094983],[-44.0148042837739,-20.221409899090634],[-44.0149235,-20.221231479999997],[-44.01503969,-20.22093676],[-44.01506899,-20.22070472],[-44.01504913,-20.220495479999997],[-44.01500751,-20.220305339999996],[-44.01484359,-20.21995463],[-44.01482684,-20.21976961],[-44.01483343,-20.21940804],[-44.0148578,-20.21920666],[-44.01489213,-20.21906176],[-44.01500711,-20.218799090000005],[-44.01517236,-20.21822928],[-44.01521908,-20.217988319999996],[-44.015214400000005,-20.21788698],[-44.01507938,-20.21760619999999],[-44.01494,-20.217446409999997],[-44.01477491,-20.21729406],[-44.01414451,-20.216935979999988],[-44.01406636,-20.216908019999998],[-44.01403269,-20.216927719999994],[-44.01406514,-20.21689824],[-44.0141487,-20.216927839999993],[-44.01478108,-20.217287120000005],[-44.01494705,-20.217440290000003],[-44.01508717,-20.217600909999998],[-44.0152239,-20.2178855],[-44.01522859,-20.217989449999994],[-44.0151817,-20.218231279999998],[-44.01501617,-20.218802009999997],[-44.01490127,-20.219064479999997],[-44.01484298,-20.21940863],[-44.01483641,-20.219769300000006],[-44.01485306,-20.219953099999998],[-44.01501678,-20.220303040000005],[-44.0150586,-20.22049416],[-44.01507856,-20.220704390000005],[-44.01504886,-20.220939400000002],[-44.01493586,-20.221226010000002],[-44.01513293899608,-20.221160155350812],[-44.01551869686773,-20.220818263316623],[-44.015732444609924,-20.22059882519373],[-44.01551248,-20.220733089999996],[-44.01535027,-20.220804859999998],[-44.01536039,-20.220689030000003],[-44.0153398,-20.220470639999995],[-44.01529323,-20.220249119999995],[-44.01513031,-20.219886079999995],[-44.01511891,-20.219760219999994],[-44.015125,-20.21942607999999],[-44.01514601,-20.21925248],[-44.01517145,-20.219145029999996],[-44.01528666,-20.218878270000005],[-44.01545392,-20.21830183],[-44.01551047,-20.218004389999997],[-44.01550573,-20.217870160000004],[-44.01548274,-20.217778579999997],[-44.01533209,-20.21746829],[-44.01514421,-20.217249579999997],[-44.01493561,-20.217064059999988],[-44.01429462,-20.216699710000004],[-44.01409847,-20.216633600000005],[-44.01396696,-20.216648110000005],[-44.01388061,-20.21669515999999],[-44.01380671,-20.216767910000005],[-44.01376196,-20.21685201],[-44.01375039,-20.216913970000004]]],[[[-44.01375223,-20.22157986999999],[-44.01349464,-20.22146698],[-44.01344739,-20.22142125],[-44.01323673,-20.221118130000008],[-44.01311066,-20.220995730000002],[-44.01296099,-20.2208905],[-44.01219275,-20.220429469999996],[-44.0119961,-20.22029167],[-44.01197554,-20.22026328],[-44.01192697,-20.219987129999996],[-44.01191077,-20.219801320000006],[-44.01183479,-20.21961236],[-44.01141919,-20.219024839999996],[-44.01136606,-20.21896926],[-44.01121838,-20.218862120000004],[-44.01104858000001,-20.21880419],[-44.01086687,-20.21881492],[-44.01080423,-20.218836429999996],[-44.01072426,-20.218892629999996],[-44.010674030000004,-20.218959209999998],[-44.01063993,-20.219047640000003],[-44.01063993,-20.21914176],[-44.0106678,-20.219231100000002],[-44.01072259,-20.21930972],[-44.01080256,-20.219365919999994],[-44.01089808,-20.219392919999994],[-44.01098718,-20.219389180000004],[-44.01131735,-20.219849149999998],[-44.01134525,-20.21991228999999],[-44.01135846,-20.220063909999993],[-44.01142387,-20.22042262],[-44.011488990000004,-20.220557750000005],[-44.01161307,-20.220697659999995],[-44.01187594,-20.220881579999993],[-44.01274664,-20.221415439999994],[-44.01301359,-20.22177758],[-44.01312501,-20.22188353],[-44.01326029,-20.22196894],[-44.01359386741072,-20.22210145483638],[-44.01394884254971,-20.22193362758183],[-44.01364726,-20.221837179999994],[-44.01338723,-20.221730929999996],[-44.01330686,-20.22167968],[-44.0132184,-20.221594089999993],[-44.0130027,-20.22128277],[-44.01293489,-20.22121567],[-44.01280424,-20.22112289999999],[-44.01202725,-20.22065662],[-44.01179393,-20.22049296999999],[-44.011733930000005,-20.220425149999997],[-44.01169417,-20.22034564],[-44.01163691,-20.22002007],[-44.01162334,-20.219849439999997],[-44.01156696,-20.219721849999996],[-44.01117795,-20.219179909999994],[-44.011087,-20.219108149999997],[-44.0110144,-20.219077929999994],[-44.01093587,-20.219082940000003],[-44.01092888,-20.2191276],[-44.01091789,-20.21909428],[-44.01093135,-20.219074390000003],[-44.01101718,-20.21906921],[-44.01109261,-20.21910081],[-44.01118460000001,-20.21917339],[-44.01157515,-20.219717159999995],[-44.01163283,-20.219848040000002],[-44.01164641,-20.220018989999996],[-44.0117035,-20.220343539999995],[-44.01174167,-20.2204198],[-44.01180091,-20.220486759999993],[-44.01203268,-20.220649169999998],[-44.012809690000005,-20.221115469999994],[-44.01294127,-20.22120891],[-44.01301021,-20.22127714],[-44.01322615,-20.22158878],[-44.01331263000001,-20.221672460000004],[-44.01339144,-20.2217228],[-44.0136507,-20.22182873999999],[-44.013959700853505,-20.221927558813377],[-44.0142777271877,-20.221747916328436],[-44.01375223,-20.22157986999999]]],[[[-44.01125114646411,-20.222840546601212],[-44.01107049,-20.22277308],[-44.01081861,-20.222779459999995],[-44.01003923,-20.222568790000008],[-44.00983027,-20.222527619999997],[-44.00950693,-20.22250001],[-44.00930237,-20.222502649999996],[-44.00903677,-20.22253710999999],[-44.00890857,-20.222581609999995],[-44.00836325,-20.222900529999993],[-44.0082357,-20.222957909999998],[-44.00818439,-20.222780719999992],[-44.00805823,-20.222497409999992],[-44.00805609,-20.222432070000004],[-44.00811253,-20.22225636],[-44.00816888000001,-20.222138359999995],[-44.00832374,-20.221893830000003],[-44.00886694,-20.221113049999996],[-44.00895857,-20.22080843],[-44.00898999,-20.220643029999994],[-44.008998500000004,-20.220189279999992],[-44.00897899,-20.21999396],[-44.0089243,-20.21982104],[-44.00873183,-20.21938845],[-44.00856351000001,-20.218603350000006],[-44.00847524,-20.218463359999998],[-44.00837381,-20.21838302],[-44.00831118,-20.2183615],[-44.00821164,-20.218356029999995],[-44.00808722,-20.218398779999994],[-44.0080147,-20.21846336],[-44.00798137,-20.218517849999994],[-44.00795838,-20.218609429999997],[-44.00796226,-20.218672240000004],[-44.00802788,-20.218809850000003],[-44.00818073000001,-20.219545679999992],[-44.00841345,-20.220095190000002],[-44.0084202,-20.220572899999997],[-44.00833871,-20.220892069999998],[-44.00783789,-20.221604869999997],[-44.00766755,-20.221873700000003],[-44.00756845,-20.222082350000004],[-44.0074919,-20.222327349999993],[-44.0074755,-20.222478479999992],[-44.00750485,-20.222649370000006],[-44.00764688000001,-20.222972329999994],[-44.00767989,-20.22309391],[-44.00768596,-20.223213800000003],[-44.00740986886622,-20.223352237947854],[-44.007970892219376,-20.223259304786886],[-44.0079605,-20.223054060000003],[-44.00791518,-20.222887170000003],[-44.00777515,-20.22257233],[-44.00775737,-20.222463419999997],[-44.00776995,-20.22237345],[-44.0078387,-20.22215937999999],[-44.00790972,-20.222010659999995],[-44.00807674,-20.22174692],[-44.00859892,-20.22100383],[-44.00867709,-20.220735579999992],[-44.00870225,-20.22059688999999],[-44.00870665,-20.22018674],[-44.00869156,-20.22004192],[-44.00864575,-20.21990329],[-44.00845105,-20.219468820000003],[-44.00829538,-20.218712329999992],[-44.00824497,-20.21862067],[-44.00830461,-20.218709820000004],[-44.00846035,-20.219466629999996],[-44.00865474,-20.21990018],[-44.00870084,-20.22003967],[-44.00871622,-20.220186339999998],[-44.0087118,-20.2205977],[-44.00868644,-20.22073755],[-44.00860732,-20.221008219999998],[-44.00808483,-20.221751739999995],[-44.00791821,-20.22201484],[-44.00784767,-20.22216256],[-44.00777932,-20.222375369999995],[-44.00776693,-20.222462679999992],[-44.00778452,-20.222570410000003],[-44.00792427,-20.222884280000002],[-44.00797003,-20.223053169999996],[-44.0079803602483,-20.22325713044708],[-44.00856797894538,-20.223094128665082],[-44.00903574,-20.22281954],[-44.00910231,-20.222796309999996],[-44.00930816,-20.222769069999995],[-44.00948296,-20.222765529999997],[-44.00977341,-20.22278864],[-44.00996133,-20.222824919999997],[-44.010524934860086,-20.222977257213554],[-44.01093667382329,-20.222919928375088],[-44.01125114646411,-20.222840546601212]]],[[[-44.002614030000004,-20.221847040000007],[-44.00313951,-20.221740329999996],[-44.00351319000001,-20.22164145],[-44.00390953,-20.221480479999997],[-44.00474656,-20.220962090000004],[-44.00497618,-20.22073996],[-44.00513291,-20.22050358],[-44.005393870000006,-20.220153759999995],[-44.00589145,-20.219720080000002],[-44.00613688,-20.219387099999995],[-44.00630805,-20.21905937],[-44.00644249,-20.21886115],[-44.0065385,-20.218798409999998],[-44.00659329,-20.21871978],[-44.00661628,-20.218628209999995],[-44.00661241,-20.218565400000003],[-44.00657831,-20.21847696],[-44.0065385,-20.21842649],[-44.00642788,-20.218357810000008],[-44.00631278,-20.218339109999988],[-44.00619008,-20.21835446],[-44.00610374,-20.218401509999996],[-44.00598443,-20.218534059999993],[-44.00581522000001,-20.21878083],[-44.00565074,-20.219098030000005],[-44.00546409,-20.219355730000004],[-44.00496798,-20.21978812],[-44.00465402,-20.220204399999997],[-44.00451894,-20.220409500000002],[-44.00437869,-20.220544019999995],[-44.003656840000005,-20.220993269999997],[-44.00333833,-20.22112488],[-44.00300983,-20.2212123],[-44.00250915,-20.221314080000006],[-44.00186811,-20.221411569999994],[-44.00161721,-20.221484959999998],[-44.00140281154227,-20.221583203641476],[-44.00171208735294,-20.221736129918003],[-44.00195164,-20.221666130000003],[-44.00256073,-20.22157617],[-44.00307791,-20.221471039999997],[-44.00343368,-20.221376359999994],[-44.00379211,-20.221228249999992],[-44.00455897,-20.22075099],[-44.00474212,-20.220575329999996],[-44.00488943,-20.22035147],[-44.00517288,-20.219971479999995],[-44.005679,-20.219531149999995],[-44.00589574,-20.219231889999996],[-44.00605268,-20.21892498],[-44.00620493,-20.218700450000004],[-44.00628505,-20.21860575999999],[-44.00633291,-20.218609109999996],[-44.00629041,-20.218613809999997],[-44.00621271,-20.218705720000003],[-44.00606118,-20.218929149999997],[-44.00590404,-20.21923642],[-44.00568659,-20.21953667],[-44.00518041,-20.21997708],[-44.00489741,-20.22035645999999],[-44.00474997,-20.220580519999995],[-44.00456466,-20.220758270000005],[-44.00379669,-20.2212362],[-44.00343691,-20.221384880000006],[-44.00308022,-20.221479800000004],[-44.00256247,-20.221585059999995],[-44.00195380000001,-20.221674939999993],[-44.00172407697498,-20.221741812298415],[-44.002141824566685,-20.221916857262386],[-44.002614030000004,-20.221847040000007]]],[[[-44.00113799270999,-20.221451207009583],[-44.00109302,-20.221230209999998],[-44.00102559,-20.220749229999996],[-44.00103674,-20.22060582],[-44.00114256,-20.220446349999996],[-44.00134641,-20.220294009999996],[-44.00147324,-20.220150070000003],[-44.00155644,-20.21998408],[-44.0016102,-20.21978678],[-44.00171938,-20.21961922999999],[-44.00194814,-20.21942465000001],[-44.00226025,-20.21922866],[-44.00242858000001,-20.21917381],[-44.00295335,-20.21909932],[-44.00317231,-20.21900671],[-44.00331066,-20.218908699999993],[-44.00367811,-20.21855439],[-44.00380987,-20.21849606],[-44.00388894,-20.2183958],[-44.00391194,-20.218304229999998],[-44.00390036,-20.21821075],[-44.00385562,-20.218126650000002],[-44.00375792,-20.21804098999999],[-44.00366638,-20.218003719999995],[-44.00356685,-20.217998239999993],[-44.00350199,-20.21801275],[-44.00340181,-20.218061500000005],[-44.00333561,-20.218109400000007],[-44.002935320000006,-20.21849827],[-44.00289136,-20.218532029999995],[-44.00277491,-20.218581580000002],[-44.00230703,-20.218643949999993],[-44.00217162,-20.218676739999996],[-44.00200017,-20.218745289999994],[-44.00187665,-20.21881031],[-44.00158453,-20.21900461],[-44.00126624,-20.219282209999996],[-44.00107928,-20.21957245],[-44.00098412,-20.219862389999992],[-44.0009404,-20.21990935],[-44.00072229,-20.220072050000002],[-44.0005519,-20.220307409999997],[-44.00048829,-20.220439339999995],[-44.00045759,-20.220571159999995],[-44.00045645,-20.220820789999998],[-44.00014527760826,-20.22082052493288],[-44.00080293175392,-20.221261098129556],[-44.00073348,-20.220765569999994],[-44.00073552,-20.220618159999994],[-44.000759,-20.22051509],[-44.00080613,-20.220423270000005],[-44.00092715,-20.220255469999994],[-44.0011343,-20.22010473],[-44.00122061,-20.220012039999993],[-44.00127692,-20.219904789999998],[-44.0013388,-20.21967742],[-44.00149331,-20.219440669999994],[-44.00176609,-20.21920867],[-44.00213452,-20.218979659999984],[-44.00226832,-20.218927089999994],[-44.00237399,-20.218902819999997],[-44.00285383,-20.218840289999996],[-44.00304093,-20.218760669999995],[-44.00312627,-20.218695150000002],[-44.00353806,-20.21829509999999],[-44.00360017,-20.21826288],[-44.00362963,-20.21828646000001],[-44.00359954,-20.218272899999988],[-44.00354444,-20.218301870000005],[-44.00313273,-20.218701809999995],[-44.00304544,-20.218768659999995],[-44.00285604,-20.218849109999997],[-44.00237578,-20.218911699999996],[-44.0022713,-20.218935690000002],[-44.002138640000005,-20.21898781999999],[-44.00177205,-20.21921574],[-44.00150022,-20.21944695],[-44.00134733,-20.21968157],[-44.00128606,-20.219907489999994],[-44.00122891,-20.22001658],[-44.00114051,-20.220111630000012],[-44.00093463,-20.22026115],[-44.00081442,-20.22042778999999],[-44.00076786,-20.220518539999997],[-44.00074508,-20.220618730000005],[-44.00074305,-20.22076503999999],[-44.000813422326026,-20.22126705034922],[-44.00113799270999,-20.221451207009583]]],[[[-43.9999373,-20.22064072],[-43.99980279,-20.22046982000001],[-43.99937787,-20.22007771],[-43.99927439,-20.219959249999995],[-43.99904238,-20.219638650000004],[-43.99874469,-20.219372440000004],[-43.99855049292573,-20.21927809265976],[-43.998847826244464,-20.219665734612274],[-43.999124862079434,-20.21997893884983],[-43.99958316889102,-20.220398568991495],[-44.00011854138771,-20.22080187725796],[-43.9999373,-20.22064072]]],[[[-44.00995906,-20.2228337],[-44.00977205,-20.22279759],[-44.00948266,-20.222774559999998],[-44.00930893,-20.22277809],[-44.00910416,-20.222805189999992],[-44.00903953,-20.222827850000005],[-44.00860893290595,-20.22308071164408],[-44.00894448966248,-20.22296069402892],[-44.009257638682456,-20.223003882904184],[-44.009731804312466,-20.223024425111944],[-44.010268449470196,-20.2230061121876],[-44.01050198024814,-20.22298045328938],[-44.00995906,-20.2228337]]],[[[-44.01493096,-20.221237229999993],[-44.01482490641215,-20.221395952467645],[-44.01511246083767,-20.221176578803956],[-44.01493096,-20.221237229999993]]]]}},{"type":"Feature","id":"ide_210603_mg_hid_app_hidrica_mapcar_cm_pol.4059","properties":{"gid":4059,"fid":4059,"classe":1,"categoria":"Ate 10m","shape_leng":2.06892983668,"shape_area":0.000284038717978},"geometry":{"type":"MultiPolygon","coordinates":[[[[-44.0203026323139,-20.210545562943302],[-44.02011253,-20.210869949999996],[-44.02009109,-20.21121545999999],[-44.02005067,-20.211441239999996],[-44.0200543,-20.21182812],[-44.02007726000001,-20.21189188],[-44.02016701312706,-20.21201620749738],[-44.02023376460958,-20.211706242970056],[-44.0202817818886,-20.211260086706737],[-44.0203026323139,-20.210545562943302]]],[[[-44.02006899,-20.211896459999995],[-44.02004474,-20.211828930000003],[-44.02004111,-20.211440530000004],[-44.02008155,-20.211214610000003],[-44.02010158,-20.210879560000002],[-44.01992818,-20.211020229999995],[-44.01960039,-20.211201760000005],[-44.01940356,-20.211359859999998],[-44.01928435,-20.211478640000003],[-44.01914045,-20.211701480000002],[-44.01902327,-20.21195752],[-44.01889463,-20.21210552],[-44.01879391,-20.212281190000002],[-44.0186888,-20.212415860000004],[-44.01852871,-20.212748639999997],[-44.01848412,-20.213194960000003],[-44.01848436,-20.21334076],[-44.01856978,-20.21372039],[-44.01870084,-20.214088480000004],[-44.018753530000005,-20.21436608],[-44.01892837,-20.215074090000005],[-44.01897912,-20.21558699],[-44.01896636,-20.215651220000005],[-44.01892876000001,-20.215659869999993],[-44.01895841,-20.21564473999999],[-44.01896953,-20.215587209999995],[-44.01891898,-20.215075840000004],[-44.01874416,-20.214367900000003],[-44.01869156,-20.214090719999994],[-44.01856054,-20.213722770000004],[-44.01847489,-20.213342170000008],[-44.01847456,-20.213194540000003],[-44.01851926,-20.21274703],[-44.01868029,-20.212411689999996],[-44.01878583,-20.21227635],[-44.01888695,-20.21210012],[-44.01901476,-20.211953349999998],[-44.01913194,-20.211697319999995],[-44.01927644,-20.21147353],[-44.01939697,-20.211353299999995],[-44.01959483000001,-20.21119437999999],[-44.01992261,-20.211012870000005],[-44.02010418,-20.21086554],[-44.02028252,-20.210576449999998],[-44.02030046456089,-20.210521582188047],[-44.0202474442788,-20.21000249689935],[-44.020158005433295,-20.209553443307993],[-44.02002097423302,-20.209115214964854],[-44.01986391955634,-20.208752694112288],[-44.019711130959514,-20.208207136574774],[-44.01955509456536,-20.207815961441437],[-44.01960329,-20.20819736000001],[-44.01974737,-20.208573489999992],[-44.01997237,-20.20905513],[-44.0199826,-20.209210989999992],[-44.02008837,-20.209815590000005],[-44.0201173,-20.210089389999993],[-44.02008510000001,-20.21027678],[-44.02002233,-20.21046871],[-44.01988416,-20.21069269],[-44.01975787,-20.21079515],[-44.01941308,-20.21099047],[-44.01919187,-20.211170210000002],[-44.01903542,-20.211334830000002],[-44.01888758,-20.21156391],[-44.01877142000001,-20.211813169999996],[-44.01866038,-20.211941169999992],[-44.01854692,-20.21213319999999],[-44.01843604,-20.212278069999996],[-44.01826043,-20.212640130000008],[-44.01823822,-20.212722019999998],[-44.01819354,-20.21316931],[-44.01819687,-20.213388289999997],[-44.01828435,-20.21377788],[-44.01841738,-20.214157069999995],[-44.01846768,-20.214421659999996],[-44.0186397,-20.215118649999987],[-44.01867963,-20.215522559999997],[-44.01864693,-20.215608369999998],[-44.01864693,-20.21570248],[-44.01866604,-20.21576276],[-44.01872083,-20.215841389999998],[-44.0188008,-20.215897589999997],[-44.01886343,-20.215919109999998],[-44.01895405865437,-20.215925068880058],[-44.01903705261826,-20.21532174239468],[-44.01907448388332,-20.21487703925752],[-44.01906580354579,-20.214456859345418],[-44.01897121,-20.214011880000005],[-44.01884252,-20.213650019999996],[-44.01876659,-20.213312569999996],[-44.0188053,-20.212818140000003],[-44.01893359,-20.212551469999994],[-44.01903848,-20.212414269999996],[-44.01912996,-20.212254910000002],[-44.01926749,-20.212091219999998],[-44.01939175,-20.21182427],[-44.01950982,-20.21164142999999],[-44.01975945,-20.211423869999997],[-44.01976247,-20.211831290000003],[-44.01977452,-20.211906610000003],[-44.01982434,-20.212029400000002],[-44.01999164,-20.212262479999996],[-44.02005587504003,-20.21239987846067],[-44.02016435582088,-20.21202854682956],[-44.02006899,-20.211896459999995]]],[[[-44.01508058,-20.204622349999998],[-44.01547832,-20.205027289999997],[-44.01563575000001,-20.20527851],[-44.01571116,-20.205449539999996],[-44.01586748,-20.206038069999998],[-44.0158787,-20.206150619999992],[-44.01587151,-20.20649421],[-44.01574467,-20.206853939999995],[-44.01580002,-20.207283959999998],[-44.01588433,-20.207414049999997],[-44.01600931,-20.20751396],[-44.01609436,-20.207557309999995],[-44.01626023000001,-20.207592489999996],[-44.01680095,-20.207603950000003],[-44.01704146,-20.20764221],[-44.01714214,-20.207674680000004],[-44.01736562,-20.207771999999995],[-44.0174738,-20.20785615],[-44.01756243,-20.207963639999996],[-44.01766033,-20.208153600000003],[-44.01764946,-20.20817764999999],[-44.01765059,-20.208154690000004],[-44.01755405,-20.20796802],[-44.0174673,-20.2078628],[-44.01736105,-20.207779959999996],[-44.01713858,-20.207683069999998],[-44.0170391,-20.207650979999997],[-44.01680004,-20.207612949999994],[-44.0162586,-20.2076014],[-44.01609162,-20.207565989999992],[-44.01600351,-20.207521149999998],[-44.01587656,-20.207419379999997],[-44.0157908,-20.207286709999998],[-44.0157371,-20.206869989999998],[-44.01541029,-20.20754875],[-44.01532587,-20.207929679999996],[-44.01527943,-20.20835091],[-44.01527952,-20.210063529999996],[-44.01530078,-20.21017312],[-44.01541414,-20.21051801999999],[-44.01551061,-20.210763729999996],[-44.01564185,-20.21085793],[-44.01611021,-20.21107309999999],[-44.01638549,-20.21116481],[-44.01666125,-20.211218089999996],[-44.01685923,-20.211293779999995],[-44.01703775,-20.21139758],[-44.01726389,-20.2115],[-44.01745934,-20.211673450000003],[-44.01748402,-20.211680470000005],[-44.01751333,-20.211655799999992],[-44.01748842,-20.21168955999999],[-44.01745436,-20.211681300000006],[-44.01725908,-20.211507840000007],[-44.01703316,-20.21140551],[-44.0168549,-20.211301849999995],[-44.01665848,-20.211226749999998],[-44.01638293,-20.211173519999996],[-44.01610651,-20.21108144],[-44.01563723,-20.210865849999998],[-44.01551053,-20.21077502],[-44.01550068,-20.210869479999996],[-44.01552739,-20.21096458],[-44.01574131,-20.211354529999998],[-44.01601470000001,-20.211773979999993],[-44.01615013,-20.21208595],[-44.01650357,-20.212394639999996],[-44.01675981,-20.212520209999997],[-44.01698498,-20.21270018],[-44.01712939,-20.21289089],[-44.01731026,-20.21327713],[-44.01734917,-20.21331491999999],[-44.01737953,-20.2133057],[-44.01734746000001,-20.213325039999997],[-44.01730186,-20.213281519999992],[-44.01712084,-20.21289496],[-44.01697834,-20.21270671],[-44.01675404,-20.21252743999999],[-44.01649754000001,-20.212401689999997],[-44.0161526,-20.21210041],[-44.01619443,-20.21239758],[-44.01619564,-20.21254778],[-44.01611497,-20.213265810000003],[-44.01601432,-20.213663830000005],[-44.01598119,-20.213903409999997],[-44.01598646,-20.213969790000004],[-44.01639209,-20.214362230000003],[-44.01701802,-20.214747229999993],[-44.01710184,-20.214823029999998],[-44.01727703,-20.21514274],[-44.01735209,-20.215402049999998],[-44.01741684,-20.215711329999998],[-44.017559,-20.215968220000004],[-44.01759444,-20.215984479999996],[-44.01755175,-20.215974499999998],[-44.01740804,-20.21571494000001],[-44.01734277,-20.215404120000002],[-44.01726793,-20.215145580000005],[-44.01709371,-20.21482785],[-44.01701207,-20.214754329999998],[-44.01638643,-20.21436953],[-44.01598807,-20.213984279999995],[-44.01602167,-20.214277160000005],[-44.01611829,-20.214601889999997],[-44.01650763,-20.215259519999996],[-44.0168916,-20.215853680000002],[-44.01707426,-20.216566159999996],[-44.01706887,-20.216629070000003],[-44.01703392,-20.216639199999992],[-44.01706052,-20.216622899999994],[-44.01706478,-20.216567599999998],[-44.01688247,-20.215856489999993],[-44.01649937,-20.21526408],[-44.01610966,-20.21460583],[-44.01601226,-20.214278879999995],[-44.01597164,-20.213902699999995],[-44.0160049,-20.213662189999997],[-44.01610553,-20.213264280000004],[-44.016186080000004,-20.21254733],[-44.016184870000004,-20.212398209999996],[-44.01614144,-20.212089760000005],[-44.01600616,-20.21177808],[-44.01573298,-20.21135898],[-44.01551865,-20.210968300000005],[-44.01549107,-20.210869399999996],[-44.01550174,-20.210767130000004],[-44.01540508000001,-20.21052093],[-44.01529148,-20.210175279999998],[-44.01526997,-20.210064349999993],[-44.01526987,-20.20835044],[-44.01531641,-20.207928280000004],[-44.01540136,-20.20754547],[-44.01573533,-20.206851829999998],[-44.01586221,-20.206492010000005],[-44.01586913,-20.20615095],[-44.01585803,-20.2060396],[-44.01570207000001,-20.20545238],[-44.01562719,-20.205282559999993],[-44.01547035,-20.20503231],[-44.01507311,-20.20462801],[-44.01502219175653,-20.204558737421607],[-44.01472397767953,-20.204526169467485],[-44.01475008,-20.20464652999999],[-44.01484098,-20.204779640000005],[-44.01524282,-20.20519257999999],[-44.01537419,-20.20540218],[-44.01543339,-20.205536449999997],[-44.01557902,-20.206084749999988],[-44.01558081,-20.20644634],[-44.01547221,-20.20675435],[-44.01513072,-20.207469619999994],[-44.01503563,-20.207900929999994],[-44.01498759,-20.20835068],[-44.01498768,-20.210063959999996],[-44.01502112,-20.210251919999997],[-44.01521445,-20.210802090000005],[-44.01521313,-20.210916900000008],[-44.01525932,-20.21107355],[-44.01548223,-20.21148137],[-44.01575368,-20.211899220000003],[-44.01586642000001,-20.212158970000004],[-44.01590274,-20.21241685],[-44.01590368,-20.21253425],[-44.01582674,-20.2132191],[-44.01573038,-20.213600079999992],[-44.0156898,-20.21388753],[-44.01573425,-20.21432507],[-44.01586325,-20.214735829999995],[-44.01625565,-20.21539852],[-44.0166185,-20.215959710000007],[-44.0167669,-20.216538569999997],[-44.01674821,-20.216650510000004],[-44.0167712,-20.21674209],[-44.01682599,-20.216820720000005],[-44.01690596,-20.216876919999994],[-44.01696859,-20.216898440000005],[-44.01706812,-20.216903909999996],[-44.01719389,-20.21686851],[-44.01727387,-20.216812309999995],[-44.01732865,-20.21673368],[-44.01735137,-20.216645989999996],[-44.01735232,-20.216520169999995],[-44.01719558,-20.215906530000005],[-44.01730696,-20.216107269999995],[-44.01737104,-20.216179370000003],[-44.0174915,-20.216239540000004],[-44.01758968,-20.216255880000002],[-44.01771852,-20.216227060000005],[-44.01781995,-20.216146719999998],[-44.01787239,-20.21603195],[-44.01787239,-20.21593783999999],[-44.01783829,-20.215849399999996],[-44.01777032,-20.21577457999999],[-44.01768588,-20.215621989999995],[-44.01762435,-20.215331659999993],[-44.01754742,-20.215066210000007],[-44.01732785,-20.214663280000007],[-44.01717279,-20.214524369999996],[-44.01657234,-20.21415505],[-44.01627134,-20.213863830000005],[-44.01629231,-20.213712149999996],[-44.01639296,-20.213312100000003],[-44.01646403,-20.21268563],[-44.01659588,-20.212750179999997],[-44.01676911,-20.212888630000002],[-44.01687435,-20.213027670000002],[-44.01705762,-20.213415189999996],[-44.01714247,-20.21350945],[-44.0172195,-20.213562760000002],[-44.017282140000006,-20.213584279999996],[-44.01738167,-20.213589749999997],[-44.01744652,-20.21357524],[-44.01753251000001,-20.21353253],[-44.017605030000006,-20.21346794],[-44.01763835,-20.213413450000004],[-44.01766135,-20.213321880000002],[-44.01765747,-20.213259059999995],[-44.017605030000006,-20.213144300000003],[-44.01752437,-20.21307528],[-44.01737362,-20.212757219999997],[-44.01719069,-20.212517670000004],[-44.01691446000001,-20.212297259999993],[-44.01666732000001,-20.212174640000004],[-44.01638766,-20.211930390000003],[-44.01625904,-20.211640529999993],[-44.01607128,-20.211352290000004],[-44.01631801,-20.21143285],[-44.01657652,-20.211482909999997],[-44.01672700000001,-20.21154044],[-44.01691128,-20.211645869999998],[-44.01709746,-20.211730190000004],[-44.01729913,-20.21190387],[-44.01745257,-20.211954869999996],[-44.01758408,-20.211940359999996],[-44.0176947,-20.211871679999994],[-44.01778357,-20.211733939999995],[-44.01779126,-20.211609159999988],[-44.01775717,-20.211520720000003],[-44.01766631,-20.211429809999995],[-44.01755054,-20.2113885],[-44.01741956,-20.211277669999998],[-44.01717321,-20.211163380000002],[-44.0169859,-20.211055639999994],[-44.01675805,-20.21096777],[-44.01646111,-20.21090742],[-44.01621929,-20.21082686],[-44.01579047,-20.210629860000008],[-44.01574677,-20.21059849],[-44.01568147,-20.210432169999997],[-44.0155618,-20.21003933],[-44.0155617,-20.208364730000003],[-44.01560513,-20.20797085999999],[-44.01568749,-20.207616989999995],[-44.01584886,-20.207744109999993],[-44.01602646,-20.20782527],[-44.01622632,-20.20786615],[-44.01677329,-20.207878919999995],[-44.01703354,-20.207930779999998],[-44.01720954,-20.20800744],[-44.01726361,-20.208049589999995],[-44.01731327,-20.208109819999997],[-44.01742173,-20.208335630000004],[-44.01749424,-20.20840021],[-44.01758578,-20.208437490000005],[-44.01771818,-20.20843749],[-44.01778081,-20.20841597],[-44.01786078,-20.20835977],[-44.01792698,-20.208251530000002],[-44.01793826,-20.208106959999995],[-44.01791352,-20.208035140000003],[-44.01778839,-20.207803799999997],[-44.01767955,-20.207673670000002],[-44.01749245,-20.207533940000005],[-44.01726062,-20.207432810000004],[-44.01710648,-20.207382910000007],[-44.01683382,-20.207339289999993],[-44.01629466,-20.207326679999998],[-44.01619422,-20.207305380000005],[-44.01610141,-20.20723841],[-44.01607283,-20.207194309999995],[-44.01603254,-20.206881260000003],[-44.01614967,-20.20653984000001],[-44.01615971,-20.206125399999998],[-44.0161412,-20.20597293],[-44.01597163,-20.20534682],[-44.01588007,-20.205145040000005],[-44.01572125,-20.204891599999996],[-44.01549522353658,-20.204652515425774],[-44.01503561793041,-20.204561158857906],[-44.01508058,-20.204622349999998]],[[-44.01655308,-20.21479007],[-44.01686471,-20.21498991],[-44.0170035,-20.21524303],[-44.01711398,-20.215685729999997],[-44.0167514,-20.215125049999997],[-44.01655308,-20.21479007]]],[[[-44.00847183,-20.201915930000002],[-44.0082421,-20.2022937],[-44.00810443,-20.202671810000002],[-44.00808453,-20.20283116],[-44.00810159,-20.20311523],[-44.00814008,-20.203282409999996],[-44.00823416,-20.203513150000003],[-44.0083772,-20.2037418],[-44.00840839,-20.20391197],[-44.00841235,-20.204346220000005],[-44.00830103,-20.204953360000008],[-44.00834446,-20.205530130000003],[-44.00830678,-20.20646543000001],[-44.00831748,-20.206834849999996],[-44.00842375,-20.20722629000001],[-44.00869189,-20.207548410000005],[-44.00881009,-20.207835739999997],[-44.00868393,-20.207553469999993],[-44.00841477,-20.207229570000006],[-44.00830807,-20.206836600000006],[-44.00829722,-20.20646523],[-44.00833489,-20.205530280000005],[-44.00829145000001,-20.204953449999998],[-44.0084028,-20.20434549],[-44.00839884,-20.20391277],[-44.00836852,-20.20374568],[-44.008225530000004,-20.203517090000002],[-44.008130900000005,-20.203285010000002],[-44.00809209,-20.203116450000007],[-44.00807495,-20.202830879999993],[-44.00809504,-20.202670020000003],[-44.00814656,-20.202500979999996],[-44.00823341,-20.202289900000007],[-44.00839933,-20.20200071],[-44.00846431,-20.201910329999993],[-44.00885650762916,-20.20150293468558],[-44.00853250938054,-20.201255933775748],[-44.00818322,-20.201158090000003],[-44.00805401,-20.201169340000003],[-44.00797124,-20.201219789999996],[-44.00791925,-20.20129318],[-44.00789154,-20.201398869999995],[-44.0079018,-20.20150629],[-44.00796363,-20.201672450000004],[-44.00794007,-20.201771189999995],[-44.00783412,-20.201878269999995],[-44.00762588,-20.201996160000007],[-44.00743198,-20.202141030000003],[-44.00726787,-20.2023155],[-44.00721987,-20.202428799999996],[-44.007210050000005,-20.20260054],[-44.00717808,-20.2027177],[-44.0066597,-20.20347673],[-44.00657045,-20.203546399999997],[-44.0062968,-20.20367772],[-44.00615952,-20.203707199999997],[-44.00583931,-20.203742580000004],[-44.00549571,-20.203856440000003],[-44.00532823,-20.20396414],[-44.00508862,-20.204223559999996],[-44.00499514,-20.204389879999997],[-44.00496058,-20.204564130000005],[-44.00496552,-20.204827630000004],[-44.00502743,-20.205003910000006],[-44.00504019,-20.20508384],[-44.00503699,-20.205363890000005],[-44.00502458,-20.205431069999996],[-44.00498462,-20.205480420000004],[-44.00481348,-20.205558510000003],[-44.00458979,-20.20560657],[-44.00448626,-20.205651599999996],[-44.00424834,-20.205833650000006],[-44.0041078,-20.205982710000004],[-44.00394800000001,-20.206207380000002],[-44.00379993,-20.2064812],[-44.003750870000005,-20.206505099999998],[-44.00355986,-20.20653817],[-44.00346919,-20.20657064],[-44.00326543,-20.206679670000003],[-44.00313424000001,-20.206768690000008],[-44.00306906,-20.20684264],[-44.00271829,-20.20739506],[-44.00274107,-20.20747363],[-44.0028362,-20.20824444999999],[-44.0028517,-20.208816629999994],[-44.00306527,-20.209832929999997],[-44.00309849,-20.209938579999992],[-44.00336995,-20.210227069999995],[-44.00376176,-20.210563320000002],[-44.00410587,-20.21095752],[-44.004889340000005,-20.211621770000008],[-44.00542546,-20.211883459999992],[-44.00556626,-20.21193352],[-44.0060446,-20.21203708],[-44.00684518,-20.21210579],[-44.00752244,-20.21229559],[-44.0079536,-20.21259776],[-44.00839882,-20.213029420000005],[-44.00876063,-20.213270669999993],[-44.00918711,-20.213460010000002],[-44.00958878,-20.213687550000003],[-44.00998733,-20.21396756],[-44.01006972,-20.21404544],[-44.0102939,-20.214386659999995],[-44.01040269,-20.214744010000004],[-44.01042361,-20.214896],[-44.0104272,-20.21564111],[-44.01043693,-20.21568751],[-44.01047619,-20.21571021],[-44.01042889,-20.215693399999996],[-44.01041763,-20.215641589999993],[-44.01041405000001,-20.214896599999996],[-44.01039331,-20.214745849999996],[-44.01028542,-20.214390889999997],[-44.01006188,-20.214050649999997],[-44.00998106,-20.2139744],[-44.00958345,-20.213695060000003],[-44.00918261,-20.213467989999998],[-44.00875581,-20.213278489999997],[-44.00839774000001,-20.213039759999994],[-44.00816173,-20.213552569999997],[-44.00814728,-20.21372817],[-44.00816421,-20.21379017],[-44.0082499,-20.21392294],[-44.00844467,-20.21408176],[-44.00857692,-20.21425839],[-44.00881352,-20.214516870000008],[-44.00893355,-20.214905310000002],[-44.00900348,-20.21537132],[-44.00900417,-20.215893040000008],[-44.00888892,-20.216328540000003],[-44.00886333,-20.216373519999998],[-44.00881604,-20.21637726],[-44.00885773,-20.21636549],[-44.00887984,-20.216325660000003],[-44.00899462,-20.215892290000006],[-44.00899392,-20.215371959999995],[-44.00892419,-20.21490720999999],[-44.00880493,-20.21452109],[-44.00856938,-20.214263960000004],[-44.00843719,-20.214087420000002],[-44.00824212,-20.213928239999998],[-44.00815567,-20.213794299999996],[-44.00813772,-20.21372875],[-44.00815275,-20.213549410000006],[-44.00839003,-20.213033840000005],[-44.00794729,-20.212604569999996],[-44.00752555,-20.212308809999996],[-44.00752845,-20.212871750000005],[-44.00757959,-20.213257250000005],[-44.00752352,-20.21358658],[-44.00741085,-20.213957020000006],[-44.00739266,-20.21454784],[-44.00727736,-20.215006099999997],[-44.00707762,-20.21556942],[-44.00697441,-20.215990020000003],[-44.00691216,-20.216388979999998],[-44.00689444,-20.216434810000003],[-44.00684832,-20.216447300000002],[-44.00688693,-20.216428430000008],[-44.00690299,-20.216386340000003],[-44.006965,-20.21598834],[-44.00706840000001,-20.21556697],[-44.00726816,-20.215003619999997],[-44.00738323,-20.214546199999997],[-44.0074013,-20.21395619],[-44.00751417,-20.21358461],[-44.00757003,-20.213256450000003],[-44.0075189,-20.212872339999993],[-44.00751595,-20.212303180000003],[-44.00684291,-20.212114570000004],[-44.0060431,-20.212046010000005],[-44.0055635,-20.211942179999998],[-44.00542156,-20.211891719999997],[-44.00489441,-20.21163442],[-44.0051322,-20.2123864],[-44.00523742,-20.212787220000003],[-44.00517788,-20.213274790000007],[-44.00501889,-20.21360549],[-44.00495222,-20.21367185],[-44.0046597,-20.213817269999996],[-44.00419653,-20.21390271],[-44.00392518,-20.214009049999998],[-44.00383887,-20.2140721],[-44.00354526,-20.214353669999998],[-44.00326939,-20.21453813],[-44.003539,-20.214346819999996],[-44.00383251,-20.214065339999998],[-44.00392092,-20.214000929999997],[-44.00419423,-20.213893930000005],[-44.00465586000001,-20.213808960000005],[-44.00494706,-20.213664209999997],[-44.00501051,-20.21360105999999],[-44.00516846,-20.21327304999999],[-44.00522782,-20.212786999999988],[-44.00512297,-20.21238878],[-44.0048824,-20.211628030000007],[-44.00409895,-20.210963779999997],[-44.00375483,-20.210569559999993],[-44.00336314,-20.210233420000005],[-44.00308961,-20.209942119999997],[-44.00305598,-20.209835099999996],[-44.00284217,-20.20881763],[-44.00282665,-20.20824509],[-44.00273167,-20.207475350000003],[-44.0027097,-20.207399639999995],[-44.00257159,-20.207425489999995],[-44.00225741,-20.2074254],[-44.00182259000001,-20.207455219999993],[-44.00155686,-20.20753458999999],[-44.00139858,-20.207632360000005],[-44.00113151,-20.207887239999998],[-44.00069775,-20.208375560000004],[-44.00061169,-20.208425749999996],[-44.00035061,-20.208533929999994],[-44.00027267,-20.208604420000004],[-43.99994175,-20.209208589999996],[-43.99965668,-20.20993383],[-43.999511,-20.210139520000002],[-43.99939655,-20.21021877],[-43.99903474,-20.21036172000001],[-43.99884118,-20.210473499999996],[-43.99858791,-20.2106889],[-43.99843308,-20.210855209999988],[-43.99803027,-20.211012899999997],[-43.99786234,-20.211187269999996],[-43.99762897,-20.21137698],[-43.997642070000005,-20.211731759999992],[-43.99768516,-20.21192136000001],[-43.99794143,-20.212210190000004],[-43.99836375,-20.212560969999995],[-43.99842652,-20.2126427],[-43.99846523,-20.212737549999996],[-43.99848662,-20.21291427],[-43.99848735,-20.213514299999993],[-43.99846927,-20.21374358],[-43.99844694,-20.21386203],[-43.99841918,-20.213896929999997],[-43.99855022,-20.214078129999997],[-43.99884335,-20.214382609999994],[-43.99892743000001,-20.214517209999993],[-43.99901886,-20.214732069999997],[-43.99908376,-20.214824619999995],[-43.99918907,-20.214935559999997],[-43.99943213,-20.215128489999998],[-43.99951858,-20.215232059999995],[-43.99959213,-20.215374839999992],[-43.99977973,-20.215982339999993],[-43.99985201,-20.216143429999992],[-43.99995591,-20.216284030000004],[-44.00013753,-20.21644405],[-44.00051372,-20.216617290000002],[-44.00077871,-20.216684360000002],[-44.00091053,-20.216688319999996],[-44.00116432,-20.216648110000005],[-44.00163113,-20.216622030000003],[-44.00237274,-20.216639230000002],[-44.00257485,-20.21665829999999],[-44.00260555,-20.216690950000007],[-44.00257222,-20.216667129999994],[-44.00237214,-20.216648249999995],[-44.00163130000001,-20.216631070000005],[-44.0011654,-20.216657090000005],[-44.00091165,-20.216697299999993],[-44.00077785,-20.216693380000002],[-44.00050994,-20.216625599999993],[-44.00013153,-20.21645111999999],[-43.99994901,-20.216290299999997],[-43.99984339,-20.216147390000003],[-43.9997707,-20.215985370000002],[-43.99958319,-20.215378090000005],[-43.9995102,-20.21523645],[-43.99942559,-20.215135110000002],[-43.99918240000001,-20.214942050000005],[-43.99907617,-20.21483015],[-43.99901016,-20.21473586],[-43.99891883,-20.214521209999997],[-43.99883536,-20.214387599999995],[-43.9985427,-20.214083740000007],[-43.99841296,-20.213904350000004],[-43.99833501,-20.21399573],[-43.9981586,-20.21426941],[-43.99813438,-20.214386219999998],[-43.99815313,-20.214603899999997],[-43.99808256,-20.21482026],[-43.99806584,-20.21492215],[-43.99800726,-20.215023009999996],[-43.99794222,-20.215086569999997],[-43.99784511,-20.21514052],[-43.99758892,-20.215175840000004],[-43.99747056,-20.215215609999998],[-43.99736144632358,-20.215309266399554],[-43.99739614088666,-20.216312569648032],[-43.99746759,-20.216212629999998],[-43.99756355,-20.21594892],[-43.99757118,-20.215790910000003],[-43.9975463,-20.21552091],[-43.99761154000001,-20.215451080000005],[-43.99765712,-20.215435769999992],[-43.99790889,-20.215400310000003],[-43.99797152,-20.215378789999995],[-43.99812432000001,-20.215290270000004],[-43.99823334,-20.215182649999992],[-43.99833612,-20.21499918],[-43.99835838,-20.214880169999994],[-43.99843126,-20.21464962],[-43.99842928,-20.2143621],[-43.99860696,-20.21454658],[-43.99866484,-20.21463921999999],[-43.99876599,-20.21486967],[-43.99884969,-20.21498921],[-43.99897692,-20.215124770000003],[-43.99922178,-20.21532149],[-43.99926966,-20.21537883],[-43.99931887,-20.215474339999993],[-43.9995002,-20.21606158],[-43.99959918,-20.216281119999998],[-43.99974347,-20.21647296],[-43.99997704,-20.216674219999998],[-44.00041385,-20.216876179999996],[-44.00076889,-20.216959709999998],[-44.00094418,-20.216961999999995],[-44.00119719,-20.21692225],[-44.00163618,-20.216897729999996],[-44.00235461,-20.216914390000007],[-44.00246216,-20.216924539999994],[-44.00256841,-20.216957379999993],[-44.00263506,-20.216957380000007],[-44.00275948,-20.216914630000005],[-44.00285035,-20.216823719999994],[-44.00288832,-20.21670398],[-44.00286533,-20.216580900000004],[-44.002832,-20.216526410000004],[-44.0027589,-20.216455210000003],[-44.00264058,-20.216399109999998],[-44.00237949,-20.216372830000005],[-44.00163826,-20.216355639999996],[-44.0011479,-20.216382089999996],[-44.00089146,-20.21642114],[-44.00082029,-20.216419009999996],[-44.00061307,-20.216366560000004],[-44.00029927,-20.21622205],[-44.000170350000005,-20.216108459999997],[-44.00010042,-20.216013829999998],[-44.00004611,-20.215892789999998],[-43.99986268,-20.215298739999998],[-43.99976289,-20.215098549999997],[-43.99963785,-20.214945990000004],[-43.99938599,-20.214743719999998],[-43.99930776,-20.214661299999996],[-43.9992701,-20.2146076],[-43.99917175000001,-20.21438371],[-43.99906949,-20.214223079999996],[-43.9987341,-20.21385978],[-43.99876964,-20.21351382],[-43.99876891,-20.21291422],[-43.99874347,-20.212692109999995],[-43.99868623,-20.212538020000004],[-43.99856868,-20.212377660000005],[-43.99814402,-20.212023509999998],[-43.99793678,-20.21178995],[-43.99792361,-20.211707229999995],[-43.99791579,-20.21149548],[-43.99806781,-20.211370000000002],[-43.99819668,-20.21123624],[-43.99858831,-20.211077770000006],[-43.99878917,-20.21087639],[-43.99901074,-20.210687959999998],[-43.99916363,-20.210599660000003],[-43.99952354,-20.210456770000004],[-43.99967656,-20.210355679999992],[-43.99973728,-20.210298820000002],[-43.99991578000001,-20.21003959],[-44.0002004,-20.20931654],[-44.00050185,-20.208766170000008],[-44.0007383,-20.208663909999995],[-44.0008786,-20.20858024],[-44.00134035000001,-20.20806685],[-44.0015782,-20.207839849999996],[-44.00167897,-20.207777599999996],[-44.00187612,-20.207718719999995],[-44.00226761,-20.207691869999994],[-44.00247421,-20.207691929999992],[-44.0025448,-20.20826395],[-44.00256423,-20.20886419],[-44.00277905,-20.20988675],[-44.00283062,-20.210048159999992],[-44.00287959,-20.2101208],[-44.00315193,-20.21041021999999],[-44.00354991,-20.210753819999997],[-44.0038936,-20.211146609999993],[-44.00463465,-20.211776150000002],[-44.0048506,-20.21245906],[-44.00494154,-20.212804430000002],[-44.00489312,-20.213200919999988],[-44.00477349,-20.21344933],[-44.00456108,-20.213554919999996],[-44.00409696,-20.21364372],[-44.00379392,-20.213762939999995],[-44.00365999,-20.213854409999996],[-44.00335401,-20.214144370000003],[-44.00308868,-20.21432782],[-44.0030246,-20.21439991],[-44.0029905,-20.214488349999993],[-44.00298662,-20.214551159999996],[-44.00300962,-20.214642739999995],[-44.0030644,-20.21472137],[-44.00314437,-20.21477757],[-44.003207,-20.21479908999999],[-44.00330653,-20.214804559999997],[-44.00340204,-20.21477757],[-44.00372666,-20.214557840000005],[-44.00406818,-20.214241530000002],[-44.00427849,-20.214159110000004],[-44.00475565,-20.214067909999997],[-44.00510774,-20.213894259999993],[-44.00522334,-20.213789580000004],[-44.00527587,-20.213715759999996],[-44.00544813,-20.213351989999996],[-44.005519250000006,-20.212802459999995],[-44.00551126,-20.212721339999995],[-44.00535259,-20.212151949999992],[-44.00549867,-20.21220154],[-44.00601052,-20.212310699999993],[-44.00678946,-20.21237756],[-44.00723469,-20.21250232],[-44.00723709,-20.212887800000004],[-44.00728491,-20.21325184],[-44.00723816,-20.21352649],[-44.00712338,-20.21390926],[-44.0071019,-20.214511199999997],[-44.00699644,-20.214930389999992],[-44.00679334000001,-20.215507049999996],[-44.00669004,-20.215928030000004],[-44.00663683,-20.21626335],[-44.00658725,-20.216336130000002],[-44.00656813,-20.216396400000004],[-44.00656425,-20.216459210000007],[-44.00658725,-20.21655079],[-44.00662057,-20.216605280000007],[-44.00669309,-20.21666986],[-44.00678464,-20.216707139999997],[-44.00685084,-20.21671443999999],[-44.00701946,-20.216674249999997],[-44.00712089,-20.216593910000004],[-44.00718267,-20.216465170000003],[-44.00725202,-20.21603955999999],[-44.00734958,-20.21564195],[-44.00754499,-20.215090869999997],[-44.00767071,-20.21459385],[-44.00769199,-20.213998280000002],[-44.00780156,-20.213632649999997],[-44.00786145,-20.213272289999995],[-44.00781065,-20.21285407],[-44.00805566,-20.213091629999994],[-44.00789355,-20.213443880000003],[-44.00785961,-20.213573759999996],[-44.00785592,-20.213744499999997],[-44.00789617,-20.213899279999993],[-44.00801594,-20.214087710000005],[-44.00822662,-20.21426786],[-44.00835601,-20.214438430000005],[-44.00855116,-20.214651450000005],[-44.00864753,-20.21496347],[-44.00871166,-20.21539091],[-44.0087123,-20.215870309999996],[-44.00863296,-20.216169059999995],[-44.00857124,-20.216239050000002],[-44.00853715,-20.216327489999998],[-44.00854484,-20.216452259999997],[-44.00861105,-20.2165605],[-44.00866211,-20.21660095],[-44.00875365,-20.216638219999997],[-44.00889663,-20.216638550000003],[-44.00901856,-20.216596080000002],[-44.0091151,-20.216495429999995],[-44.0091609,-20.21639991],[-44.00925645,-20.21607545000001],[-44.00928254,-20.2159374],[-44.00928578,-20.2153713],[-44.00921158,-20.214859199999996],[-44.00907282,-20.214411549999998],[-44.00864957,-20.2138984],[-44.00846789,-20.213748539999994],[-44.0084295,-20.213689059999997],[-44.00843257,-20.213632799999996],[-44.00851835,-20.213446420000007],[-44.00862938,-20.21351675],[-44.00904957,-20.21370339],[-44.00942617,-20.213916739999988],[-44.00983921,-20.214217310000006],[-44.01002488,-20.21449992],[-44.01011611,-20.21480006000001],[-44.01013185,-20.214914439999998],[-44.01013583,-20.21565732],[-44.01016912000001,-20.215798010000004],[-44.0102239,-20.215876639999998],[-44.01027496,-20.21591708],[-44.01043905,-20.215976640000004],[-44.01053858,-20.21597117],[-44.01060121,-20.215949649999995],[-44.01070264,-20.215869309999995],[-44.01074739,-20.21578521],[-44.01075896,-20.21569173],[-44.01074739,-20.215629770000007],[-44.01070907,-20.215554900000004],[-44.01070542,-20.214880540000003],[-44.01067394,-20.214670200000004],[-44.01053844,-20.214253549999995],[-44.01029591000001,-20.213886],[-44.01018713,-20.213779300000002],[-44.00973383,-20.21345895],[-44.00933258,-20.213231639999997],[-44.00890322,-20.2130395],[-44.00858292,-20.21282594],[-44.00813497,-20.212393570000003],[-44.00764955,-20.212057639999994],[-44.00691002,-20.211846439999995],[-44.00608912,-20.211773329999996],[-44.00564793,-20.21167781999999],[-44.00554042,-20.211639590000004],[-44.00505109000001,-20.21140074],[-44.00431024,-20.21077263],[-44.0039671,-20.21038047],[-44.00357098,-20.21003946],[-44.00335123,-20.209805940000003],[-44.00313326,-20.208787089999998],[-44.00311656000001,-20.20821341],[-44.00302059,-20.20743726],[-44.00329997,-20.20699727],[-44.00341785,-20.20690441],[-44.00358954000001,-20.206812529999993],[-44.00384819,-20.2067553],[-44.00398193,-20.206684949999993],[-44.00404601,-20.20661286],[-44.00419191,-20.206342469999996],[-44.00433143,-20.20614632],[-44.00444392,-20.206027009999993],[-44.00463651,-20.205879639999996],[-44.00500323,-20.205773670000006],[-44.00518963,-20.205663620000003],[-44.00528355,-20.20553717],[-44.0053188,-20.20537922999999],[-44.00532198,-20.205068400000002],[-44.00529777,-20.20492724],[-44.00524698,-20.204782300000005],[-44.00524331,-20.20458651999999],[-44.00526466,-20.20447887],[-44.00532273,-20.20437556],[-44.00551713,-20.204165090000004],[-44.00562407,-20.204096319999994],[-44.00590323000001,-20.20400381],[-44.00619207,-20.20397189999999],[-44.00639391,-20.20392796],[-44.00672602000001,-20.20376878],[-44.00684116,-20.203680840000004],[-44.00689793,-20.20362004],[-44.00742265,-20.20285075],[-44.00748796,-20.20264735],[-44.00751165,-20.20245763999999],[-44.00762658000001,-20.20233546],[-44.00778672,-20.202215820000003],[-44.0079894,-20.202100799999997],[-44.00804913,-20.20205158],[-44.00797418,-20.202184469999995],[-44.00787525,-20.202427469999996],[-44.00781704,-20.20262385],[-44.00779317,-20.202815259999998],[-44.00781027,-20.20313159999999],[-44.0078605,-20.20336143],[-44.00796626,-20.20362245],[-44.00809907,-20.203838989999998],[-44.00811679,-20.203936579999993],[-44.00812032,-20.204323730000006],[-44.00800965,-20.20493737],[-44.00805224,-20.20553468],[-44.00801515,-20.206455110000007],[-44.00803001,-20.206882530000005],[-44.00815579,-20.207335659999995],[-44.00843659,-20.20768761],[-44.0085427,-20.207940349999998],[-44.00859748,-20.208018980000002],[-44.00867744,-20.208075179999994],[-44.00880628,-20.208104009999996],[-44.00893511,-20.208075180000005],[-44.00903653,-20.207994839999998],[-44.00908897,-20.207880080000006],[-44.00908127,-20.2077553],[-44.00893672,-20.207415710000003],[-44.00868243,-20.20710577],[-44.00859878,-20.20679767],[-44.0085892,-20.206466859999992],[-44.00862652,-20.20554051],[-44.00858503,-20.204966829999993],[-44.00869415,-20.20436160999999],[-44.00869019,-20.203896609999997],[-44.00863666,-20.203636770000003],[-44.00848915,-20.20339674],[-44.0084113,-20.2032058],[-44.00838214,-20.20307917],[-44.00836774,-20.202839280000003],[-44.00838206,-20.202724600000003],[-44.00842336,-20.202589129999996],[-44.00849877,-20.202405840000008],[-44.00864899,-20.202144019999995],[-44.00869416,-20.202081179999993],[-44.00906736809366,-20.201693524191057],[-44.008863417388746,-20.201509180190182],[-44.00847183,-20.201915930000002]],[[-44.00817837,-20.20143468],[-44.00846381,-20.201514640000003],[-44.00823288,-20.201757860000004],[-44.00824156,-20.201625809999992],[-44.00817837,-20.20143468]]],[[[-43.997361565359945,-20.21529403470511],[-43.99746657,-20.215207359999997],[-43.99758616,-20.21516718],[-43.99784107,-20.21513229],[-43.99793681,-20.2150791],[-43.99799919,-20.21501813],[-43.99805651,-20.21491998],[-43.99807322,-20.21481823],[-43.99814379,-20.21460183],[-43.9981248,-20.21438676],[-43.99814937,-20.214266879999997],[-43.99832717,-20.21399053],[-43.99843783,-20.213858920000003],[-43.99847779,-20.21351397],[-43.99847706,-20.21291479],[-43.99845608,-20.21274025],[-43.9984184,-20.21264752],[-43.99835632,-20.212566679999995],[-43.99793458,-20.212216499999993],[-43.99767648,-20.21192524000001],[-43.99763253,-20.211732590000008],[-43.9976197,-20.211385219999997],[-43.997482965428844,-20.211509077443356],[-43.997404149659964,-20.211998470835596],[-43.9974507,-20.212085479999992],[-43.9977292,-20.21239931],[-43.99816811,-20.2127756],[-43.9981948,-20.21293001],[-43.99819549,-20.21350422],[-43.99817212,-20.21374741],[-43.99808585,-20.213852269999997],[-43.99787906,-20.214190030000005],[-43.99784295,-20.21437035],[-43.9978626,-20.21455839],[-43.9977852,-20.214832610000002],[-43.99774573,-20.214876060000005],[-43.99752156,-20.214907759999996],[-43.997364181026974,-20.214959335285513],[-43.997361565359945,-20.21529403470511]]],[[[-43.997485371980865,-20.211494377325728],[-43.997855660000006,-20.2111808],[-43.99802423,-20.211005780000004],[-43.9984277,-20.210847600000005],[-43.99858109,-20.21068255],[-43.99883545,-20.21046625],[-43.99903037,-20.210353669999996],[-43.99939233,-20.210210649999993],[-43.99950351,-20.21013383],[-43.9996479,-20.20993019],[-43.99993299,-20.209204939999996],[-44.00026454,-20.20859961],[-44.00034599,-20.208525979999997],[-44.00060724,-20.20841773999999],[-44.00069092,-20.20836919],[-44.00112443,-20.20788115],[-44.001386360000005,-20.20763118],[-44.00102573,-20.207539080000007],[-44.00091578,-20.207477019999992],[-44.00086033,-20.207400459999988],[-44.00080726,-20.207200669999995],[-44.0006951,-20.206971479999996],[-44.00061609,-20.20686492],[-44.00046064,-20.206735479999992],[-44.00038523,-20.206717339999997],[-44.00023117,-20.206723929999992],[-43.99987992,-20.206804439999996],[-43.99972149,-20.206826659999997],[-43.99958962,-20.20682149],[-43.99945674,-20.20679683],[-43.99937755,-20.206763030000005],[-43.99931531,-20.206709570000008],[-43.99907326,-20.20637158],[-43.99895117,-20.206252280000005],[-43.99876484,-20.206156819999993],[-43.99870654742461,-20.206151799280562],[-43.998528161116106,-20.20643267635396],[-43.99862124,-20.206412030000006],[-43.9986813,-20.206417199999994],[-43.99877834,-20.206466919999997],[-43.99885315,-20.20654001],[-43.99910973,-20.20689219],[-43.99922303,-20.206986090000004],[-43.99936052,-20.207047350000007],[-43.99955685,-20.20708615999999],[-43.99975411,-20.207091349999995],[-44.00033506,-20.20698623],[-44.00040413,-20.207043739999996],[-44.00044941,-20.20710481],[-44.00053991,-20.207289730000003],[-44.00058997,-20.207477079999997],[-44.0006285,-20.207553],[-44.00073508,-20.20768188],[-44.00086467,-20.20775886999999],[-44.00050407,-20.20816482],[-44.00019017,-20.20830371],[-44.00003853,-20.208439859999995],[-43.99967379,-20.209099430000002],[-43.99939483,-20.209808059999997],[-43.99929663,-20.209946560000002],[-43.99925256,-20.209976999999995],[-43.99890372,-20.21011553],[-43.99868057,-20.210243459999997],[-43.99839236,-20.210484379999993],[-43.99825886,-20.210625209999996],[-43.99791752,-20.210758790000003],[-43.99784293,-20.210801530000005],[-43.99756479004646,-20.2110655877446],[-43.997485371980865,-20.211494377325728]]],[[[-43.99876669,-20.20614791],[-43.99895754,-20.20624551],[-43.99908095,-20.2063662],[-43.99932217,-20.206703250000004],[-43.99938343,-20.206755859999998],[-43.99946016,-20.206788369999998],[-43.99959074,-20.20681250999999],[-43.99972053,-20.20681765999999],[-43.99987809,-20.206795570000008],[-44.00023027,-20.20671493],[-44.00038551,-20.206708279999994],[-44.00046466,-20.206727159999996],[-44.00062285,-20.206858499999996],[-44.00070341000001,-20.206966969999996],[-44.000816130000004,-20.20719727],[-44.0008694,-20.20739747],[-44.00092294,-20.20747092],[-44.00102886,-20.20753051999999],[-44.00139471,-20.20762395],[-44.00155334000001,-20.20752616],[-44.00182133,-20.20744625],[-44.00225706,-20.207416369999997],[-44.00257112,-20.207416449999997],[-44.00271012,-20.207390349999997],[-44.00306125,-20.2068374],[-44.00312728,-20.206762470000005],[-44.00326027,-20.206672059999995],[-44.00346511,-20.206562450000003],[-44.00355728,-20.206529450000005],[-44.00374844,-20.20649634],[-44.00379384,-20.20647403],[-44.00393974,-20.206202799999996],[-44.00410023,-20.205977170000004],[-44.00424172,-20.205827110000005],[-44.00448171,-20.20564364],[-44.004680560000004,-20.20557475],[-44.00396816,-20.20532895999999],[-44.00375891,-20.205210380000004],[-44.00357761,-20.205083959999985],[-44.00324779,-20.20471365],[-44.00316775,-20.204543659999995],[-44.00309632,-20.20430137],[-44.00302265,-20.204141739999997],[-44.00270789,-20.20378105],[-44.00241302,-20.203543899999993],[-44.00203387,-20.20327254],[-44.0018206,-20.20316952],[-44.00166782,-20.2031353],[-44.00159911,-20.203097720000006],[-44.00126268880898,-20.202675485531245],[-44.00104632605806,-20.202847248605938],[-44.00139284,-20.203279839999993],[-44.00154009,-20.203373059999997],[-44.00172233,-20.203421369999997],[-44.00188316,-20.203499069999996],[-44.00223609,-20.203751659999995],[-44.00250588,-20.203968629999995],[-44.00277966,-20.204282369999994],[-44.00282967,-20.204390739999997],[-44.00290868,-20.204649469999996],[-44.00300293,-20.204846320000005],[-44.00327418,-20.205170969999998],[-44.00339623,-20.205288139999997],[-44.00361375,-20.20543892],[-44.00384097,-20.205566879999996],[-44.00404291,-20.205638460000003],[-44.0038657,-20.205828869999998],[-44.00369527,-20.2060696],[-44.00359687,-20.20625166],[-44.00349237,-20.206270119999996],[-44.00333832,-20.20632438],[-44.0030953,-20.206455820000002],[-44.00292216,-20.2065794],[-44.00281894,-20.206700690000005],[-44.002533660000005,-20.207149969999993],[-44.00223644,-20.20715060999999],[-44.00178835,-20.207181600000002],[-44.00145661,-20.207275829999997],[-44.00134615,-20.2073355],[-44.00112819000001,-20.2072762],[-44.00107537,-20.207091829999985],[-44.00093443,-20.206813829999998],[-44.00082848,-20.206675929999996],[-44.00059177,-20.206489210000004],[-44.00045193,-20.20644911999999],[-44.00037273,-20.206442089999996],[-44.00019716,-20.20645028999999],[-43.999705600000006,-20.206550370000002],[-43.99954619,-20.20653275],[-43.99930724,-20.206206899999998],[-43.99913861,-20.206041059999993],[-43.99889509,-20.20591024],[-43.99879958,-20.205883249999992],[-43.998709067674454,-20.20614294726286],[-43.99876669,-20.20614791]]],[[[-44.00160487,-20.20309043],[-44.00167072,-20.20312666],[-44.00182445,-20.20316123],[-44.00203897,-20.203264879999992],[-44.00241901,-20.20353686],[-44.00271473,-20.203774699999993],[-44.003031150000005,-20.204137549999995],[-44.00310534,-20.204298339999998],[-44.00317677,-20.204540610000006],[-44.00325564,-20.20470846],[-44.00358389,-20.205077129999992],[-44.00376422,-20.205202870000004],[-44.00397188,-20.20532063],[-44.00469694,-20.205570790000003],[-44.00481033,-20.205549970000003],[-44.00497765,-20.20547416],[-44.00501547,-20.205427959999998],[-44.00503063,-20.205084469999992],[-44.00501811,-20.20500600999999],[-44.00495597,-20.20482848],[-44.00495101,-20.204563829999998],[-44.00498634,-20.204386260000007],[-44.00508105,-20.204218009999998],[-44.00532142,-20.203957770000002],[-44.00549195,-20.203848110000003],[-44.00583664,-20.203733890000006],[-44.0061579,-20.2036983],[-44.0062941,-20.20366904],[-44.00656564,-20.20353858],[-44.00665303,-20.203470219999996],[-44.00716962,-20.202713429999996],[-44.00720052,-20.202599609999996],[-44.00721036,-20.202427570000005],[-44.00726016,-20.20231009],[-44.0074254,-20.202134449999996],[-44.00762044,-20.20198872],[-44.00782862,-20.20187085],[-44.00793186,-20.201766290000002],[-44.0079539,-20.20167315],[-44.00789258,-20.20150876],[-44.007881940000004,-20.201398930000007],[-44.00791016,-20.20129023999999],[-44.00796384,-20.201213999999997],[-44.00805068,-20.201160730000005],[-44.0081837,-20.201148989999997],[-44.00851204386679,-20.20124077844887],[-44.0079583340946,-20.200909139299938],[-44.00778331,-20.201008919999992],[-44.00765124,-20.201184000000005],[-44.00760402,-20.20135147],[-44.00761441,-20.20155430999999],[-44.007650070000004,-20.20166088],[-44.00746542,-20.201766029999998],[-44.00724417,-20.20193015],[-44.00703349,-20.20215126999999],[-44.00694015,-20.202350100000004],[-44.00690756,-20.202605409999993],[-44.00643937,-20.203291290000003],[-44.0061973,-20.203416549999996],[-44.00577202000001,-20.203474470000003],[-44.00539536,-20.20359773],[-44.00510867,-20.203782650000004],[-44.00485441,-20.20405916],[-44.004737,-20.204261359999997],[-44.00470842,-20.204338509999996],[-44.00466923,-20.204547999999996],[-44.00467374,-20.20483319],[-44.00474813,-20.205102989999997],[-44.00474603,-20.205287159999997],[-44.00472999,-20.205293259999998],[-44.0040941,-20.205079090000005],[-44.00376935,-20.204875169999998],[-44.00349882,-20.20456883],[-44.00344317,-20.204450380000004],[-44.00336441,-20.204192520000003],[-44.00327536,-20.204003860000004],[-44.00292011,-20.20359191],[-44.00259587,-20.203329179999994],[-44.00219416,-20.203042300000003],[-44.00192045,-20.20291060999999],[-44.00179008,-20.202879530000004],[-44.00147373014019,-20.20248201392453],[-44.001385998653234,-20.20258449135194],[-44.00127013367769,-20.20266982080645],[-44.00160487,-20.20309043]]],[[[-44.00731665,-20.200905759999998],[-44.00719589,-20.20095984],[-44.00709472,-20.200975],[-44.00691397,-20.20095173],[-44.00680865,-20.20091712],[-44.00635546,-20.20063109],[-44.00618505,-20.200490370000004],[-44.00609537358551,-20.200381453032584],[-44.00576057410129,-20.200361383656634],[-44.00579518,-20.200446839999994],[-44.00596147,-20.200653159999998],[-44.006173860000004,-20.200835089999998],[-44.0066525,-20.20113926],[-44.00684842,-20.201210939999996],[-44.00709398,-20.201241529999994],[-44.00729203,-20.2012104],[-44.00749774,-20.201110180000008],[-44.00770624,-20.200911359999996],[-44.00780419,-20.200869939999997],[-44.007932562945484,-20.200896836304075],[-44.00751888891808,-20.20071114465913],[-44.00731665,-20.200905759999998]]],[[[-44.0160716,-20.204949409999998],[-44.01621095,-20.205033629999996],[-44.01639616,-20.20511029],[-44.01679845259426,-20.20518107802442],[-44.01629147283788,-20.20491903794784],[-44.01576417622629,-20.204727343661848],[-44.0160716,-20.204949409999998]]]]}}]}