{"type":"FeatureCollection","barch":{"title":"curvas_de_nivel","geometryBasis":"gleba-georreferenciada.geojson","source":"https://rigeo.sgb.gov.br/handle/doc/23395","sourceScale":50000,"displaySimplificationM":1,"contextBufferM":500},"features":[{"type":"Feature","id":285,"properties":{"fid":285,"UF":"MG","MUN":"BRUMADINHO","COTAS":1000,"TIPO":"Curva de nível","FONTE":"Shapefile de polilinhas das curvas de nível geradas automaticamente através do MDE."},"geometry":{"type":"LineString","coordinates":[[-44.00940122146894,-20.218698541666374],[-44.00947845467324,-20.218743232678875],[-44.009590744083766,-20.218775142583862],[-44.009703033494276,-20.218775582497365],[-44.00981532290479,-20.218751690072796],[-44.00994792582401,-20.218698541666374],[-44.01003990172582,-20.218614058054424],[-44.01006553609712,-20.218586252255857],[-44.01008822747338,-20.21847396284534],[-44.01003990172582,-20.218428603092324],[-44.009927612315316,-20.218399319019905],[-44.00981532290479,-20.218408106786697],[-44.009590744083766,-20.21846662605589],[-44.00940761977629,-20.21858625225586],[-44.00940122146894,-20.218698541666374]]}},{"type":"Feature","id":286,"properties":{"fid":286,"UF":"MG","MUN":"BRUMADINHO","COTAS":1000,"TIPO":"Curva de nível","FONTE":"Shapefile de polilinhas das curvas de nível geradas automaticamente através do MDE."},"geometry":{"type":"LineString","coordinates":[[-44.018962412804605,-20.21586615617163],[-44.01804161618933,-20.216340464045565],[-44.01764902682692,-20.216565042866588],[-44.01749874599245,-20.21667733227711],[-44.017383455690585,-20.216789621687628],[-44.01729879789665,-20.216901911098144],[-44.01724032513836,-20.217014200508654],[-44.0172051328418,-20.217126489919174],[-44.01719089807511,-20.2173510687402],[-44.01723433836234,-20.21757564756123],[-44.017319165510756,-20.217800226382256],[-44.01743843176774,-20.218024805203296],[-44.01760040632421,-20.21824938402431],[-44.017787871051354,-20.21844345066984],[-44.017966910612124,-20.218589121622248]]}},{"type":"Feature","id":291,"properties":{"fid":291,"UF":"MG","MUN":"BRUMADINHO","COTAS":980,"TIPO":"Curva de nível","FONTE":"Shapefile de polilinhas das curvas de nível geradas automaticamente através do MDE."},"geometry":{"type":"LineString","coordinates":[[-44.0190663426957,-20.214482957396793],[-44.01823702869342,-20.214983424895557],[-44.01790016046186,-20.21516706149234],[-44.017451002819804,-20.215365505807906],[-44.01677726635672,-20.21559634918984],[-44.01644039812518,-20.215731848178056],[-44.016129937911174,-20.215891306403503],[-44.01554208284106,-20.216248064516005],[-44.01520521460951,-20.21638465429816],[-44.014980635788476,-20.216428869941147],[-44.01475605696745,-20.216425080937075],[-44.01453147814642,-20.216373934332662],[-44.01410850045631,-20.21622817463504],[-44.01397003109384,-20.21619513090801],[-44.013745452272815,-20.2161687574358],[-44.01352087345178,-20.216178183427647],[-44.01239797934663,-20.216381531262396],[-44.011275085241486,-20.21666304630514],[-44.010152191136335,-20.216888950218774],[-44.008917007620674,-20.21721042250987],[-44.008580139389124,-20.217283283253987],[-44.00801869233655,-20.217347632287847],[-44.00712037705243,-20.21737422418434],[-44.00678350882089,-20.217396937917723],[-44.00599748294728,-20.217519108519188],[-44.00577290412625,-20.217566592891703],[-44.00554832530522,-20.217639893844744],[-44.005430947119606,-20.217687936971743],[-44.00521145707368,-20.217817877272978],[-44.00509916766316,-20.217915831839427],[-44.004986878252645,-20.218065028799117],[-44.00490766616118,-20.21824938402432],[-44.004883041574814,-20.21836167343483],[-44.0048731596408,-20.218473962845334],[-44.004890178845685,-20.218698541666374],[-44.004950447130284,-20.218923120487407],[-44.00505330254024,-20.219147699308436],[-44.005209804319136,-20.21937227812947],[-44.005323746484194,-20.219487587712674],[-44.005467108501186,-20.2195968569505],[-44.00566061471574,-20.21970541182652],[-44.0059751052719,-20.219821435771525],[-44.00667121941037,-20.219994831082445],[-44.007486783948664,-20.22027059341358],[-44.007912806829125,-20.220382882824108],[-44.00824327115758,-20.220440725137262],[-44.008580139389124,-20.220468511350436],[-44.008917007620674,-20.22046812716735],[-44.00925387585222,-20.220442818695197],[-44.009590744083766,-20.220379033745147],[-44.009927612315316,-20.22027639982472],[-44.01037676995737,-20.22009001406382],[-44.01071363818891,-20.219918290084713],[-44.01093821700994,-20.21976885000502],[-44.01128333846204,-20.219484567539986],[-44.012622558167664,-20.218179838800886],[-44.012959426399206,-20.217897426155382],[-44.013408584041265,-20.217611426506604],[-44.01397003109384,-20.217330986496272],[-44.01408232050436,-20.2172861145515],[-44.01430689932539,-20.217226709467674],[-44.01453147814642,-20.21721302307818],[-44.01475605696745,-20.2172599635311],[-44.014868346377966,-20.2173027676465],[-44.01509292519899,-20.217419516305203],[-44.015429793430535,-20.217656171690102],[-44.01565437225157,-20.217842977867065],[-44.01599124048311,-20.21814582734347],[-44.01632810871466,-20.21848402861216],[-44.016718557941324,-20.218923120487407],[-44.017119537036685,-20.219424472322213]]}},{"type":"Feature","id":306,"properties":{"fid":306,"UF":"MG","MUN":"BRUMADINHO","COTAS":960,"TIPO":"Curva de nível","FONTE":"Shapefile de polilinhas das curvas de nível geradas automaticamente através do MDE."},"geometry":{"type":"LineString","coordinates":[[-44.019892522536374,-20.212811974830004],[-44.019472212209074,-20.21293765311256],[-44.01913534397754,-20.213100513732382],[-44.0189107651565,-20.213248278713195],[-44.01809840946633,-20.21387009701423],[-44.01767558164084,-20.214167698420074],[-44.017338713409295,-20.21434987020933],[-44.017001845177745,-20.214471088985142],[-44.016552687535686,-20.21457222221517],[-44.01599124048311,-20.21465868613134],[-44.01565437225157,-20.214680237193473],[-44.015317504020025,-20.21466274442807],[-44.01509292519899,-20.214622782084312],[-44.014868346377966,-20.214554845525917],[-44.01464376755693,-20.21446341138193],[-44.01408232050436,-20.214196725644598],[-44.0136331628623,-20.214026570055662],[-44.013296294630756,-20.213954073187253],[-44.01307171580972,-20.21395851967993],[-44.012959426399206,-20.213983483577962],[-44.0128471369887,-20.214029123460246],[-44.01273484757818,-20.21409612771596],[-44.01259777246263,-20.214206965245783],[-44.01239797934663,-20.214428137807506],[-44.01201112441603,-20.21499299111938],[-44.01179814301513,-20.21521756994042],[-44.01153291940344,-20.215442148761447],[-44.01123177761239,-20.21566672758248],[-44.01105050642045,-20.215782930441133],[-44.01082592759943,-20.21590398751106],[-44.010489059367885,-20.21604369265458],[-44.01003990172582,-20.216183042488208],[-44.00925387585222,-20.216395012379884],[-44.00869242879964,-20.21651726453397],[-44.0083555605681,-20.216564072156793],[-44.00779411351552,-20.216581047279824],[-44.00667121941037,-20.21654601713814],[-44.00599748294728,-20.216548295449908],[-44.004874588842135,-20.2166008079651],[-44.00453772061059,-20.216634140895327],[-44.00431314178956,-20.216673401651352],[-44.004088562968526,-20.216740712646043],[-44.00397627355802,-20.21678944476103],[-44.003751694736984,-20.216944276883776],[-44.00360063456327,-20.217126489919174],[-44.00352711591595,-20.21727423590484],[-44.00346885959746,-20.217463358150713],[-44.00343574736155,-20.217687936971743],[-44.003432195958894,-20.217912515792772],[-44.0034568605394,-20.2181370946138],[-44.00354454580373,-20.218473962845348],[-44.00368495437,-20.218810831076897],[-44.00414132052179,-20.219709146361016],[-44.00431314178956,-20.220032475778403],[-44.0044646510975,-20.220270593413584],[-44.00464506184969,-20.220495172234617],[-44.00476229943162,-20.220609434210154],[-44.00490284710438,-20.220719751055647],[-44.00509916766316,-20.220844555989142],[-44.005323746484194,-20.22095525050116],[-44.00566061471574,-20.22108224197264],[-44.00622206176831,-20.221216865547902],[-44.00801869233655,-20.221507522264098],[-44.00880471821016,-20.22167784486937],[-44.009029297031184,-20.221712188698437],[-44.00925387585222,-20.221722036692167],[-44.00936616526273,-20.22171336267932],[-44.009590744083766,-20.221659642737993],[-44.00981532290479,-20.2215596462129],[-44.01003990172582,-20.221430228237978],[-44.01105050642045,-20.220703874890706],[-44.011387374652,-20.220429810459017],[-44.012173400525604,-20.219726591075936],[-44.01239797934663,-20.2195503912007],[-44.01273484757818,-20.21932097494947],[-44.01307171580972,-20.219129360503228],[-44.01352087345178,-20.21892934443633],[-44.01385774168333,-20.218824615033544],[-44.014194609914874,-20.218763711925586],[-44.01453147814642,-20.21874418698578],[-44.014868346377966,-20.21877225928702],[-44.01520521460951,-20.218864515443684],[-44.015429793430535,-20.21896708865627],[-44.01565437225157,-20.219109263032482],[-44.015878951072594,-20.219294266915142],[-44.01610352989363,-20.219525296846356],[-44.01639170353456,-20.21988234127715]]}},{"type":"Feature","id":321,"properties":{"fid":321,"UF":"MG","MUN":"BRUMADINHO","COTAS":940,"TIPO":"Curva de nível","FONTE":"Shapefile de polilinhas das curvas de nível geradas automaticamente através do MDE."},"geometry":{"type":"MultiLineString","coordinates":[[[-44.020281786155714,-20.211258011864583],[-44.01969679103011,-20.211379872415073],[-44.01935992279856,-20.211466433724503],[-44.019023054567015,-20.21158847880043],[-44.01879847574599,-20.21169910437785],[-44.018573896924956,-20.21184236450122],[-44.01834931810392,-20.212017925388512],[-44.0181247392829,-20.21222633649979],[-44.01752235293984,-20.21285949231961],[-44.017338713409295,-20.213021364914827],[-44.01711413458826,-20.21318482622593],[-44.01688955576723,-20.213313236269055],[-44.016552687535686,-20.21345854559267],[-44.01621581930414,-20.213567253960303],[-44.015878951072594,-20.213628852210253],[-44.01565437225157,-20.213635402275404],[-44.015429793430535,-20.21361012202407],[-44.01509292519899,-20.213509864739876],[-44.01475605696745,-20.213341034312265],[-44.013408584041265,-20.212474367377684],[-44.0128471369887,-20.212156097413544],[-44.01239797934663,-20.21196937658596],[-44.012173400525604,-20.21190446995618],[-44.01194882170457,-20.211872514240735],[-44.011724242883545,-20.21188839096958],[-44.011532664370506,-20.21196117703548],[-44.01138830276199,-20.212073466445997],[-44.011275085241486,-20.212236140916627],[-44.011208187129476,-20.21241033467755],[-44.011150082361354,-20.212747202909085],[-44.01105713872102,-20.21420696524578],[-44.01100818277937,-20.214431544066812],[-44.010919946886474,-20.21465612288784],[-44.01077980050597,-20.21488070170887],[-44.01057008973276,-20.2151052805299],[-44.01037676995737,-20.215252160070733],[-44.01003990172582,-20.2154323511832],[-44.009703033494276,-20.215562941674136],[-44.0091415864417,-20.215732942196695],[-44.00880471821016,-20.215804268248675],[-44.0083555605681,-20.21585805773587],[-44.00790640292604,-20.215875281315647],[-44.007232666462954,-20.21586295446437],[-44.00588519353677,-20.21575848684043],[-44.00509916766316,-20.215722955941736],[-44.00420085237904,-20.21564821604498],[-44.003639405326474,-20.21563255314212],[-44.003302537094925,-20.215649216663714],[-44.00296566886338,-20.21570494533158],[-44.00276191216017,-20.21577901699299],[-44.00262880063183,-20.21585049402819],[-44.00242789073556,-20.21600359581402],[-44.00229193240029,-20.216156699210902],[-44.00217291937798,-20.21634046404556],[-44.00207656774526,-20.216565042866588],[-44.002023234733684,-20.21678962168762],[-44.00199872246278,-20.217126489919174],[-44.00201045186674,-20.21746335815071],[-44.00205017121878,-20.21780022638225],[-44.002127854339236,-20.21813709461381],[-44.002287814504825,-20.218586252255864],[-44.002460715407636,-20.218923120487414],[-44.002610710511334,-20.21914769930844],[-44.00307795827389,-20.219748460985443],[-44.00331975013131,-20.22015830400307],[-44.003579054155594,-20.220719751055643],[-44.004088562968526,-20.222024712634187],[-44.00428422212125,-20.222404092213374],[-44.004425431200076,-20.222614157603616],[-44.00453772061059,-20.22274583469252],[-44.0046500100211,-20.22284865157397],[-44.00482672932535,-20.222965539265942],[-44.00509916766316,-20.223089914187327],[-44.00543603589471,-20.223183620046402],[-44.00566061471574,-20.223217305374316],[-44.00599748294728,-20.22321805596375],[-44.006558929999855,-20.22315276667961],[-44.007008087641914,-20.223076405479343],[-44.007232666462954,-20.2230659505512],[-44.00745724528397,-20.223092738606752],[-44.00756953469449,-20.223129936098232],[-44.007681824105006,-20.22318858181847],[-44.00779891847125,-20.22328956975245]],[[-44.01141567423354,-20.22279901488697],[-44.01133112152708,-20.222404092213374],[-44.01132505118505,-20.222179513392334],[-44.01133677211031,-20.222067223981828],[-44.01135889074719,-20.22195493457131],[-44.01143495403837,-20.221730355750285],[-44.01155278912412,-20.22150577692925],[-44.01187864125445,-20.221056619287193],[-44.012279123794954,-20.220607461645137],[-44.012622558167664,-20.220299608261534],[-44.012959426399206,-20.2200868499153],[-44.013296294630756,-20.219931364892336],[-44.013745452272815,-20.219788184803356],[-44.01397003109384,-20.219741694311505],[-44.014194609914874,-20.219715647106852],[-44.01453147814642,-20.219727808006436],[-44.014868346377966,-20.219802698635124],[-44.01520521460951,-20.219951410937448],[-44.01554208284106,-20.220190008008046],[-44.01584485168477,-20.220475792358812]]]}},{"type":"Feature","id":331,"properties":{"fid":331,"UF":"MG","MUN":"BRUMADINHO","COTAS":920,"TIPO":"Curva de nível","FONTE":"Shapefile de polilinhas das curvas de nível geradas automaticamente através do MDE."},"geometry":{"type":"MultiLineString","coordinates":[[[-44.02022188595586,-20.209874174185217],[-44.019472212209074,-20.210083207739054],[-44.01854102003491,-20.21027683587776],[-44.01834931810392,-20.21033663440901],[-44.0181247392829,-20.210440793544237],[-44.01801244987238,-20.210510612504443],[-44.017787871051354,-20.210692617780808],[-44.017001845177745,-20.21151568297663],[-44.0166649769462,-20.211820409495882],[-44.01632810871466,-20.212086246010983],[-44.01610352989363,-20.212225571337214],[-44.015878951072594,-20.21232048891726],[-44.01565437225157,-20.212369928151844],[-44.015429793430535,-20.21237359563497],[-44.015317504020025,-20.212358205997642],[-44.01509292519899,-20.212296077283032],[-44.014868346377966,-20.212199073966367],[-44.01464376755693,-20.212074513700784],[-44.01385774168333,-20.2115611420106],[-44.01307171580972,-20.210938931813367],[-44.0128471369887,-20.210790631691545],[-44.012622558167664,-20.21067303694379],[-44.01228568993613,-20.21054659374262],[-44.01183653229406,-20.21043638969622],[-44.011387374652,-20.210369373535077],[-44.010489059367885,-20.21030195533401],[-44.010152191136335,-20.21022561232365],[-44.009590744083766,-20.2099976488787],[-44.00936616526273,-20.209888154544718],[-44.0091415864417,-20.20971963256708],[-44.008580139389124,-20.209191653466846],[-44.0083555605681,-20.209028742545602],[-44.008130981747065,-20.208902410430262],[-44.00790640292604,-20.20880978070087],[-44.007681824105006,-20.20875779511005],[-44.00745724528397,-20.208755563729383],[-44.007344955873464,-20.208779649720586],[-44.00726439034665,-20.208817073541066],[-44.00716065600145,-20.20892936295158],[-44.00712507409968,-20.209041652362092],[-44.0071296133617,-20.20915394177261],[-44.00720533444113,-20.20937852059363],[-44.007409144004576,-20.209715388825185],[-44.007596494104035,-20.20993996764621],[-44.00790640292604,-20.210236484044984],[-44.00880471821016,-20.21092800933565],[-44.009029297031184,-20.21112045989223],[-44.0091415864417,-20.21124101454737],[-44.00925387585222,-20.2113915902655],[-44.00936616526273,-20.211580323904446],[-44.00943807546913,-20.21173659821445],[-44.009590744083766,-20.212174666710492],[-44.009703033494276,-20.212619525997276],[-44.009809561344014,-20.213196360551144],[-44.00986975040731,-20.213645518193214],[-44.00987924030835,-20.213870097014233],[-44.009852173470364,-20.21409467583526],[-44.00981675791323,-20.21420696524579],[-44.00975983885084,-20.2143192546563],[-44.00967905793114,-20.21443154406681],[-44.00947845467324,-20.21461140188846],[-44.00925387585222,-20.214752846162828],[-44.009029297031184,-20.214858281628285],[-44.00880471821016,-20.214935870857957],[-44.00856541696052,-20.214992991119384],[-44.008130981747065,-20.215053366950432],[-44.007681824105006,-20.215078588295214],[-44.007232666462954,-20.21508020135328],[-44.006895798231405,-20.21506333113078],[-44.006446640589346,-20.21501692528053],[-44.004986878252645,-20.21480874676735],[-44.00397627355802,-20.2145869286801],[-44.00296566886338,-20.214280487311004],[-44.00262880063183,-20.21420109184809],[-44.00229193240029,-20.214167431746958],[-44.00195506416875,-20.214206317038702],[-44.001627541676626,-20.214319254656292],[-44.00139361711617,-20.214460068277848],[-44.00116903829514,-20.214656733241426],[-44.00098525450308,-20.214880701708868],[-44.00078303947024,-20.215217569940414],[-44.00049530183205,-20.215804889907023],[-44.000248713523334,-20.216340464045565],[-44.000018800531464,-20.216901911098134],[-43.999925860391066,-20.21723877932968],[-43.99990422181819,-20.217463358150706],[-43.99991414687864,-20.217575647561222],[-43.99998558232271,-20.217800226382256],[-44.00019907325409,-20.2181370946138],[-44.00060759124256,-20.218640101553017],[-44.00122822563659,-20.219484567539986],[-44.00143007052345,-20.21970914636101],[-44.001993262247574,-20.220270593413584],[-44.00208837561298,-20.220382882824104],[-44.00224196529359,-20.22060746164514],[-44.00235358004464,-20.22083204046617],[-44.002432428125914,-20.22105661928719],[-44.002646089662534,-20.222087062798835]],[[-44.01253984909431,-20.22243811198449],[-44.01255624585649,-20.222179513392337],[-44.01259670876974,-20.221954934571308],[-44.012670713246614,-20.221730355750285],[-44.012785976474035,-20.22150577692925],[-44.01295673418404,-20.221281198108223],[-44.01307171580972,-20.22117117371041],[-44.01323089853759,-20.22105661928719],[-44.013408584041265,-20.220962481111307],[-44.0136331628623,-20.22088225340118],[-44.01385774168333,-20.220835651098035],[-44.014194609914874,-20.22083030211483],[-44.0144191887359,-20.220869377454555],[-44.01464376755693,-20.22093750607164],[-44.014868346377966,-20.221031581447832],[-44.01512335993036,-20.221167837748293]]]}},{"type":"Feature","id":454,"properties":{"fid":454,"UF":"MG","MUN":"BRUMADINHO","COTAS":880,"TIPO":"Curva de nível","FONTE":"Shapefile de polilinhas das curvas de nível geradas automaticamente através do MDE."},"geometry":{"type":"MultiLineString","coordinates":[[[-44.01927873550011,-20.207305292687195],[-44.01846160751444,-20.207408980665818],[-44.0181247392829,-20.20746781439603],[-44.017787871051354,-20.207543278661152],[-44.017338713409295,-20.207686492805795],[-44.017001845177745,-20.207836971875405],[-44.01677726635672,-20.207963872649064],[-44.01651819283771,-20.208143337077974],[-44.01599124048311,-20.208569541956923],[-44.015766661662084,-20.208709271120608],[-44.01554208284106,-20.208798445027856],[-44.015317504020025,-20.208830755337704],[-44.014980635788476,-20.208807402389876],[-44.01464376755693,-20.20872843099406],[-44.0144191887359,-20.20864511113516],[-44.014194609914874,-20.208535902193013],[-44.01397003109384,-20.2084009370252],[-44.013781656809805,-20.208255626488487],[-44.01366359166209,-20.208143337077974],[-44.013386953219985,-20.207806468846428],[-44.01325229162985,-20.2075818900254],[-44.01315390742851,-20.207357311204365],[-44.0130578915785,-20.207020442972826],[-44.01300229234534,-20.206683574741284],[-44.01290546224486,-20.20567297004664],[-44.0128439117736,-20.20460784151385]],[[-44.00981803372374,-20.20262143166745],[-44.00947845467324,-20.203075514399945],[-44.00880471821016,-20.2041186508921],[-44.00857919226028,-20.204437786530985],[-44.008280097853195,-20.20477465476253],[-44.00790640292604,-20.20508508700047],[-44.00756953469449,-20.20527732447739],[-44.00712037705243,-20.205444023720357],[-44.00667121941037,-20.20554974976332],[-44.00566061471574,-20.205724989685788],[-44.00543603589471,-20.205786713847424],[-44.00521145707368,-20.20586791912113],[-44.004874588842135,-20.206025982909516],[-44.0046500100211,-20.206161485594755],[-44.00440664335308,-20.206346706509734],[-44.00417863984617,-20.206571285330764],[-44.00401615777486,-20.20679586415179],[-44.00389999507502,-20.207020442972826],[-44.00376724882248,-20.207357311204362],[-44.003673147891746,-20.207694179435915],[-44.00360786371127,-20.208143337077978],[-44.003577699547414,-20.208592494720033],[-44.00357896712017,-20.20892936295158],[-44.00360929991162,-20.209490810004155],[-44.003603745516976,-20.2098276782357],[-44.00355977822356,-20.210052257056724],[-44.00352711591595,-20.210131406286248],[-44.003411704853825,-20.21027683587776],[-44.003211322173925,-20.21038912528827],[-44.00307795827389,-20.210429154886928],[-44.002853379452866,-20.21046875456787],[-44.002516511221316,-20.210494538242198],[-44.00060759124256,-20.210526996315707],[-44.000158433600504,-20.210476949567056],[-44.00004614418999,-20.210452382920728],[-43.999874710562565,-20.21038912528827],[-43.99982156536896,-20.21035633070557],[-43.999709275958445,-20.21024645673339],[-43.99959698654793,-20.21004960294339],[-43.999496777360726,-20.209715388825188],[-43.999427699931275,-20.20926623118313],[-43.999425857824896,-20.20892936295158],[-43.999458890373106,-20.20870478413054],[-43.99953043027776,-20.20848020530952],[-43.99965563459212,-20.20825562648849],[-43.99983763094008,-20.208031047667458],[-44.00017326349687,-20.20769417943591],[-44.00122484873017,-20.206795864151793],[-44.0015791466765,-20.206458995920254],[-44.00207431583994,-20.205897548867675],[-44.00224531281354,-20.205672970046646],[-44.00261846074308,-20.20511152299407],[-44.00282916950982,-20.204886944173037],[-44.00296975891497,-20.20477465476253],[-44.00314618293376,-20.204662365352004],[-44.004088562968526,-20.204165326992054],[-44.004425431200076,-20.203951270350114],[-44.0046500100211,-20.20376405021538],[-44.004752074561594,-20.20365176065737],[-44.004874588842135,-20.20348227248392],[-44.004970146789766,-20.203314892425826],[-44.005113093205004,-20.20297802419429],[-44.005256957350255,-20.202528866552232],[-44.005365498040184,-20.202079708910166],[-44.0054111785188,-20.20174284067862],[-44.005411031221705,-20.201405972447084],[-44.005363606261994,-20.201069104215527],[-44.005269241628305,-20.200732235983992],[-44.005139507546524,-20.200393105101107]]]}},{"type":"Feature","id":456,"properties":{"fid":456,"UF":"MG","MUN":"BRUMADINHO","COTAS":900,"TIPO":"Curva de nível","FONTE":"Shapefile de polilinhas das curvas de nível geradas automaticamente através do MDE."},"geometry":{"type":"MultiLineString","coordinates":[[[-44.019838061141584,-20.208649498382233],[-44.01935992279856,-20.208725480017144],[-44.01834931810392,-20.208824495779677],[-44.0181247392829,-20.208870097361043],[-44.01790016046186,-20.208943887129582],[-44.01767558164084,-20.209057712957986],[-44.017338713409295,-20.20930436200376],[-44.01711413458826,-20.209510287508593],[-44.01632810871466,-20.210292253626793],[-44.01610352989363,-20.210479960744767],[-44.015913107952066,-20.210613704109306],[-44.01565437225157,-20.21076012329713],[-44.015429793430535,-20.2108455507197],[-44.01520521460951,-20.210877373993778],[-44.014980635788476,-20.210859627918776],[-44.01464376755693,-20.21076758089002],[-44.01430689932539,-20.21060491115045],[-44.01408232050436,-20.2104466778154],[-44.01352087345178,-20.20998422722235],[-44.013184005220246,-20.209777414768137],[-44.012622558167664,-20.20952894352121],[-44.011724242883545,-20.209196882743587],[-44.011387374652,-20.20901831882862],[-44.01126353905986,-20.20892936295158],[-44.0110053294402,-20.20870478413055],[-44.01037676995737,-20.20803939282593],[-44.00947845467324,-20.207201501268393],[-44.00925387585222,-20.20703605138102],[-44.009029297031184,-20.20691935653324],[-44.00880471821016,-20.2068340207476],[-44.008580139389124,-20.2067717694778],[-44.00824327115758,-20.206716895806128],[-44.00801869233655,-20.20670722202091],[-44.007681824105006,-20.206726247658146],[-44.007344955873464,-20.206767607419224],[-44.006895798231405,-20.2068426119066],[-44.006558929999855,-20.206922970661918],[-44.00622206176831,-20.20704185479491],[-44.00588519353677,-20.20722038133862],[-44.00566061471574,-20.20740036789383],[-44.00554832530522,-20.2075213903417],[-44.00543603589471,-20.207672704926644],[-44.00530398957211,-20.207918758256945],[-44.00519944284241,-20.20825562648849],[-44.00516323892817,-20.208592494720033],[-44.00519404412036,-20.208929362951586],[-44.005284395778,-20.20926623118313],[-44.00545664765777,-20.209715388825185],[-44.00561953667409,-20.21005225705672],[-44.00583043080308,-20.210389125288277],[-44.006109772357796,-20.210739154247534],[-44.00675650609036,-20.2113997299829],[-44.006957694531295,-20.21162430880394],[-44.00761462529216,-20.212410334677543],[-44.007836452531606,-20.212747202909085],[-44.00790640292604,-20.21290612193882],[-44.00795354881429,-20.21308407114063],[-44.00795129969911,-20.213308649961657],[-44.00791863264612,-20.213420939372178],[-44.007854102305835,-20.21353322878269],[-44.00774995271944,-20.21364551819321],[-44.007591593029396,-20.213757807603717],[-44.00734903754577,-20.21387009701423],[-44.007008087641914,-20.21395483037346],[-44.00678350882089,-20.213976480165908],[-44.006446640589346,-20.213970291899592],[-44.00588519353677,-20.213888112801886],[-44.004874588842135,-20.213663167461338],[-44.00453772061059,-20.21356299125659],[-44.00431314178956,-20.213479775480177],[-44.00395867138943,-20.21330864996165],[-44.00296566886338,-20.212710950274467],[-44.00274109004235,-20.212599888908485],[-44.002516511221316,-20.212509546697948],[-44.00217964298977,-20.212419341558476],[-44.00195506416875,-20.21239111081786],[-44.001730485347714,-20.212391846925275],[-44.00150590652669,-20.212422894405677],[-44.00117981122305,-20.212522624088056],[-44.00094295709895,-20.212634913498576],[-44.000769588760825,-20.212747202909085],[-44.00062973349691,-20.2128594923196],[-44.00040770422792,-20.213084071140628],[-44.000158433600504,-20.213399903210227],[-43.99975274050954,-20.21398238642475],[-43.99914782890587,-20.214982427738875],[-43.998968289449806,-20.21521756994041],[-43.99881096067433,-20.215375569725648],[-43.99869867126381,-20.215459859903355],[-43.998474092442784,-20.2155829568441],[-43.998137224211234,-20.215690355879282],[-43.998024934800725,-20.215706418848256],[-43.99780035597969,-20.21570691626324],[-43.99757577715866,-20.215672978502692],[-43.99736560228723,-20.21561486227517]],[[-43.99864927316035,-20.206243489259897],[-43.99903553949535,-20.206176787772346],[-43.9993724077269,-20.206059288111117],[-43.99967610235231,-20.20589754886767],[-43.99993385477948,-20.205704318661127],[-44.000158433600504,-20.205467124126468],[-44.000338984163875,-20.20522381240459],[-44.000633579675664,-20.20477465476253],[-44.00105674888462,-20.204080163755002],[-44.00122776086349,-20.203876339478406],[-44.00149228342138,-20.203651760657376],[-44.001730485347714,-20.203492084617075],[-44.00206735357926,-20.203314347763786],[-44.00240422181081,-20.203179192150387],[-44.00296566886338,-20.20299133378779],[-44.00319024768441,-20.20289169360592],[-44.0034261339128,-20.202753445373258],[-44.003639405326474,-20.202569955426004],[-44.00375843057475,-20.202416577141715],[-44.00386354523123,-20.202191998320675],[-44.003908446123994,-20.20196741949965],[-44.00390291677449,-20.201742840678616],[-44.003853931511735,-20.201518261857586],[-44.00376422328508,-20.201293683036564],[-44.00363890851899,-20.20106910421553],[-44.00349711237445,-20.20085689382129]]]}}]}