{"type":"FeatureCollection","barch":{"title":"anm-0","geometryBasis":"gleba-georreferenciada.geojson","source":"https://geo.anm.gov.br/arcgis/rest/services/SIGMINE/dados_anm/FeatureServer/0/query?f=geojson&where=1%3D1&geometry=-44.08%2C-20.25%2C-43.96%2C-20.14&geometryType=esriGeometryEnvelope&spatialRel=esriSpatialRelIntersects&inSR=4326&outSR=4326&outFields=%2A&returnGeometry=true&resultRecordCount=5000","sourceScale":null,"displaySimplificationM":1,"contextBufferM":500},"features":[{"type":"Feature","id":53727,"properties":{"PROCESSO":"833477/2012","NUMERO":833477,"ANO":2012,"FASE":"AUTORIZAÇÃO DE PESQUISA","NOME":"VALE S.A.","SUBS":"MINÉRIO DE OURO","USO":"Industrial","AREA_HA":1793.78,"UF":"MG","ULT_EVENTO":"1951 - TRANSF DIREITOS - INCORPORAÇÃO AVERBADA EM 21/03/2022","ID":"{4BDB5FE3-2FC0-4BD4-8182-C2E13D3F798E}","FID":53727,"DSProcesso":"833.477/2012"},"geometry":{"type":"Polygon","coordinates":[[[-44.017906556498346,-20.21866815441363],[-44.018133781103,-20.21837060671335],[-44.0183668109282,-20.21799334886347],[-44.01856016271547,-20.21759661462255],[-44.0187120299489,-20.21718411135419],[-44.018842902978015,-20.21665181592083],[-44.01903705261826,-20.21532174239468],[-44.01907448388332,-20.21487703925752],[-44.019058372026116,-20.21433665543773],[-44.019285072672815,-20.213926505556234],[-44.019332872504364,-20.213813030048396],[-44.019640216891005,-20.21331611526969],[-44.01981415831009,-20.21298734449527],[-44.01999879548236,-20.21257414809608],[-44.02013912507267,-20.212145706941556],[-44.02023376460958,-20.211706242970056],[-44.0202817818886,-20.211260086706737],[-44.02030457168245,-20.210567017191956],[-44.02026379314896,-20.210115904065997],[-44.020158005433295,-20.209553443307993],[-44.02002097423302,-20.209115214964854],[-44.01986391955634,-20.208752694112288],[-44.019711130959514,-20.208207136574774],[-44.01954610363434,-20.207793421584125],[-44.01933903376037,-20.2073969135783],[-44.01909190440404,-20.207021409225753],[-44.01880708216289,-20.206670504051246],[-44.01848729449681,-20.20634755801245],[-44.01813560360653,-20.206055663332773],[-44.017755377109616,-20.205797614898245],[-44.01743327460391,-20.20562132156313],[-44.01709753919513,-20.20536610291858],[-44.016706097635094,-20.205123943994806],[-44.01629147283788,-20.20491903794784],[-44.015857630120685,-20.204753344368434],[-44.01540871854375,-20.204628447834697],[-44.014949031238324,-20.204545542762112],[-44.014482964358606,-20.20450542198425],[-44.014014975049854,-20.204508469173057],[-44.01345955213278,-20.204572102347967],[-44.01312874905079,-20.2045768006856],[-44.01265667271073,-20.204626161148028],[-44.012411682531436,-20.204674733970514],[-44.01214239475039,-20.204549620457186],[-44.01170741974772,-20.204394970296885],[-44.01124918429066,-20.20426907951481],[-44.010881003401664,-20.20411252807236],[-44.010445921329996,-20.203963762904785],[-44.010254380704914,-20.203445762902245],[-44.00996077970811,-20.20286140583463],[-44.00973009629302,-20.20247359724643],[-44.009460137589045,-20.20210908232967],[-44.009153520411836,-20.20177139410023],[-44.00881321682734,-20.201463805535386],[-44.00844252534113,-20.201189297856228],[-44.00804503892649,-20.200950531638295],[-44.007624610201326,-20.200749821030012],[-44.00718531409125,-20.20058911132874],[-44.00673140834045,-20.200469960131393],[-44.00626729225287,-20.20039352224213],[-44.005797464063235,-20.200360538483203],[-44.00532647735044,-20.20037132851728],[-44.004858896915465,-20.200425787750728],[-44.00439925455072,-20.200523388347662],[-44.0039520051291,-20.200663184345107],[-44.00352148343764,-20.200843820819603],[-44.00311186217381,-20.201063547016595],[-44.00272711151096,-20.201320233315332],[-44.002370960624425,-20.201611391865246],[-44.001952175983064,-20.20198936924015],[-44.00167707019346,-20.20225913799809],[-44.001385998653234,-20.20258449135194],[-44.001027602526364,-20.20286227315279],[-44.0006376836969,-20.203209195995758],[-44.000258555798446,-20.203601510274833],[-43.99987473767843,-20.204037329130532],[-43.999659099990616,-20.204293944339575],[-43.99939678108451,-20.204640849714913],[-43.999121386236475,-20.20509852126693],[-43.9989088273688,-20.2055425599976],[-43.998703727453844,-20.20616170402385],[-43.99851973264453,-20.206446155873493],[-43.998340803587055,-20.206759967084018],[-43.99808031768968,-20.207345560735273],[-43.997925103861164,-20.207781064027287],[-43.99781755367405,-20.208229198381108],[-43.997750314006744,-20.208641958981747],[-43.99770690502804,-20.209125423906798],[-43.99759902146722,-20.210847398187397],[-43.99740673994551,-20.211974689463723],[-43.99735696285651,-20.212431690592975],[-43.997329596612,-20.2131866923756],[-43.99737175408474,-20.21460941858248],[-43.99736911959746,-20.215775310870814],[-43.99739620627328,-20.21631329051841],[-43.997450152202056,-20.216705299085817],[-43.99754019511066,-20.21709135527166],[-43.997693439213094,-20.21754082362207],[-43.99791790158157,-20.218023756656674],[-43.998028728431905,-20.218344275701522],[-43.99817751946212,-20.21866635962189],[-44.017906556498346,-20.21866815441363]]]}},{"type":"Feature","id":61678,"properties":{"PROCESSO":"831800/2013","NUMERO":831800,"ANO":2013,"FASE":"AUTORIZAÇÃO DE PESQUISA","NOME":"Geovani Alves Pimenta","SUBS":"MINÉRIO DE FERRO","USO":"Industrial","AREA_HA":1397.91,"UF":"MG","ULT_EVENTO":"662 - NOTIFICAÇÃO ADM PGTO DÉBITO MULTA PUBL EM 29/08/2016","ID":"{37AEF649-AC23-4206-BEE5-AA48A0DBEC5E}","FID":61678,"DSProcesso":"831.800/2013"},"geometry":{"type":"Polygon","coordinates":[[[-43.99817778799327,-20.21866694090277],[-43.99843408442134,-20.21911838571736],[-43.998693645712365,-20.219474490952567],[-43.999124862079434,-20.21997893884983],[-43.99943070642821,-20.220267270586273],[-43.9999646628657,-20.220694551654837],[-44.00042296260243,-20.221014201009705],[-44.000771852123414,-20.221243463928925],[-44.00126339967989,-20.221522360884435],[-44.00201193417301,-20.22187106775681],[-44.00251950809306,-20.222049999151633],[-44.003203346393384,-20.222242727033997],[-44.00359535744532,-20.222520487766943],[-44.00394053440378,-20.222730575162828],[-44.00430352336492,-20.22291195366788],[-44.00479962050826,-20.223104959674696],[-44.0051980932601,-20.22322723274541],[-44.00560636920413,-20.22331613926321],[-44.00616485707942,-20.22338395799266],[-44.00662783435799,-20.22340447939552],[-44.00727700647175,-20.223373639240744],[-44.00793351189508,-20.223267889200226],[-44.00840491613051,-20.22314754992865],[-44.00894448966248,-20.22296069402892],[-44.009257638682456,-20.223003882904184],[-44.00986090073841,-20.223023968582808],[-44.01039315423568,-20.22299560559095],[-44.01093667382329,-20.222919928375088],[-44.011467423454164,-20.222785951803953],[-44.01263743866297,-20.222404289186038],[-44.01306222313678,-20.222297726640523],[-44.01347348456772,-20.222155372769524],[-44.01386923411674,-20.221978121157186],[-44.01424615641674,-20.221767456728685],[-44.01491434489482,-20.221335467189874],[-44.01531061506515,-20.221011040139427],[-44.0156508150173,-20.220688171000265],[-44.01597963104964,-20.22032827203374],[-44.01628070788315,-20.219934601422732],[-44.01646141829981,-20.21984951737977],[-44.01685354080217,-20.219617773709317],[-44.01722012563568,-20.2193513736237],[-44.017557747193415,-20.21905280662088],[-44.01790775577713,-20.21866658397738],[-43.99817778799327,-20.21866694090277]]]}}]}