{"type":"FeatureCollection","barch":{"id":"gleba-pedra-historica-planta-2021","title":"Gleba total da planta Pedra Histórica (2021)","scope":"gleba total; não individualiza matrículas 33.218, 33.219 e 33.220","sourceDocument":"2026-09-29-lotes-marcacao-gribel-layout2-66bcd2ac.pdf","sourceSha256":"66bcd2ac1fdd060281d3ee9c7944557561b14c375377ae7065492ac0f6bfbe00","planDate":"2021-09-29","sourceCRS":"SIRGAS 2000 / UTM 23S (EPSG:31983), nota 2 fuso 23K","outputCRS":"EPSG:4326","method":"Extração de 223 segmentos únicos do path 21037, layer CAD 4 - PTS_PERIMETRO. O traço repetido em sentido reverso foi removido. Transformação afim ajustada por mínimos quadrados a 48 centros de rótulos da grade (24 E/24 N), 200m entre coordenadas. Nenhum ajuste pela área declarada.","geographicValidation":"preliminary-plan-grid","gridInternalRMSEM":{"easting":0.0117670847,"northing":0.0095144688},"externalAccuracyM":null,"screeningSensitivityBufferM":10,"areaM2":1375104.085146344,"declaredAreaM2":1375087.71,"areaDifferenceM2":16.375146344071254,"areaDifferencePct":0.0011908437712815356,"geometryValid":true,"centroid":[-44.007933963440465,-20.2128634994269],"bboxWGS84":[-44.01552184768571,-20.218886855030526,-44.00211522019456,-20.20487676653348],"limitations":["O ajuste usa rótulos e não marcos topográficos; RMSE interno não representa acurácia geográfica externa.","Contorno representa a gleba total da prancha de 2021, incluindo remanescentes. Não substitui memorial registral, levantamento atual ou cadeia de desmembramento.","Buffer de 10m é cenário de sensibilidade operacional, não precisão certificada."]},"features":[{"type":"Feature","properties":{"id":"gleba-pedra-historica-planta-2021","area_m2":1375104.085146344,"geometry_status":"preliminary-plan-grid"},"geometry":{"type":"Polygon","coordinates":[[[-44.00567792086903,-20.20487676653348],[-44.005823948877584,-20.20515333886607],[-44.005941405016316,-20.205496186172713],[-44.006050322923436,-20.205902451873012],[-44.00627188941613,-20.20639199466546],[-44.006412525371296,-20.206781359697754],[-44.00655246300124,-20.207215541329795],[-44.0065698317282,-20.20744500555764],[-44.00715043836161,-20.20774858912946],[-44.00732715444981,-20.207880909637172],[-44.007570023542094,-20.208065071517805],[-44.007664177991856,-20.20814850878425],[-44.00774003431946,-20.208168794368294],[-44.00777669922854,-20.208178730290737],[-44.007905835811016,-20.208165270078318],[-44.00795740907914,-20.20811675835365],[-44.00804187868274,-20.208128389014213],[-44.00815713808034,-20.208140890174512],[-44.00838617622952,-20.208166877480608],[-44.00862910637218,-20.208212080984744],[-44.008750187940436,-20.20823535643386],[-44.009015124262454,-20.208272626287275],[-44.00918375103413,-20.208340028660906],[-44.009396846894724,-20.20844565246809],[-44.0096896318673,-20.208542235529237],[-44.00995760317244,-20.20862100275223],[-44.01011090926461,-20.208668461914932],[-44.010240225622496,-20.20869504974464],[-44.010239670777004,-20.208826804486883],[-44.01027814080703,-20.20896274315046],[-44.01056301629993,-20.20962862290123],[-44.01077405503503,-20.209947758247754],[-44.010737893820036,-20.209967614089578],[-44.01070082385571,-20.210050419817755],[-44.01073548277657,-20.21012361694606],[-44.010829452467114,-20.210144413626892],[-44.01089570299774,-20.210158950002015],[-44.011219573453495,-20.21015578374401],[-44.01141978959495,-20.210153228628972],[-44.011510457935096,-20.21015236900581],[-44.01163393243578,-20.210111707445286],[-44.01169731538527,-20.21009090995068],[-44.01186987184673,-20.21009168018496],[-44.012076127177956,-20.21009306007884],[-44.01219593726609,-20.21008788966566],[-44.01253176755961,-20.210073422582834],[-44.01270836884943,-20.20988948578307],[-44.01272706855906,-20.209848599159145],[-44.01288702877417,-20.20977782220144],[-44.012897042445815,-20.209702123474607],[-44.012997946547316,-20.20963001949325],[-44.01304301435133,-20.209512186037244],[-44.0131561451184,-20.20940893999841],[-44.01319439801397,-20.209265927438388],[-44.01330221203575,-20.209181697616398],[-44.013346972569735,-20.20911930155294],[-44.01339613739877,-20.209089546554946],[-44.01346376043172,-20.20910651542628],[-44.013485924155034,-20.209082157248304],[-44.01354190382532,-20.209077577773346],[-44.01362406660303,-20.209081953384725],[-44.01362398885391,-20.20916443524318],[-44.01389123167478,-20.209197655964356],[-44.01399680093202,-20.209127051488665],[-44.014154319905764,-20.20913321318042],[-44.01421352932504,-20.20910682020445],[-44.01428193376426,-20.209019080347385],[-44.01432998631518,-20.209092997758706],[-44.014445112225125,-20.209315639290367],[-44.014523602600235,-20.209470163264967],[-44.01469672343563,-20.209510306147372],[-44.015155366138835,-20.20959034513871],[-44.01515017792951,-20.2096511200277],[-44.015186084978374,-20.209684992064194],[-44.01515816739815,-20.209730751266694],[-44.015053023822404,-20.210039581698734],[-44.015089780943356,-20.210138162869473],[-44.01520819145275,-20.210200034139312],[-44.01519450263658,-20.21041458860416],[-44.0152503418017,-20.210471611238884],[-44.01534627665149,-20.210464737933076],[-44.015395735423965,-20.210620152432757],[-44.015505502228805,-20.210611615527483],[-44.01552184768571,-20.210725022987837],[-44.0154503211135,-20.210831158579186],[-44.01550248677034,-20.211027036079653],[-44.015412824811854,-20.21107618549887],[-44.01537169098622,-20.211149977631525],[-44.01539723406041,-20.211202039653998],[-44.01536368008894,-20.21128836816498],[-44.015265274089266,-20.211430365296856],[-44.0150663611896,-20.21154043143245],[-44.01501688004512,-20.2116030364794],[-44.01497643727096,-20.211757965172723],[-44.014910808884856,-20.21192963740553],[-44.0149331948505,-20.21204698129074],[-44.01465267050887,-20.212169458653584],[-44.014548762914444,-20.21227912730603],[-44.01444773650423,-20.212458014718624],[-44.01433775621814,-20.21262193074591],[-44.0142909129482,-20.212830071100456],[-44.014277849928156,-20.212967633631248],[-44.01424223019793,-20.213107638796313],[-44.01420821810082,-20.21328841853154],[-44.01421583741836,-20.213402606642237],[-44.01412536868489,-20.213637237540578],[-44.01414648408274,-20.213737431851467],[-44.01415004323602,-20.213853902029808],[-44.01413739067923,-20.213921311618634],[-44.014198561989694,-20.213993203590338],[-44.01425999854095,-20.214319745408194],[-44.01429084661749,-20.2147419395564],[-44.01421680090427,-20.215281990235862],[-44.01414268967827,-20.215801160178856],[-44.01412077744433,-20.215909037303447],[-44.014018203727865,-20.21593078189858],[-44.0138882894599,-20.215934299730147],[-44.013710107635625,-20.216019280318427],[-44.01360727151166,-20.216072163486984],[-44.013451136243866,-20.216113614403486],[-44.01328490959675,-20.216176000748632],[-44.01322948674559,-20.21620866079768],[-44.01309539277368,-20.216332534397846],[-44.01295181784504,-20.216492420953667],[-44.01282070267289,-20.216659503731663],[-44.01273567567108,-20.216779630261367],[-44.01255028263464,-20.217103304058625],[-44.01232699888024,-20.217375594722753],[-44.01223505058381,-20.217485256577557],[-44.012196000820744,-20.217561846839693],[-44.01206388268145,-20.21769193659229],[-44.01196879539754,-20.21777481431265],[-44.01162188168317,-20.217989531902486],[-44.01134049840281,-20.218047293012994],[-44.01123583941612,-20.218077533529204],[-44.010850529033895,-20.218211075578512],[-44.01059424041981,-20.218300689040465],[-44.00996766713447,-20.218495860189503],[-44.0098429659558,-20.218506366637918],[-44.00971387325916,-20.218506823309923],[-44.00951444738966,-20.218449845623844],[-44.00925221975916,-20.218360971206955],[-44.00907564754063,-20.218360769897348],[-44.00871147747044,-20.218376482066834],[-44.00849237044208,-20.218379869323144],[-44.00835482908497,-20.218395144898604],[-44.008020647750996,-20.218471257591396],[-44.00776836040394,-20.21854900178261],[-44.007444330451264,-20.218613763439745],[-44.00723519473404,-20.21872558538924],[-44.007060957748386,-20.2188116971009],[-44.00690695841604,-20.21885422894072],[-44.00680213280683,-20.218878302328356],[-44.00671266958616,-20.218886722975544],[-44.006620569013705,-20.218886855030526],[-44.006477034895795,-20.21887389532192],[-44.00635906808211,-20.218832224332292],[-44.006185090327044,-20.2187160666249],[-44.0061212301982,-20.218637593490058],[-44.00607366796464,-20.218388450453894],[-44.00604835259746,-20.218352139024883],[-44.00596249597032,-20.21831548268205],[-44.00537224959618,-20.218177276607346],[-44.005108870087604,-20.218079123114446],[-44.00473713424874,-20.217956340318214],[-44.004304918600994,-20.21784279625833],[-44.0039374158531,-20.217735190815603],[-44.00381610023746,-20.217684866461653],[-44.00366842194109,-20.217585537825038],[-44.003478766480214,-20.217517876638002],[-44.00326702410816,-20.217380795154938],[-44.00280872850201,-20.217061153297287],[-44.00265626631946,-20.21692985766683],[-44.00250208351155,-20.216738617210073],[-44.00246189174255,-20.216520143652275],[-44.00244184159867,-20.216295395172533],[-44.00227684294046,-20.21609084180984],[-44.002192344896244,-20.216000146077782],[-44.00216454963798,-20.21592782621314],[-44.002160252956955,-20.21588047238554],[-44.0021538779673,-20.215681780695586],[-44.002146916218315,-20.215364650461336],[-44.002149974155955,-20.214971821694277],[-44.0021592921351,-20.214587384465414],[-44.002146440244246,-20.214216009600968],[-44.00214067016021,-20.2140210997237],[-44.00213457365952,-20.213836448700874],[-44.002123471811196,-20.213444245612045],[-44.00211522019456,-20.213213328475003],[-44.00211636942453,-20.213028882285776],[-44.002136285542434,-20.212664596133216],[-44.00225416802327,-20.211944395227516],[-44.00230120029966,-20.21176501307499],[-44.00234544208143,-20.21143393056213],[-44.00238014040216,-20.21112927373238],[-44.00238478106202,-20.21088058219453],[-44.002437323527865,-20.21008289096867],[-44.002474502442695,-20.20964311151826],[-44.00248458340047,-20.209417162296077],[-44.00248953491768,-20.2092841631894],[-44.00250584605438,-20.2091473780924],[-44.00253258330159,-20.209001990501115],[-44.00264089346943,-20.208742543199588],[-44.00272416368234,-20.208609364983406],[-44.002818683893615,-20.208475821473865],[-44.00300226076266,-20.208278059583034],[-44.00305097352304,-20.2082055099884],[-44.003106648321165,-20.20810783051824],[-44.003176735740546,-20.207944502968324],[-44.003223556727754,-20.207794549125413],[-44.00328152247542,-20.207487813454946],[-44.003369672561995,-20.20717816726977],[-44.0034185444208,-20.207089193502817],[-44.003566670364634,-20.206911647297865],[-44.0038526114507,-20.20658432617026],[-44.00401626714477,-20.206408586794236],[-44.00410558912541,-20.20632452365454],[-44.00422108482709,-20.206226826293936],[-44.00434294818194,-20.206134100560988],[-44.00470564401237,-20.205901361539695],[-44.004791124539736,-20.205824033555892],[-44.00511616101498,-20.205407118158597],[-44.00525913473239,-20.205254751621236],[-44.00567792086903,-20.20487676653348]]]}}]}