{"type":"FeatureCollection","barch":{"title":"Área de influência de impacto no Patrimônio Cultural","geometryBasis":"gleba-georreferenciada.geojson","source":"https://geoserver.meioambiente.mg.gov.br/ows?service=WFS&version=1.0.0&request=GetFeature&typeName=IDE%3Aide_2017_mg_ai_patrimonio_cultural_iepha_pol&srsName=EPSG%3A4326&outputFormat=application%2Fjson&bbox=-44.08%2C-20.25%2C-43.96%2C-20.14%2CEPSG%3A4326&maxFeatures=20000","sourceScale":null,"displaySimplificationM":1,"contextBufferM":500},"features":[{"type":"Feature","id":"ide_2017_mg_ai_patrimonio_cultural_iepha_pol.1","properties":{"id_0":1,"id":1,"objectid":1,"poligono":"Área de influência do patrimônio cultural protegido pelo IEPHA-MG"},"geometry":{"type":"Polygon","coordinates":[[[-43.99903415,-20.208368580000002,0],[-44.00172579,-20.208225159999998,0],[-44.00441208,-20.208010169999998,0],[-44.00709087,-20.20772379,0],[-44.00976005,-20.20736624,0],[-44.01241748,-20.206937799999995,0],[-44.01506105,-20.206438819999995,0],[-44.01781573998211,-20.205838581497254,0],[-44.01743327460391,-20.20562132156313,0],[-44.01709753919513,-20.20536610291858,0],[-44.016706097635094,-20.205123943994806,0],[-44.01629147283788,-20.20491903794784,0],[-44.015857630120685,-20.204753344368434,0],[-44.01540871854375,-20.204628447834697,0],[-44.014949031238324,-20.204545542762112,0],[-44.014482964358606,-20.20450542198425,0],[-44.014014975049854,-20.204508469173057,0],[-44.01345955213278,-20.204572102347967,0],[-44.013072770990114,-20.204581380097803,0],[-44.01265667271073,-20.204626161148028,0],[-44.012411682531436,-20.204674733970514,0],[-44.01214239475039,-20.204549620457186,0],[-44.01170741974772,-20.204394970296885,0],[-44.01124918429066,-20.20426907951481,0],[-44.010881003401664,-20.20411252807236,0],[-44.010445921329996,-20.203963762904785,0],[-44.010254380704914,-20.203445762902245,0],[-44.01010681373714,-20.203137974908092,0],[-44.00973009629302,-20.20247359724643,0],[-44.009460137589045,-20.20210908232967,0],[-44.009153520411836,-20.20177139410023,0],[-44.00881321682734,-20.201463805535386,0],[-44.00844252534113,-20.201189297856228,0],[-44.00804503892649,-20.200950531638295,0],[-44.007624610201326,-20.200749821030012,0],[-44.00718531409125,-20.20058911132874,0],[-44.00673140834045,-20.200469960131393,0],[-44.00626729225287,-20.20039352224213,0],[-44.005797464063235,-20.200360538483203,0],[-44.00532647735044,-20.20037132851728,0],[-44.004858896915465,-20.200425787750728,0],[-44.00439925455072,-20.200523388347662,0],[-44.0039520051291,-20.200663184345107,0],[-44.00352148343764,-20.200843820819603,0],[-44.00311186217381,-20.201063547016595,0],[-44.00272711151096,-20.201320233315332,0],[-44.002370960624425,-20.201611391865246,0],[-44.001952175983064,-20.20198936924015,0],[-44.00167707019346,-20.20225913799809,0],[-44.001385998653234,-20.20258449135194,0],[-44.001027602526364,-20.20286227315279,0],[-44.0006376836969,-20.203209195995758,0],[-44.000258555798446,-20.203601510274833,0],[-43.99987473767843,-20.204037329130532,0],[-43.999659099990616,-20.204293944339575,0],[-43.99939678108451,-20.204640849714913,0],[-43.999121386236475,-20.20509852126693,0],[-43.9989088273688,-20.2055425599976,0],[-43.998703727453844,-20.20616170402385,0],[-43.99851973264453,-20.206446155873493,0],[-43.998340803587055,-20.206759967084018,0],[-43.99818863383033,-20.2070861163942,0],[-43.997925103861164,-20.207781064027287,0],[-43.99778669101944,-20.208401793944113,0],[-43.99903415,-20.208368580000002,0]]]}}]}