{"type":"FeatureCollection","name":"perimetro-urbano","features":[{"type":"Feature","id":"101-0","properties":{"FID":"13","Id":"0","NU":"Palhano","RU":"Piedade do Paraopeba","CODIGO":"NU5C","MACROZONA":"Preserv.  Amb., Amortecimento Amb e Des. Agro.","Shape_Leng":"35079,497067","name":"Palhano","sourceId":"1AxWeeN_wvBL5Ih0vQQd21WvSupIlK3mk","sourceSha256":"315c6d318602c4fdf14ecc230b2dfbcff127801129277e391db6b5deb2c2cf4a","sourceDate":"2023","scope":"municipal-cartography-context-not-property-boundary"},"geometry":{"type":"Polygon","coordinates":[[[-44.01627905930286,-20.18112118149952],[-44.0162770531313,-20.18110644515468],[-44.01627639631288,-20.18110161834101],[-44.0162753250904,-20.18109374696296],[-44.01617678541358,-20.18036989012818],[-44.01601390646353,-20.17955696744542],[-44.0160055362908,-20.1795151921035],[-44.015968047123,-20.17932808427103],[-44.01596384004966,-20.1793070875725],[-44.01596205572103,-20.17929818035042],[-44.01596167249862,-20.17929626810546],[-44.01584565003884,-20.17871719991013],[-44.01572532343759,-20.17826522233996],[-44.01562413959834,-20.17788514866925],[-44.01551085421084,-20.17752166272999],[-44.01487761335249,-20.17548982467968],[-44.01449660950089,-20.1745497804054],[-44.0142039973806,-20.17389582919959],[-44.01665311298635,-20.17467610541901],[-44.01703223901417,-20.17479688941446],[-44.01945458035633,-20.17800173034847],[-44.02076127264204,-20.17973046300357],[-44.02169195499992,-20.18003673538837],[-44.02161952899996,-20.18006932838833],[-44.02155129599998,-20.1800853343883],[-44.02144542499997,-20.18038597038834],[-44.02144055999997,-20.1804709533883],[-44.02146235599997,-20.18062504538831],[-44.02144084399997,-20.18069908638831],[-44.02142795799995,-20.18074343538831],[-44.02144641399996,-20.18106875738831],[-44.02149606299997,-20.18140608838829],[-44.02148828799994,-20.18154881038831],[-44.02147179599992,-20.18160830338829],[-44.02139300299994,-20.1818451373883],[-44.02136375799995,-20.1819045233883],[-44.02131731399993,-20.18197783738831],[-44.02127456199998,-20.18203466238827],[-44.02072750599994,-20.18219145638826],[-44.02050032799993,-20.18247027238828],[-44.02049517099994,-20.18250323138826],[-44.02067759846786,-20.18314533722654],[-44.02077776199997,-20.18349788938822],[-44.02078811599995,-20.18357671838826],[-44.02102992791036,-20.18459992666109],[-44.0210606909999,-20.1847300973882],[-44.0210971911296,-20.18475674968498],[-44.02110318247448,-20.18475756470915],[-44.02122926727883,-20.18470384486589],[-44.02135075997192,-20.18464896180543],[-44.02184701073449,-20.1842556728638],[-44.02189802346574,-20.18421524448608],[-44.02253709404602,-20.18362789737],[-44.02259292865656,-20.18335752513125],[-44.02257995169225,-20.18277289549338],[-44.02267603281111,-20.18258674622452],[-44.02275432460536,-20.18243911212972],[-44.02278100865895,-20.18238879445716],[-44.02294182387475,-20.18220877927714],[-44.02301968318459,-20.18197966687514],[-44.02309451705367,-20.18173261842646],[-44.02310433009305,-20.18173058121543],[-44.02315021978185,-20.18172105336969],[-44.02355131237499,-20.18163777503608],[-44.02377614875721,-20.18160613936669],[-44.02386184872591,-20.18159040534881],[-44.02398721177963,-20.18165222711955],[-44.02442972501721,-20.18187045082659],[-44.02517594970517,-20.1822199523653],[-44.02520313380867,-20.18223268406647],[-44.02542500890649,-20.18229389133552],[-44.02555814188975,-20.18233061741633],[-44.02557226082835,-20.18233451223816],[-44.02564292273097,-20.18243926103703],[-44.02569855723482,-20.18248519671732],[-44.02573374236624,-20.18255003611571],[-44.02578982547319,-20.18263005344792],[-44.02582940502284,-20.1827156997235],[-44.02592873367115,-20.18286294303678],[-44.02634845042054,-20.18328237840848],[-44.02661191239525,-20.18330563677492],[-44.02698395413793,-20.18356334333204],[-44.02703110202317,-20.18359554287403],[-44.027312519342,-20.18365354708433],[-44.0275554531073,-20.18370361812527],[-44.0277202849525,-20.18370379581233],[-44.02776861413866,-20.18370757238856],[-44.02781428905692,-20.1837112836798],[-44.02800985003511,-20.18372005115162],[-44.02803717005394,-20.1837080087351],[-44.02805085021666,-20.18370197814931],[-44.02808398369646,-20.18369753418506],[-44.02815596267109,-20.18367664070551],[-44.02818699993855,-20.18366763124385],[-44.02819582286843,-20.18364933521596],[-44.02820334033328,-20.18361901927173],[-44.02822455662167,-20.18358953981287],[-44.02827121659973,-20.18349021463903],[-44.0282726324638,-20.18348720279691],[-44.02827013635461,-20.18347875887974],[-44.02826766305048,-20.18345660009724],[-44.02825946738017,-20.18341214531076],[-44.02822778919004,-20.18327553325813],[-44.02821678911872,-20.18325199552549],[-44.02820023086267,-20.18321426031229],[-44.02818959077301,-20.18318421448664],[-44.0281742086941,-20.18313165308723],[-44.02815755331793,-20.18309785590986],[-44.02815612763508,-20.18309303481857],[-44.02819913444486,-20.18298062774246],[-44.02830358842628,-20.18281455676197],[-44.02852920773221,-20.182607460702],[-44.02906431500629,-20.18253923668934],[-44.02909964389454,-20.18250506246678],[-44.02911423562736,-20.18249227826566],[-44.02914790588472,-20.18246570367629],[-44.02918184924572,-20.18243891373537],[-44.02923324882861,-20.182415521716],[-44.02944395419391,-20.18232708763062],[-44.02956778903738,-20.18227511383858],[-44.0295920150384,-20.18225931971783],[-44.02960387794286,-20.18225804611047],[-44.02987503312621,-20.18219265938172],[-44.0302968069012,-20.18186060738827],[-44.03031564313886,-20.18184588848819],[-44.03042390310955,-20.18180079366957],[-44.03078623718898,-20.18164986656411],[-44.03101074442756,-20.18157701423132],[-44.03131580627364,-20.18147802100721],[-44.03160196148124,-20.18136560389032],[-44.03161529956908,-20.181360364448],[-44.03173202694626,-20.18131916725622],[-44.03202624086965,-20.18121532783368],[-44.03222090771984,-20.18116557070666],[-44.03226877857305,-20.18116598138604],[-44.03233509735938,-20.18117097606896],[-44.03236531483829,-20.18117389182403],[-44.03264416553924,-20.1811974525154],[-44.03268136304398,-20.18121171274698],[-44.03274812642977,-20.18121662207595],[-44.03280958596498,-20.18123771825273],[-44.03301695813441,-20.18132283457819],[-44.03303474580594,-20.18134014141646],[-44.0330939311466,-20.18138351290028],[-44.03310177191451,-20.18138874058399],[-44.03326784470266,-20.18150391843306],[-44.03327253339676,-20.18151439377905],[-44.03327993944119,-20.1815198205577],[-44.03338934832072,-20.1819530360745],[-44.03346160400805,-20.1821914395064],[-44.03350070606376,-20.1822679746836],[-44.03354826154709,-20.18236105515781],[-44.03396493080218,-20.1827092365522],[-44.03406146405055,-20.1828192383774],[-44.03408672804074,-20.18284709087028],[-44.03430160191591,-20.18309907422778],[-44.03434229215554,-20.18319846064286],[-44.03436528395115,-20.18327081861221],[-44.03437182816727,-20.18327060426078],[-44.03466138462893,-20.18326111453687],[-44.03592972743338,-20.18330907604431],[-44.03656168805264,-20.18345438243762],[-44.03658172118276,-20.18346970800066],[-44.03664183184615,-20.18351478841487],[-44.03752476009925,-20.18349686044714],[-44.03840529387232,-20.18361265606769],[-44.03928954187825,-20.18372897721596],[-44.03933003477602,-20.18373430439282],[-44.0397292952697,-20.183778894992],[-44.04043148632679,-20.18405964685137],[-44.04061262053972,-20.18428216999041],[-44.04080772778337,-20.18426015753522],[-44.04223636940466,-20.18401102497153],[-44.04392290643509,-20.18319559822714],[-44.04554984711159,-20.18304472856003],[-44.04580778059964,-20.18120822147877],[-44.04674848257496,-20.18060959993551],[-44.04849767112334,-20.18113245669035],[-44.04953091520576,-20.18199206810568],[-44.04963627663108,-20.1854433363462],[-44.05060027009332,-20.18623250275067],[-44.05139795067917,-20.18622007382678],[-44.05512864232512,-20.18608401608539],[-44.05834179414781,-20.18933755463875],[-44.05994006510023,-20.19135237221681],[-44.05999016010776,-20.19184619938989],[-44.05955655881636,-20.1922151099771],[-44.05875223252949,-20.19207143380016],[-44.05865333022737,-20.19250884682922],[-44.05658301319751,-20.19312852434956],[-44.05627147532304,-20.19366155890799],[-44.05505724142326,-20.19320573271216],[-44.05496272266605,-20.19331168145357],[-44.05382473127336,-20.19286864355564],[-44.05192723308967,-20.19190363013963],[-44.05119061095949,-20.1922821615355],[-44.05067240024261,-20.1921359244779],[-44.05052329915424,-20.1916689409226],[-44.0507286174522,-20.19121582455764],[-44.05074330513816,-20.19088121166275],[-44.05066965998368,-20.19049830863777],[-44.05063457532162,-20.19001998744753],[-44.05076833818358,-20.18986414189972],[-44.04981884788175,-20.18935096763411],[-44.0476139965141,-20.18784043837293],[-44.04734300159971,-20.18697128395499],[-44.04646206160665,-20.18714465369304],[-44.04121446033721,-20.18705649600295],[-44.03950353815749,-20.18732711260177],[-44.0367942010435,-20.18831607940493],[-44.03439455544314,-20.18919195592939],[-44.0319250423811,-20.1893272515934],[-44.03117762109515,-20.19082461940999],[-44.03069863924095,-20.191227591986],[-44.03054292157022,-20.19310573424801],[-44.03071229845587,-20.1944797848124],[-44.03036157806444,-20.19531075351023],[-44.02804050799152,-20.19616832712986],[-44.02766391452745,-20.19593895745812],[-44.02612870283554,-20.19410249877743],[-44.02596543789829,-20.19304655539111],[-44.02637696955874,-20.19191890538108],[-44.02539619191739,-20.19164209998456],[-44.02370474294161,-20.1916762579749],[-44.02282846057036,-20.1926135980842],[-44.02238430063017,-20.19314474257667],[-44.02199198202829,-20.19361388724264],[-44.02033439321298,-20.19491517660492],[-44.02027985421508,-20.19582742043088],[-44.0203243442084,-20.19603966504007],[-44.02055339133101,-20.19713235727781],[-44.02069542113494,-20.19786793331925],[-44.02065969667201,-20.19799957809195],[-44.02030178227751,-20.19851203612413],[-44.02022414161166,-20.19858578906791],[-44.02020087520709,-20.19859970319868],[-44.01911953082018,-20.19895539760412],[-44.01900328498708,-20.19897302754962],[-44.01806840814,-20.19883428886774],[-44.01735636046234,-20.19858884001396],[-44.01735059267712,-20.19859745741816],[-44.01728515007225,-20.19869522209874],[-44.01696217330696,-20.19917770780365],[-44.01672327592124,-20.19974358350541],[-44.01541311044139,-20.19929614017257],[-44.01478186869423,-20.20011882050666],[-44.01459141673347,-20.20042281964268],[-44.01458734672717,-20.20043339360754],[-44.01455723862453,-20.2005116091945],[-44.01454941268144,-20.20067679041529],[-44.01456154763284,-20.20089294415599],[-44.01456026828548,-20.2010962835801],[-44.01456521665249,-20.20137599398607],[-44.01459755416339,-20.20159226009241],[-44.01478393160654,-20.20192375616548],[-44.01485671706142,-20.20212118778852],[-44.01490893876884,-20.20238842499694],[-44.01496515582571,-20.2026731194027],[-44.01668616977567,-20.20374569059694],[-44.01785198723213,-20.20443873583578],[-44.01787224469538,-20.20443884906348],[-44.01795739973052,-20.20445409979311],[-44.01806928080242,-20.20481451080965],[-44.01892300013462,-20.20478630016694],[-44.0197422926304,-20.20454806450584],[-44.0204100940424,-20.20466654006593],[-44.02075784385202,-20.20494101069682],[-44.02065219653599,-20.20543489411569],[-44.02070732935503,-20.20572964014323],[-44.02132767287551,-20.20614906777439],[-44.02199369172026,-20.20655440376161],[-44.02267132573385,-20.20753355510097],[-44.02284792335256,-20.20845254276354],[-44.02301875868864,-20.2091065294898],[-44.0226676326231,-20.20943581306885],[-44.02277765718669,-20.20997259783251],[-44.02364283038185,-20.21012084736564],[-44.023565249274,-20.21037860464991],[-44.0239900612712,-20.21048137292033],[-44.02456427979628,-20.2106969102788],[-44.02522418669292,-20.20994315870125],[-44.02622985815582,-20.20948973311048],[-44.02662508324853,-20.2094632357456],[-44.02891913161152,-20.20951896284819],[-44.02922621581492,-20.20966200565533],[-44.02922304323568,-20.20966982098118],[-44.02902000036097,-20.21016999898159],[-44.02864999979442,-20.21119999931146],[-44.02854999954078,-20.21157999981812],[-44.02859000043986,-20.21196999972739],[-44.02853000026801,-20.21260999942096],[-44.02813999966017,-20.21333999918835],[-44.02787999961811,-20.21438999941852],[-44.02773000017642,-20.21468999976927],[-44.02766999957947,-20.21477999974647],[-44.02742999957385,-20.21503999935911],[-44.02703999974411,-20.21535999902417],[-44.02658791139994,-20.21563374263051],[-44.02611369729405,-20.21659655609862],[-44.02530510762394,-20.21689020100544],[-44.02523999977798,-20.21692999958003],[-44.02533000003128,-20.21739999897022],[-44.02533000045279,-20.21747999897021],[-44.02526000016859,-20.21760999943221],[-44.02508999998726,-20.21773999953591],[-44.02468000020157,-20.21790999946935],[-44.02419000017981,-20.21827999928034],[-44.02413000031928,-20.21840999968538],[-44.02407999989267,-20.21855999960545],[-44.02413000019873,-20.21925999974826],[-44.02413000014261,-20.21951999961328],[-44.02408884430574,-20.21970108455449],[-44.02408000015442,-20.2197399990135],[-44.02393000017006,-20.22016999947769],[-44.02374000004959,-20.22061999963918],[-44.02357000026708,-20.22078999893988],[-44.02331000008255,-20.22091999898725],[-44.02193999968196,-20.22129999983627],[-44.02131103300013,-20.22112296766742],[-44.02050415845753,-20.22136231282837],[-44.01974457579627,-20.2213293864927],[-44.01929006677567,-20.22111169197689],[-44.01852509689233,-20.21951525554564],[-44.01840086387013,-20.21803238621065],[-44.0183803614698,-20.21802602450241],[-44.01838060368746,-20.21803227296575],[-44.01724931076637,-20.21768122187947],[-44.01665029079447,-20.21745988683302],[-44.0157061033257,-20.21704040550322],[-44.01460151605492,-20.21642380839949],[-44.01393409138261,-20.21604950266136],[-44.01358790619092,-20.21602569742876],[-44.01312438706209,-20.21628470743347],[-44.01279891064047,-20.21663166606284],[-44.01247335235561,-20.21697862537019],[-44.01175309424239,-20.21767215020368],[-44.01103461876691,-20.21808229811379],[-44.01010852636369,-20.21844763884981],[-44.00946154860856,-20.21850939554369],[-44.00867666778232,-20.21846142404055],[-44.00798399295059,-20.21843565134127],[-44.00701448605724,-20.21836476910038],[-44.00620697519414,-20.21825125483099],[-44.00516928252748,-20.21800553784556],[-44.0041325027761,-20.21762910279171],[-44.00353392107134,-20.21734232236756],[-44.00300358673518,-20.21720850581245],[-44.00249554431532,-20.21720562093371],[-44.00238336872408,-20.21734485922905],[-43.9990559058307,-20.21696027465023],[-43.99683796512953,-20.2167039276105],[-43.99654650060823,-20.21666802738342],[-43.99617876370123,-20.21662551956214],[-43.99509942981859,-20.21649611956992],[-43.99312023692452,-20.21625529737281],[-43.99321582022593,-20.21513942606297],[-43.994209506982,-20.21470205573763],[-43.99491336324996,-20.21473069918594],[-43.99508679918596,-20.21513168075404],[-43.99564930074206,-20.21483952184316],[-43.99497041229764,-20.21396797134576],[-43.9935983852081,-20.21343090008927],[-43.99352233767946,-20.21309201265822],[-43.99296738723297,-20.21322421202821],[-43.99263474053261,-20.21325307283031],[-43.99269884627569,-20.21291498884187],[-43.99312332473175,-20.21279742611427],[-43.99321472991856,-20.21226873572403],[-43.99223283600173,-20.21239540783825],[-43.99191612082448,-20.21197514218284],[-43.99283172588869,-20.21151271564004],[-43.99339774937256,-20.21168518503028],[-43.99394919396435,-20.21209756302004],[-43.99453269963912,-20.20999288865734],[-43.99464473804015,-20.209802765321],[-43.99509384024444,-20.20990994775154],[-43.99539483411409,-20.20973321271672],[-43.99557502698104,-20.20914387571689],[-43.99558016915307,-20.20914082133118],[-43.99566625579602,-20.20896787066502],[-43.99569722316119,-20.20890918380497],[-43.99573492633289,-20.20882221846581],[-43.99576539024319,-20.2087572563306],[-43.99584654475471,-20.20864378728918],[-43.99585897783073,-20.20860260627947],[-43.99585069532758,-20.20857432418284],[-43.99583109589976,-20.20851766222921],[-43.99584661084703,-20.20843426099743],[-43.99588433425837,-20.20841394996073],[-43.99600504990274,-20.20835145794141],[-43.99612670177414,-20.20827892561361],[-43.99627726609517,-20.20819375700875],[-43.99641587705961,-20.20811823757301],[-43.99656487094004,-20.20803448281533],[-43.99670507956159,-20.20795455575449],[-43.99691668585729,-20.20784070436915],[-43.9970579878515,-20.20775842952895],[-43.99723035083288,-20.20766546134831],[-43.997436474207,-20.20755022721563],[-43.99745041015547,-20.20741925074528],[-43.99754021702748,-20.20703849211908],[-43.99637311601602,-20.20667158261971],[-43.99472259723326,-20.20586216941897],[-43.99334631261627,-20.206158990723],[-43.99224894116342,-20.20592207038775],[-43.99196213453411,-20.20623312246478],[-43.98898967645439,-20.20679604470827],[-43.98876617971896,-20.20679475849076],[-43.98816903667723,-20.20679692159701],[-43.9881278987305,-20.20676316968179],[-43.98806893264103,-20.20674051716072],[-43.98801584859089,-20.20672340828496],[-43.98795944714146,-20.2066826138712],[-43.9878802668445,-20.20666128961002],[-43.98771509096437,-20.20659890997452],[-43.98734836134772,-20.20643645092498],[-43.98733202319971,-20.20641250783197],[-43.98729676126744,-20.2063732798144],[-43.9872555874056,-20.20634512763528],[-43.98722624562008,-20.20630584337476],[-43.98720293749906,-20.20626108320266],[-43.98715616396227,-20.20617147158934],[-43.98710921594593,-20.20612097318415],[-43.98702083610148,-20.20607023770926],[-43.98692058801408,-20.20603623598078],[-43.98684549981819,-20.20602911772254],[-43.98676104300971,-20.20601851285902],[-43.98658360144464,-20.20603429261463],[-43.98640619205867,-20.20603326835008],[-43.98625007867618,-20.20602170863041],[-43.98612247640481,-20.20603163140411],[-43.9860791625192,-20.20604327564824],[-43.98608694913039,-20.20604674499642],[-43.98589741890251,-20.20606005359085],[-43.98574645165392,-20.20604617392413],[-43.98555490759205,-20.20602167186454],[-43.9853411928889,-20.20594771736408],[-43.98531557232405,-20.20594323332153],[-43.98520359460984,-20.20589235977269],[-43.98508049430262,-20.20585316520472],[-43.98495588769508,-20.2057904752558],[-43.98482041700136,-20.20571155181281],[-43.98476733369105,-20.20569444288713],[-43.9847083675801,-20.20567178926784],[-43.98183152617541,-20.20452738959501],[-43.98045856676654,-20.20431572223808],[-43.97885816259045,-20.20362103934679],[-43.97885936933181,-20.20343611923794],[-43.97874479289941,-20.20303835113286],[-43.97859635599493,-20.20276269989506],[-43.97855028929101,-20.20252762427863],[-43.9785456899592,-20.20210977625124],[-43.97865291102054,-20.20143457010929],[-43.97864680363345,-20.20124806873146],[-43.9786481781094,-20.20103744118694],[-43.97871573410732,-20.20078768924109],[-43.97892278557235,-20.2000360046161],[-43.98058983974322,-20.20022553715859],[-43.98158478480871,-20.19831817290815],[-43.98154412810069,-20.19799176963998],[-43.98145747953634,-20.1972961224563],[-43.98102324735368,-20.19380986991617],[-43.98105139189737,-20.19389919432765],[-43.9811083877352,-20.19396917403011],[-43.98134938121027,-20.19412947076752],[-43.98154554288655,-20.19425454860495],[-43.98158209704155,-20.19431284623028],[-43.98161034296994,-20.19438663388473],[-43.98163023076835,-20.19448358865774],[-43.98164601495197,-20.19458051965514],[-43.98171111389355,-20.19465443133907],[-43.98177211334018,-20.19474006074974],[-43.98188260610212,-20.19478713364739],[-43.98197693557379,-20.1947954486064],[-43.98205084874363,-20.1947881080195],[-43.98214543094065,-20.19475767063611],[-43.98222377179789,-20.19468838544699],[-43.98228585162108,-20.19460744167193],[-43.98236409575851,-20.19456525662204],[-43.98249966176815,-20.19454282493065],[-43.98262289160773,-20.19452420695657],[-43.98280346827174,-20.19450971380966],[-43.98296780910587,-20.19447967962486],[-43.9830830840717,-20.19442225976638],[-43.98318052556518,-20.1943158660098],[-43.98319656481018,-20.19422779136884],[-43.98320579932987,-20.19409387692889],[-43.9831990970487,-20.19383773520336],[-43.9831888002707,-20.19349087624615],[-43.9831854097779,-20.19336872243183],[-43.98317352997621,-20.19327804673128],[-43.98316159559055,-20.19318339604159],[-43.98312490284493,-20.19304921592814],[-43.98302221762346,-20.19279640416426],[-43.98301028431523,-20.19270175256672],[-43.98302770414671,-20.19259543801627],[-43.98304922695427,-20.19248923664719],[-43.98306680128188,-20.19235925475168],[-43.98306315622544,-20.1922764856647],[-43.98303051703147,-20.19216202163214],[-43.98300185459642,-20.19206727506113],[-43.98293596446921,-20.19193292600013],[-43.98290350521246,-20.19179091043704],[-43.9829131228105,-20.19159782806944],[-43.98300574243466,-20.19146836976157],[-43.98314880428384,-20.19129972658677],[-43.98324978564962,-20.19117031830247],[-43.98334671509126,-20.19102110170109],[-43.98340592903619,-20.19090716885942],[-43.98344849160247,-20.19078130604749],[-43.98348284205446,-20.19063181785646],[-43.98351326551938,-20.19044283037034],[-43.98354787281217,-20.19025386706073],[-43.98362837864297,-20.19006914375197],[-43.983687871815,-20.18990010817897],[-43.98371816984165,-20.18974264713819],[-43.98371911624574,-20.18959685009844],[-43.9837124625947,-20.18933275917389],[-43.98372582486962,-20.18919498414607],[-43.98375999927465,-20.18908479071377],[-43.98381490014424,-20.18897878299538],[-43.98384465863634,-20.18889223226188],[-43.98387503394482,-20.18872293703605],[-43.9838592236969,-20.18858101780857],[-43.98389398253154,-20.18836838789499],[-43.98392838383224,-20.18821103993577],[-43.9840001160406,-20.18808922979205],[-43.98413039673049,-20.1879560145712],[-43.98428138269306,-20.18784261242552],[-43.98446536397928,-20.18778856998165],[-43.98461147788452,-20.18778146356029],[-43.98481167653063,-20.18780628779832],[-43.98494912002771,-20.1878464684459],[-43.98509954284475,-20.18781978417493],[-43.9852503486842,-20.18773393179841],[-43.98539299494983,-20.18761659530135],[-43.98548943625737,-20.18755409725548],[-43.98558148868173,-20.18751126741355],[-43.98567362144821,-20.18746843708131],[-43.98586142727476,-20.18746952036651],[-43.98601972900501,-20.18751776983266],[-43.98601730038833,-20.1875254241811],[-43.9861825874528,-20.18759748053295],[-43.98634902329621,-20.18766935451686],[-43.98653198510802,-20.18777284996187],[-43.98671928152924,-20.187852792295],[-43.98685254566267,-20.18790478197216],[-43.9869816240551,-20.18794491194853],[-43.98710677805479,-20.1879574666367],[-43.98720273303639,-20.18795801936974],[-43.98729050379649,-20.18794271565],[-43.9874744078602,-20.1879005050666],[-43.98761220778319,-20.18788548836628],[-43.98777507651542,-20.18787459236049],[-43.98796706489132,-20.18787569749222],[-43.98812564961036,-20.18788058486552],[-43.98830906872511,-20.18791316758572],[-43.98845480181576,-20.1879652269086],[-43.98856718070359,-20.18801311867004],[-43.98871253125722,-20.18812434581644],[-43.98892410692474,-20.18831861057372],[-43.98918541037628,-20.18857233211839],[-43.98930564627497,-20.18869913152605],[-43.98942147110568,-20.18886131891787],[-43.98956672172535,-20.18898826283669],[-43.98977470384779,-20.18910373340378],[-43.99002866088414,-20.18919977423633],[-43.99028289759579,-20.18925245534456],[-43.99052471539382,-20.18928537118898],[-43.99069559365802,-20.18932962282381],[-43.99078713899859,-20.18936565028838],[-43.99087894083846,-20.1893740362156],[-43.9909749979923,-20.18935886949136],[-43.9911003059302,-20.18934775398737],[-43.99120064678727,-20.18931680334737],[-43.99128839339598,-20.18930547219001],[-43.99138442779901,-20.18930602312658],[-43.99145100911569,-20.18933395677337],[-43.99157580725355,-20.18938986908391],[-43.99183790158154,-20.18952145600745],[-43.99193348001295,-20.18959291854275],[-43.99203331523591,-20.18964073624154],[-43.99214985293843,-20.18969262431272],[-43.99227095258753,-20.18968545944373],[-43.99235857034615,-20.18968198693289],[-43.99249239404434,-20.18964734221479],[-43.99265163894967,-20.18954969718082],[-43.99283184300855,-20.18943257060914],[-43.99294954581219,-20.18930316000794],[-43.99301734221714,-20.1891420274493],[-43.9930807785319,-20.18900842251144],[-43.99315628302798,-20.18894968461206],[-43.99322740144101,-20.18892253922664],[-43.99333195162883,-20.18889947045851],[-43.99350733920582,-20.18888078002067],[-43.99375822941023,-20.18880344338708],[-43.99395090234216,-20.18869813029891],[-43.99414370141204,-20.18857312318899],[-43.99435697833586,-20.18850342950504],[-43.99457005635855,-20.18847709543897],[-43.9948913546958,-20.18848281765289],[-43.9952001356594,-20.18849641621539],[-43.99554645237571,-20.18851420335889],[-43.9957927302755,-20.18850377640183],[-43.99607231325937,-20.18851720667456],[-43.99629334760964,-20.18854213689895],[-43.99655590134416,-20.1886027154715],[-43.99684331717879,-20.18868710382573],[-43.99716406230927,-20.18877954084058],[-43.99743906069357,-20.18885599749386],[-43.997780893617,-20.18892100099445],[-43.99801014405171,-20.18896955389044],[-43.99814784420658,-20.18897033766178],[-43.998273403292,-20.18891983297851],[-43.99834890436923,-20.18886118310945],[-43.99843664560873,-20.18883801461251],[-43.99852897546948,-20.18885037514774],[-43.99862626241175,-20.18876601331353],[-43.99870990169175,-20.18866856538221],[-43.9988433316961,-20.18834944449306],[-43.99894906451284,-20.18803016488274],[-43.99904722124572,-20.18782177646009],[-43.9992205355159,-20.18774444109666],[-43.99950418547418,-20.1877264520146],[-43.99982917991814,-20.18772179633014],[-44.00015421230744,-20.1877236448738],[-44.0006657015004,-20.18775266053925],[-44.00110831357953,-20.18774216630727],[-44.00165486542791,-20.18769296599139],[-44.00197998378275,-20.18766870463056],[-44.00251050652557,-20.18766248714286],[-44.00276855294701,-20.18762096469205],[-44.00295571243654,-20.18755020780473],[-44.00325424880769,-20.18736264567528],[-44.00358036461466,-20.18718165356093],[-44.00386488427673,-20.18702662164981],[-44.00414915962689,-20.18689760545056],[-44.00441292552092,-20.18674245597384],[-44.00469058209116,-20.18657428601064],[-44.00496141880591,-20.18638647277134],[-44.00742376032739,-20.18675952146563],[-44.00754452492763,-20.18641491309265],[-44.00818552146094,-20.18435301896],[-44.00923942793801,-20.18292179321143],[-44.01055274350989,-20.18185577872661],[-44.01032246488111,-20.18143373111564],[-44.01026568340632,-20.18080228228389],[-44.01010605749992,-20.18041888183419],[-44.01160275572396,-20.17916504065297],[-44.01140087057592,-20.17905871782656],[-44.0106395658168,-20.17933175225677],[-44.01004222875734,-20.17929970284566],[-44.00955913235887,-20.1788188560173],[-44.00936087352953,-20.17813879810014],[-44.00908322906674,-20.17720010333091],[-44.00901469408127,-20.1768267773086],[-44.00977377425953,-20.17615747367599],[-44.0121311729166,-20.17566811011491],[-44.01258208056331,-20.17643564755697],[-44.01276142114969,-20.17690521957297],[-44.01286129978012,-20.17726630018041],[-44.0136765998548,-20.17838419992824],[-44.0139878001512,-20.17865610004527],[-44.01422380011605,-20.1788877001264],[-44.01441690020355,-20.17914950006801],[-44.01440800628543,-20.1791933473031],[-44.01438924926953,-20.17917107997702],[-44.01438746144095,-20.17919288973838],[-44.0152760798959,-20.18024780139831],[-44.01571619613684,-20.18063175734545],[-44.01626096285488,-20.18113692580711],[-44.01628121807852,-20.18113703955327],[-44.01627905930286,-20.18112118149952]]]}},{"type":"Feature","id":"102-0","properties":{"FID":"14","Id":"0","NU":"Suzana","RU":"Piedade do Paraopeba","CODIGO":"NU5D","MACROZONA":"Amortecimento Ambiental e Des. Agropecuário","Shape_Leng":"17436,200172","name":"Suzana","sourceId":"1AxWeeN_wvBL5Ih0vQQd21WvSupIlK3mk","sourceSha256":"315c6d318602c4fdf14ecc230b2dfbcff127801129277e391db6b5deb2c2cf4a","sourceDate":"2023","scope":"municipal-cartography-context-not-property-boundary"},"geometry":{"type":"Polygon","coordinates":[[[-43.99353950730292,-20.22907059341776],[-43.99299209975186,-20.2285154334558],[-43.9930802034506,-20.22806712775248],[-43.99416365730936,-20.22802754869535],[-43.99477774860742,-20.22783107244163],[-43.99503442465009,-20.22846944579814],[-43.99453453568603,-20.22864811502259],[-43.9945669898634,-20.22917751625302],[-43.99495150815535,-20.22919817939157],[-43.99511610772713,-20.22945449798692],[-43.99567017707427,-20.22950588909626],[-43.996161142968,-20.22911608176882],[-43.99629360623366,-20.22883356163475],[-43.99647917643058,-20.22891786929337],[-43.99679966025986,-20.22921798116682],[-43.99711893029029,-20.22975517426578],[-43.99739594069991,-20.22976598728146],[-43.99880112494229,-20.22903787781339],[-44.00022087662816,-20.22844268611684],[-44.00048672213621,-20.22859945983783],[-44.0048913977074,-20.2313860787555],[-44.00487134527327,-20.2314118750015],[-44.00757047431217,-20.23207595601708],[-44.01045187776505,-20.23058892200913],[-44.01151084564088,-20.23134793633472],[-44.01272427707933,-20.23171336001473],[-44.01394201091229,-20.23139747069969],[-44.01527213085902,-20.23133321932372],[-44.0149618818162,-20.2323355424071],[-44.01446551590134,-20.2327272095553],[-44.01567670830678,-20.2334511950932],[-44.01847949187299,-20.23482955116431],[-44.02003916256215,-20.23451553213776],[-44.02106268370559,-20.23487983905325],[-44.02117059627041,-20.23584864650534],[-44.01879350545926,-20.23927787742819],[-44.01935101858169,-20.24125326284538],[-44.01758959210569,-20.24343083259317],[-44.01557074267087,-20.24424428146954],[-44.01401141937093,-20.24448653983497],[-44.01276034622423,-20.24404919134788],[-44.01223983781201,-20.24438513129522],[-44.01236930261172,-20.24453354849295],[-44.01251638423648,-20.24498974851042],[-44.01123706222363,-20.24579525637526],[-44.01120884831828,-20.24597444834889],[-44.01178600124211,-20.24634991342886],[-44.01221465831233,-20.24669305665373],[-44.0120821546665,-20.24684935304294],[-44.01231151270643,-20.24748698580605],[-44.0126174841655,-20.24770719814827],[-44.01279108121479,-20.24795121057873],[-44.01337062185505,-20.24821261126424],[-44.01334516569293,-20.24854345856696],[-44.01375136963005,-20.24877748507678],[-44.01336791975824,-20.24953287244354],[-44.01336915382208,-20.25115311206672],[-44.01320344988975,-20.25195510109062],[-44.01300864230286,-20.25253490900167],[-44.01263556028515,-20.25310957382937],[-44.0125071724747,-20.25418462927783],[-44.01219334743241,-20.2547178342088],[-44.01176453895041,-20.25601825923854],[-44.01125575872235,-20.25739057099549],[-44.01055525381395,-20.25760177550175],[-44.01009683654708,-20.2579864683293],[-44.00905940608423,-20.25859738713433],[-44.00864776265993,-20.25879587243636],[-44.007900103436,-20.25925064178774],[-44.00700026757001,-20.2597332332452],[-44.00675037783311,-20.2605194916323],[-44.00675374058071,-20.260538877123],[-44.00671416328855,-20.26051602196617],[-44.0067019995258,-20.26050899851393],[-44.00657222832707,-20.26050242814314],[-44.00623288512485,-20.2604699255284],[-44.00604140207581,-20.26046883998568],[-44.00599505566151,-20.26051547445096],[-44.00598224601363,-20.26051922197937],[-44.0058979996811,-20.26053099806328],[-44.00569699974795,-20.26058399817354],[-44.00562385678036,-20.26062661250541],[-44.00558199969343,-20.26065099830001],[-44.00536600026014,-20.26074499861401],[-44.00515099981299,-20.26077699813023],[-44.00509321069747,-20.2607692196041],[-44.00503411579151,-20.2607612646865],[-44.00494299960189,-20.26074899883105],[-44.0047709996956,-20.26061299868708],[-44.004593443231,-20.26043837673424],[-44.00423364164864,-20.26017474209526],[-44.0037905070475,-20.2598500465236],[-44.00374386963146,-20.25981587444763],[-44.00365932996682,-20.2597539290625],[-44.003478220283,-20.25956722723697],[-44.00348804237086,-20.25955647765959],[-44.00346214905287,-20.25955066078043],[-44.00332868140318,-20.25950566758409],[-44.00331400041571,-20.25949299874753],[-44.00325646177791,-20.25948132139077],[-44.00324263828619,-20.25947666095979],[-44.00323473490346,-20.25947691238594],[-44.0024989738515,-20.25950023318811],[-44.00188256493809,-20.25951976966401],[-44.00123699834875,-20.25949195334219],[-44.00117799969247,-20.25945499867048],[-44.00110800027331,-20.25935799818049],[-44.00107435397243,-20.25930919346508],[-44.00085134958201,-20.25894621780938],[-44.0007264259623,-20.25874288130455],[-44.00061438857281,-20.25856052240783],[-44.00054413797658,-20.25847804734869],[-44.00041507185745,-20.25832652566085],[-44.00030200033383,-20.25820499854911],[-44.00011812962091,-20.25797791397448],[-44.00008500019659,-20.25793699810323],[-44.00006355073747,-20.25791383828883],[-43.99972922112345,-20.25752133306436],[-43.99961400045038,-20.25727499854644],[-43.9996050540732,-20.2572164416697],[-43.99956146185409,-20.25670887223029],[-43.99957500032944,-20.25657399807674],[-43.99957700027387,-20.25636299832846],[-43.99954300044364,-20.25620799860551],[-43.99951300028115,-20.25607399821629],[-43.99924659093261,-20.25588951435293],[-43.99908700033583,-20.25577899806171],[-43.99890840578056,-20.25570468448252],[-43.99888315514949,-20.25569417765152],[-43.99863118342405,-20.25561730526639],[-43.99840799972906,-20.25556399857713],[-43.99825595303787,-20.25552729753893],[-43.997956824276,-20.25547654710559],[-43.99786699977222,-20.2554649979685],[-43.9976470000799,-20.25545299834989],[-43.99744399978344,-20.25547299863267],[-43.99719633795358,-20.25555098072535],[-43.99685863021301,-20.25568776632199],[-43.99669400003538,-20.25578599838747],[-43.99649299992721,-20.25584999857308],[-43.99622437145665,-20.25593468908684],[-43.99596705372601,-20.2560275613156],[-43.99542702854215,-20.25625348125503],[-43.99533800011348,-20.25629599846638],[-43.99507899974665,-20.25641599831848],[-43.99503677165497,-20.25641674476115],[-43.99493181187677,-20.25641859625172],[-43.99490899965495,-20.2564189985743],[-43.99468099989991,-20.25628799880526],[-43.99456610100308,-20.25620438001895],[-43.9942474078592,-20.25601770508323],[-43.99414778041003,-20.25597746294606],[-43.99355323495617,-20.25573730956503],[-43.99354992145862,-20.25573535878629],[-43.99313886570361,-20.25546492704899],[-43.992982144748,-20.25536182180403],[-43.99265679553476,-20.25521462561789],[-43.99251722257222,-20.2551662625226],[-43.9924463409009,-20.25514170102941],[-43.99240897559343,-20.2551362584667],[-43.99239693657897,-20.2551148179565],[-43.99220880724572,-20.25482705215577],[-43.99212842818075,-20.25464791779256],[-43.99195594098535,-20.25444026329076],[-43.99190218586948,-20.25440205726583],[-43.99182443522298,-20.25434679727243],[-43.99160090933731,-20.25418792905493],[-43.9915051179816,-20.25411984610944],[-43.99132999138514,-20.25390956644105],[-43.99131369792609,-20.25388145046463],[-43.9911299907527,-20.25368063729079],[-43.99110746125952,-20.25365601011218],[-43.99104180336058,-20.25359303179001],[-43.99100000020186,-20.25359999967164],[-43.99094495170218,-20.25353118950082],[-43.9908644627526,-20.25343057935314],[-43.99071216762979,-20.25331369163068],[-43.99054297293535,-20.25306507582899],[-43.99050785338929,-20.25298481679986],[-43.99049565984375,-20.25296957443757],[-43.99048499725619,-20.25295624644425],[-43.99047999979332,-20.25294999954372],[-43.99000999992218,-20.25275999939975],[-43.98955598157066,-20.25319933022095],[-43.98931123278667,-20.25344176228756],[-43.98882052473564,-20.25411308536849],[-43.98812711523013,-20.25432630704095],[-43.98674188674396,-20.2536604671938],[-43.98573889604109,-20.25364032525051],[-43.98436909613474,-20.25393361372328],[-43.98421907190561,-20.25363152815318],[-43.98449578135124,-20.25282123930524],[-43.9855934340159,-20.2526354293317],[-43.98629599329779,-20.25210877635655],[-43.98575943455459,-20.25124398204153],[-43.98551454214792,-20.2507416116338],[-43.98583574820515,-20.25042790982368],[-43.98622202623563,-20.24945477529674],[-43.9870649736878,-20.24994906985365],[-43.98740804311495,-20.24991590157768],[-43.987855969946,-20.24950159410638],[-43.98788212222184,-20.24857129782553],[-43.98759655218952,-20.24804021230026],[-43.98759093552691,-20.24766965535145],[-43.98860526882681,-20.24767633833306],[-43.98892065847902,-20.24822733649056],[-43.98911000013663,-20.24816999980208],[-43.98956000037008,-20.248229999803],[-43.98968851017929,-20.24827130612918],[-43.98983999995593,-20.24831999920214],[-43.98999869959239,-20.24827217278077],[-43.99057000046957,-20.24809999941218],[-43.99062860064156,-20.24808658844403],[-43.99073280224499,-20.24801597767184],[-43.99072495759968,-20.24801241416323],[-43.99080000026818,-20.24796999936665],[-43.99101999965587,-20.24775999930578],[-43.99109999985885,-20.2475699994666],[-43.99113170986946,-20.2474304752755],[-43.99115000016301,-20.24734999949687],[-43.9910799998273,-20.24689999903107],[-43.99108000028647,-20.24668999912628],[-43.99108815414377,-20.24664107345358],[-43.9911069397147,-20.24652836143866],[-43.99116999995257,-20.24614999962891],[-43.99117232829066,-20.2461399105792],[-43.99122999992747,-20.24588999970674],[-43.99132771378225,-20.24573854882873],[-43.99133243532388,-20.24572537169647],[-43.99135491462705,-20.2456892438427],[-43.99134848154046,-20.24568058892147],[-43.99119397961721,-20.24547270297196],[-43.99091982578321,-20.24486877273108],[-43.99077827072944,-20.24455694128565],[-43.99067242782215,-20.24421017848511],[-43.99051888491928,-20.24422882313474],[-43.99043172402056,-20.2442158184151],[-43.99035930655086,-20.244190028534],[-43.99020781872481,-20.24413746800092],[-43.99018388155119,-20.24412616159949],[-43.99007357978977,-20.24409523196293],[-43.99000215389252,-20.24405305659378],[-43.98997878494117,-20.24403352854535],[-43.98995456814454,-20.24402209129806],[-43.98987334154438,-20.24401049023477],[-43.9898358916366,-20.24400508467953],[-43.98980406992799,-20.24400871797609],[-43.98975988620696,-20.2440105452884],[-43.98954654593972,-20.24389709648855],[-43.98952228242865,-20.24387690274435],[-43.98940765724707,-20.24372464624812],[-43.98937689994582,-20.24368568025245],[-43.98934655207334,-20.24365076174226],[-43.98932508613553,-20.243626251633],[-43.98934778093501,-20.24358687254513],[-43.98957681432292,-20.2432222496974],[-43.990007679597,-20.24313857946771],[-43.99062762060208,-20.24305599611659],[-43.99101843798188,-20.24311593417337],[-43.99116270834202,-20.24321659743368],[-43.99132422335924,-20.24332929274129],[-43.99171089907267,-20.24360262808714],[-43.99194339943912,-20.2439776417405],[-43.99198224056354,-20.24395884005648],[-43.9920128556793,-20.24394115304663],[-43.99205375998639,-20.24392055160948],[-43.99205915624512,-20.24391584808131],[-43.99220088569618,-20.24383654301925],[-43.99221131378791,-20.24383198223826],[-43.99224753519108,-20.2438190257832],[-43.992432593637,-20.24377895252162],[-43.99254102748628,-20.24384484587102],[-43.99389471753172,-20.24327632684273],[-43.99390120865061,-20.24326066059144],[-43.99401436313278,-20.24321313739621],[-43.99404376213652,-20.2432137306378],[-43.99404475759638,-20.24321331168331],[-43.99516443768629,-20.24323588189589],[-43.99572763716866,-20.24324494910815],[-43.99608811518387,-20.24290271923946],[-43.99640774037065,-20.24211918833459],[-43.9964189239132,-20.24190079671885],[-43.99609145322584,-20.2416220105297],[-43.99624095349144,-20.24118595653081],[-43.99674597786868,-20.2407211674562],[-43.99682362086749,-20.24030623956356],[-43.9969009252886,-20.24020145006077],[-43.99700613805304,-20.2400588289866],[-43.99686206711637,-20.23908952438707],[-43.99640880122854,-20.23881852919797],[-43.99590324105716,-20.23835257357806],[-43.99487665931846,-20.23779902198643],[-43.99414396653454,-20.23818250360997],[-43.99361888707285,-20.23771181543816],[-43.99343924105095,-20.23776616828299],[-43.99329188133461,-20.23761609554742],[-43.99165937701375,-20.23775748640634],[-43.99104090984178,-20.23812007443414],[-43.99075219604999,-20.23764766040505],[-43.99032679223548,-20.23789751232362],[-43.99018733641336,-20.23728134509765],[-43.990540755688,-20.23685902420049],[-43.99042339096711,-20.23631658089069],[-43.99033175944492,-20.23611913680345],[-43.98969697783158,-20.23648470295814],[-43.98873128710751,-20.23660221309531],[-43.98847625770647,-20.23772685987184],[-43.987455713865,-20.239265537716],[-43.98724788173121,-20.23914126396563],[-43.98710327302088,-20.23831584217423],[-43.98723553905461,-20.23802738455121],[-43.98772682208556,-20.23767330802854],[-43.98767101542768,-20.23722992430605],[-43.98805250178091,-20.23717815735363],[-43.98819652372902,-20.23662374468007],[-43.98761995023318,-20.23605428402372],[-43.98798651839112,-20.23582871345334],[-43.98896782476645,-20.23568413057176],[-43.98927962128771,-20.23567863509179],[-43.98956662462327,-20.23450662200691],[-43.98976239177469,-20.23438942812695],[-43.99025865036914,-20.23431569756373],[-43.99006596760557,-20.23386537265843],[-43.98949007539071,-20.2339747269872],[-43.98861721787534,-20.2340785607647],[-43.98830960909246,-20.2342613975529],[-43.98793673481813,-20.23360704670229],[-43.98769973218149,-20.23339842021099],[-43.98726154808023,-20.23300616246524],[-43.98595042872343,-20.233109357398],[-43.98456107654493,-20.23321209074851],[-43.98411931605008,-20.23296954149474],[-43.98407771869743,-20.23234778344916],[-43.9868220410662,-20.23216365371065],[-43.98748339076437,-20.23272745170309],[-43.98910795414985,-20.23307504104907],[-43.98961212306243,-20.23296894332059],[-43.98987794691681,-20.23345045782012],[-43.99045944761948,-20.23325688674679],[-43.99123404367174,-20.23294442752194],[-43.99215280469426,-20.23302354932272],[-43.99265333428806,-20.2332541081424],[-43.99290027935087,-20.23337859807794],[-43.99385694732322,-20.23263334059989],[-43.99253847342504,-20.23236116981994],[-43.99243878055189,-20.23214983464406],[-43.99244420090575,-20.23181449230692],[-43.99364139559231,-20.23168290345381],[-43.99419706585057,-20.23144917269078],[-43.99469893793299,-20.23147050813039],[-43.99460654368243,-20.23113768271154],[-43.9944718928921,-20.23078615226618],[-43.99425873428434,-20.23047724810666],[-43.99353950730292,-20.22907059341776]]]}}]}