{"type":"FeatureCollection","barch":{"title":"Inundacao_A","geometryBasis":"gleba-georreferenciada.geojson","source":"https://rigeo.sgb.gov.br/handle/doc/23395","sourceScale":50000,"displaySimplificationM":1,"contextBufferM":500},"features":[{"type":"Feature","id":171,"properties":{"fid":171,"MUNICIPIO":"BRUMADINHO","UF":"MG","PROCESSO":"Inundação","CLASSE":"Baixa","OBS":"Terrenos baixos a intermediários. Localizam-se em áreas mais elevadas em relação as planícies ou em alto curso de rio (cabeceiras de drenagem)","FONTE":"Produto obtido através de modelagem validada por trabalho de campo pela CPRM em 2022","EXECUCAO":"CPRM (2022)","PROJETO":"Cartas de Suscetibilidade a Movimentos Gravitacionais de Massa e Inundações. Tema: Inundação."},"geometry":{"type":"Polygon","coordinates":[[[-44.01451161831221,-20.221603151512618],[-44.01457525715337,-20.221361904186296],[-44.01454895842168,-20.221265414793326],[-44.014497689412494,-20.221208787468658],[-44.014396402778736,-20.221194569731217],[-44.01427721100265,-20.22122111942648],[-44.01387929854306,-20.221544176930195],[-44.01378722037492,-20.22159470702599],[-44.01346222405416,-20.221602304800168],[-44.01302343320511,-20.22151981170194],[-44.01289888756445,-20.22153495486886],[-44.01272865051922,-20.221606334907033],[-44.01265774699931,-20.221678782956086],[-44.01257722061311,-20.221917322613972],[-44.01256686842434,-20.222115824392148],[-44.01257920222822,-20.222219228815145],[-44.01262639216379,-20.22228633181978],[-44.012690072820995,-20.22234196568559],[-44.012779752388745,-20.22236863242805],[-44.01306222313678,-20.222297726640523],[-44.01347348456772,-20.222155372769524],[-44.01386923411674,-20.221978121157186],[-44.01424615641674,-20.221767456728685],[-44.01451161831221,-20.221603151512618]]]}},{"type":"Feature","id":173,"properties":{"fid":173,"MUNICIPIO":"BRUMADINHO","UF":"MG","PROCESSO":"Inundação","CLASSE":"Baixa","OBS":"Terrenos baixos a intermediários. Localizam-se em áreas mais elevadas em relação as planícies ou em alto curso de rio (cabeceiras de drenagem)","FONTE":"Produto obtido através de modelagem validada por trabalho de campo pela CPRM em 2022","EXECUCAO":"CPRM (2022)","PROJETO":"Cartas de Suscetibilidade a Movimentos Gravitacionais de Massa e Inundações. Tema: Inundação."},"geometry":{"type":"Polygon","coordinates":[[[-44.00013464159872,-20.220813106650965],[-44.0002391784637,-20.2206614965232],[-44.001076711655244,-20.219814309805017],[-44.00152907719384,-20.21950886511331],[-44.00196131308111,-20.219395858623127],[-44.002273411107794,-20.219239370325944],[-44.00230137227238,-20.219202249410223],[-44.002310402150655,-20.219154524791897],[-44.00230341594457,-20.218961101124584],[-44.002282150596514,-20.218903900728588],[-44.00224382159745,-20.218879721719006],[-44.00214068295686,-20.218852441468567],[-44.001979878940865,-20.21884080768823],[-44.00130840750657,-20.219161196469017],[-44.00084396730497,-20.219301148440824],[-44.00069178416533,-20.219394072185672],[-44.00050394663296,-20.219680577786903],[-44.00043312707805,-20.219761221402212],[-43.99989332173032,-20.220139914975007],[-43.99977879052484,-20.220197601219148],[-43.99957787887715,-20.22024120922428],[-43.99948744122529,-20.22024418730369],[-43.99937202468913,-20.220211949077587],[-43.99958316889102,-20.220398568991495],[-43.9999646628657,-20.220694551654837],[-44.00013464159872,-20.220813106650965]]]}},{"type":"Feature","id":233,"properties":{"fid":233,"MUNICIPIO":"BRUMADINHO","UF":"MG","PROCESSO":"Inundação","CLASSE":"Baixa","OBS":"Terrenos baixos a intermediários. Localizam-se em áreas mais elevadas em relação as planícies ou em alto curso de rio (cabeceiras de drenagem)","FONTE":"Produto obtido através de modelagem validada por trabalho de campo pela CPRM em 2022","EXECUCAO":"CPRM (2022)","PROJETO":"Cartas de Suscetibilidade a Movimentos Gravitacionais de Massa e Inundações. Tema: Inundação."},"geometry":{"type":"Polygon","coordinates":[[[-44.0055377802063,-20.200366487847162],[-44.005774880399805,-20.200668984340286],[-44.00649966312919,-20.201164485563652],[-44.00696879078,-20.20158302482899],[-44.007019464661006,-20.201677548048618],[-44.007090042888784,-20.201900761351837],[-44.00707692126993,-20.202041229771332],[-44.0070203209996,-20.20232069960264],[-44.006748301342945,-20.202712967108358],[-44.006303818147565,-20.202989014313715],[-44.00621994191083,-20.20305795897984],[-44.00585652146883,-20.203603024247034],[-44.00559267601496,-20.20386559624054],[-44.00527110095267,-20.20403074324208],[-44.005114587994456,-20.204080952839988],[-44.004857050695286,-20.204119285663698],[-44.00442522026002,-20.20410372179297],[-44.00434889259947,-20.204133076172994],[-44.00417385989583,-20.204377991181374],[-44.00393331856496,-20.204938366042143],[-44.00386598075656,-20.205022735839385],[-44.00366812622673,-20.205211715043355],[-44.00356595672071,-20.20524914458057],[-44.003232607876136,-20.205300851485596],[-44.0030800158277,-20.20524616297458],[-44.00287087118942,-20.205136202889044],[-44.00260827889655,-20.204834936789837],[-44.002466635348604,-20.20444327051351],[-44.002232281332866,-20.204090113276322],[-44.00206908394578,-20.20391827229384],[-44.00162246023816,-20.203575608324268],[-44.00087208876712,-20.203300601675224],[-44.000799914514296,-20.203248948708378],[-44.00070555504738,-20.2031453217487],[-44.00040208407739,-20.203447387955666],[-44.000838693715494,-20.203675763138964],[-44.001367539897274,-20.203812586460668],[-44.001636640932865,-20.203976884700474],[-44.001748813073185,-20.204096841883235],[-44.00226247711634,-20.204770638478525],[-44.002310178212,-20.204864144682336],[-44.002388384570324,-20.20509445048219],[-44.00257224027715,-20.20593597779989],[-44.002572933776555,-20.206051408675364],[-44.00251311892297,-20.20659382996974],[-44.00248696603104,-20.20665495029947],[-44.0024372152766,-20.20670527247386],[-44.00215392699506,-20.206913853573717],[-44.0015838435386,-20.207102142547594],[-44.001483010546615,-20.20711920502557],[-44.001180593276295,-20.207120482297015],[-44.000787157581925,-20.207240447849387],[-44.00046958636595,-20.207259114383262],[-44.00035923252529,-20.207247250466914],[-43.9998785044999,-20.2070891630901],[-43.99923291527697,-20.206909777764846],[-43.9989642857685,-20.20676363223796],[-43.99866687476915,-20.206576010675725],[-43.99848847599565,-20.206500974842253],[-43.998340803587055,-20.206759967084018],[-43.99824247369941,-20.20697072021454],[-43.99860721955976,-20.20712876966215],[-43.99899701063792,-20.207218731561547],[-43.999381893207165,-20.207438148685398],[-43.999721490429756,-20.20759981523507],[-44.000034835189545,-20.207836747314104],[-44.00023027655788,-20.20810138501797],[-44.00025201649019,-20.208196803148184],[-44.000185254598435,-20.208478180176535],[-43.99982681281725,-20.208986244061403],[-43.999681221983984,-20.209365144980506],[-43.999362142719,-20.209885593732785],[-43.998818259895124,-20.210344496056894],[-43.99805511549778,-20.210811459407406],[-43.99763639997654,-20.2111196599029],[-43.99752821548019,-20.211237684506592],[-43.99740673994551,-20.211974689463723],[-43.99735696285651,-20.212431690592975],[-43.9973298264984,-20.21314997696819],[-43.997599471142465,-20.21352689096511],[-43.99768804953908,-20.213721707382124],[-43.997750349800526,-20.213963288805502],[-43.997822293130405,-20.21455247377569],[-43.99779780854875,-20.21465577515271],[-43.99768915058667,-20.214905513001476],[-43.99750915756834,-20.215159540502423],[-43.997361764265094,-20.215268583107445],[-43.99737503759909,-20.215966759143896],[-43.99767686905256,-20.215899772178357],[-43.9977615649923,-20.215866944353458],[-43.99830228040194,-20.215401778390053],[-43.99896454562501,-20.214529745775735],[-43.99910910017809,-20.214162804132158],[-43.999112329108655,-20.214077132752436],[-43.99908074382742,-20.21392082710963],[-43.999054693377246,-20.21381783846869],[-43.99901625237319,-20.213740801844033],[-43.99885353483753,-20.213574997428907],[-43.998401812500006,-20.213230388622076],[-43.998345626890995,-20.213144244890472],[-43.99829184357576,-20.212996227332503],[-43.99820128830199,-20.21260103954746],[-43.99818686023764,-20.212461917029916],[-43.99825419398668,-20.211981132528365],[-43.998317149500934,-20.211814167965063],[-43.99838625462419,-20.21171055138287],[-43.99860762308986,-20.21155297398432],[-43.99871190616121,-20.21152391420543],[-43.999150353291036,-20.211456332048115],[-43.99940075949206,-20.21135216997851],[-43.99950188779778,-20.211281506895705],[-43.999831808006604,-20.210902637381004],[-43.99992137536665,-20.21073344106925],[-43.999969721761715,-20.21058467516138],[-44.000077407492164,-20.209866990486802],[-44.00028253601017,-20.209452837013338],[-44.00037188363382,-20.20936435620546],[-44.00071859815539,-20.20909271282419],[-44.00124310155712,-20.208893150055484],[-44.001614229418834,-20.20888126404861],[-44.00199301197123,-20.2089904072107],[-44.002090555027735,-20.20903844127174],[-44.00233493807857,-20.209250187741315],[-44.00242327051454,-20.2093378978304],[-44.002498027971086,-20.209458527419923],[-44.00268564474969,-20.2098028274216],[-44.00296914648869,-20.210379146485177],[-44.00302761496243,-20.21046733568833],[-44.00340654749447,-20.210763995613764],[-44.003914922943395,-20.211054065059034],[-44.00408492892108,-20.211265240557832],[-44.00426544490631,-20.21162377363505],[-44.00431628850375,-20.211697798212263],[-44.00489383901125,-20.212138830968726],[-44.00500339352705,-20.212410563487975],[-44.005008614559955,-20.212545243234047],[-44.004962025570606,-20.212783857955642],[-44.004738300689205,-20.21337756265909],[-44.00471879218881,-20.213497742518197],[-44.00481043575764,-20.21384475358088],[-44.00489977988758,-20.213952915829232],[-44.005064762421036,-20.21411300024829],[-44.00512684112974,-20.214133927259294],[-44.005217185015546,-20.21412919754309],[-44.00540117432394,-20.214101651498495],[-44.00546935520885,-20.214064758200994],[-44.00550420994666,-20.2139531852551],[-44.00561826748952,-20.213291278767468],[-44.00590478830353,-20.212873317208665],[-44.00599411919421,-20.21281288817287],[-44.0065772580943,-20.212525544187276],[-44.006733231115774,-20.21248199819999],[-44.00689233828483,-20.21248967810523],[-44.00706312523149,-20.212575414984943],[-44.007501373167635,-20.212965051208982],[-44.00782020476694,-20.213357847902177],[-44.00836629289993,-20.213752681409968],[-44.008712151537196,-20.213885380624134],[-44.00914762753839,-20.213909003302028],[-44.009200590607854,-20.21389997971665],[-44.00926236940764,-20.213865051824218],[-44.009402779563665,-20.21372607571391],[-44.00941919993177,-20.21364311122547],[-44.00941096060531,-20.213575321984308],[-44.00936354952445,-20.213468368290076],[-44.0093020471903,-20.213386690393552],[-44.00907053400884,-20.213208137466534],[-44.00853339304618,-20.21286965108316],[-44.00779840742799,-20.2122429227088],[-44.00745681841519,-20.212069957574915],[-44.006767368807886,-20.21176896915555],[-44.00592446406442,-20.211652029223533],[-44.00579964341185,-20.21161922360654],[-44.00566915751936,-20.21155614362576],[-44.005380003692565,-20.211373075594974],[-44.00469090598901,-20.211012711181098],[-44.00423214352472,-20.210523039707365],[-44.00392012488762,-20.21001147883752],[-44.00363722621229,-20.20973643090235],[-44.003094531941365,-20.2089855681929],[-44.00301751497851,-20.208824757125278],[-44.0029577399115,-20.208598093630318],[-44.002956300344415,-20.208476562178788],[-44.00309162467563,-20.207935256716937],[-44.00322019718513,-20.207310122535535],[-44.00359867478017,-20.20667009137819],[-44.0038171081568,-20.20641161678435],[-44.00423812152452,-20.20597039361774],[-44.00436544147908,-20.205638046640136],[-44.0044167233041,-20.205545216244747],[-44.00467566542362,-20.205281614470476],[-44.00476003459599,-20.20521338019164],[-44.005904713847734,-20.20448510725524],[-44.006132467323944,-20.20418015102309],[-44.006213172287815,-20.204110728770388],[-44.0065764990397,-20.20393108443631],[-44.00669939532111,-20.20388834583183],[-44.00699351863069,-20.20381982957962],[-44.007388728134075,-20.203804853519333],[-44.007568058190685,-20.203755422153186],[-44.00766442796925,-20.203709343033385],[-44.00783029352999,-20.203506180304085],[-44.00807171751161,-20.202992833049795],[-44.00845710032886,-20.20254926465097],[-44.00862527318129,-20.202120792317555],[-44.008807276642685,-20.201459406671717],[-44.00844252534113,-20.201189297856228],[-44.00804503892649,-20.200950531638295],[-44.007624610201326,-20.200749821030012],[-44.00718531409125,-20.20058911132874],[-44.00673140834045,-20.200469960131393],[-44.00626729225287,-20.20039352224213],[-44.005797464063235,-20.200360538483203],[-44.0055377802063,-20.200366487847162]]]}},{"type":"Feature","id":234,"properties":{"fid":234,"MUNICIPIO":"BRUMADINHO","UF":"MG","PROCESSO":"Inundação","CLASSE":"Baixa","OBS":"Terrenos baixos a intermediários. Localizam-se em áreas mais elevadas em relação as planícies ou em alto curso de rio (cabeceiras de drenagem)","FONTE":"Produto obtido através de modelagem validada por trabalho de campo pela CPRM em 2022","EXECUCAO":"CPRM (2022)","PROJETO":"Cartas de Suscetibilidade a Movimentos Gravitacionais de Massa e Inundações. Tema: Inundação."},"geometry":{"type":"MultiPolygon","coordinates":[[[[-44.014124873025565,-20.204507753713443],[-44.01404112631322,-20.204740608445235],[-44.01403450786449,-20.20484254094488],[-44.01406907408387,-20.20497804616811],[-44.0141942501332,-20.205265887853642],[-44.014203978549716,-20.20533031013569],[-44.01415716337061,-20.20549350779382],[-44.014098059000766,-20.20561713748797],[-44.01388377924945,-20.20582397701715],[-44.01332683714598,-20.20611781912369],[-44.01301906284036,-20.206329293698673],[-44.01295406286412,-20.20636082091497],[-44.01280790381733,-20.20638377358714],[-44.01268896398834,-20.206430275471522],[-44.012422447878954,-20.2065961763893],[-44.01216627475102,-20.206725697438806],[-44.01211814663871,-20.206807892445916],[-44.012096748497065,-20.206936008422833],[-44.01212322799836,-20.207015205154008],[-44.01224818871639,-20.20724917839805],[-44.01225733614223,-20.207323349811286],[-44.01222042609638,-20.207375184105736],[-44.012178149336115,-20.207404982549605],[-44.01190592215864,-20.20750717990936],[-44.0118650309811,-20.207555804148438],[-44.011848842057844,-20.207604198069255],[-44.01186980134982,-20.207625223111965],[-44.01193305936597,-20.20763466233427],[-44.012137686455894,-20.20762542051485],[-44.012373920805004,-20.207524571548205],[-44.012546276397124,-20.207424300715328],[-44.0126193954963,-20.207350476320332],[-44.0127224373204,-20.207118448086273],[-44.012761986317436,-20.207062738451643],[-44.012839281214625,-20.207023924311606],[-44.013070870551765,-20.20695342584669],[-44.01315004657416,-20.206910710185962],[-44.01379500912697,-20.206287049580798],[-44.01389500748682,-20.20620993846253],[-44.01426498009557,-20.206087276044457],[-44.01441120513626,-20.206063268761472],[-44.01465214232455,-20.206072652619028],[-44.01480574417094,-20.206120674305367],[-44.014877328449366,-20.20616774746269],[-44.01497896783483,-20.20630932520184],[-44.01499238922809,-20.20635404804237],[-44.01498389406302,-20.206398923617922],[-44.014829684288024,-20.206691857397992],[-44.014372723525064,-20.20765439429639],[-44.014282792963805,-20.207788152736406],[-44.01374094425907,-20.20835443463047],[-44.013693314464206,-20.208467106804484],[-44.01363831745394,-20.208688161286204],[-44.013651159514744,-20.208751120709213],[-44.0136997902584,-20.208824320972983],[-44.014259285781186,-20.209506027367137],[-44.01442296840059,-20.210116030568635],[-44.01446314370849,-20.210211761138456],[-44.01466917189409,-20.21041782001801],[-44.01471556553115,-20.21043708129555],[-44.01480308308451,-20.21043717873864],[-44.01502285338299,-20.210409438607396],[-44.01511647264424,-20.21037311177796],[-44.01525998554605,-20.210129535958142],[-44.01528014500001,-20.210048689061484],[-44.01528100775481,-20.209951338337195],[-44.01524439491643,-20.20983753523799],[-44.014910004783154,-20.20918242307807],[-44.014540278122524,-20.208636647739414],[-44.01451956988301,-20.2084820230449],[-44.014517214303154,-20.208285956131324],[-44.014530672385575,-20.208202505310435],[-44.01461512944731,-20.208104771841146],[-44.014902157650475,-20.207891555127024],[-44.01535321991098,-20.20736908032216],[-44.01539717499105,-20.207274690217506],[-44.015493208207324,-20.206937592402788],[-44.015770416159945,-20.20655647387268],[-44.01600312053542,-20.206049372267852],[-44.01604860424573,-20.205978493323478],[-44.016142362475044,-20.20594578392054],[-44.016877601113784,-20.205901108999452],[-44.01698304942131,-20.205883063676865],[-44.01703137289771,-20.205843606245278],[-44.01709151135628,-20.205742563618582],[-44.017208290911995,-20.20545029408784],[-44.01709753919513,-20.20536610291858],[-44.016706097635094,-20.205123943994806],[-44.01629147283788,-20.20491903794784],[-44.015857630120685,-20.204753344368434],[-44.01540871854375,-20.204628447834697],[-44.014949031238324,-20.204545542762112],[-44.014482964358606,-20.20450542198425],[-44.014124873025565,-20.204507753713443]]],[[[-44.019395043278024,-20.207504163685908],[-44.01940844579267,-20.20802518370257],[-44.01942569748035,-20.208089196050587],[-44.019470668453685,-20.20813674549662],[-44.01962117276723,-20.208232239869588],[-44.01972273624838,-20.208247950732616],[-44.01954610363434,-20.207793421584125],[-44.019395043278024,-20.207504163685908]]]]}}]}