{"type":"FeatureCollection","features":[{"type":"Feature","id":"393-0","properties":{"FID":"18","Id":"0","ZONEAMENTO":"ZA-4: Zona de Adensamento 4","SIGLA":"ZA-4","NucleoUrb":"Palhano","Bairro":"Palhano","MACROZONA":"5","AREA_HA":"29,0843","ALTERACAO":"","name":"ZA-4","sourceId":"1TaLSF0pUb8AJXFTHX663iHU8Q3zT74PQ","sourceSha256":"5940316903c4bbba3c28fcd84cbfa35a7f9f6483e275ba56fc00476178b2bff3","sourceDate":"2023","scope":"intersection-with-derived-private-project-boundary","zoneCodeOriginal":"ZA-4","zoneCodeCurrentRule":"ZA-4","areaIntersectionM2":1134.1939575698611,"percentageGrossProject":0.08248058963837471},"geometry":{"type":"MultiPolygon","coordinates":[[[[-44.00681018297361,-20.207590586435654],[-44.00711477299989,-20.2077845773876],[-44.00753260999995,-20.20809093038762],[-44.007538402985055,-20.208091711637096],[-44.00760766026272,-20.208101051747803],[-44.00759210637047,-20.20808464076803],[-44.007570023542094,-20.208065071517805],[-44.00732715444981,-20.207880909637172],[-44.00715043836161,-20.20774858912946],[-44.0066355884157,-20.20747938811149],[-44.00681018297361,-20.207590586435654]]],[[[-44.00646771544029,-20.20704974255839],[-44.00650744099501,-20.207235311035564],[-44.006513451274984,-20.20725639929225],[-44.00656401199988,-20.2074338013876],[-44.00656923547023,-20.20743712819617],[-44.00655246300124,-20.207215541329795],[-44.006412525371296,-20.206781359697754],[-44.00632733276238,-20.20654549547263],[-44.00646771544029,-20.20704974255839]]],[[[-44.00568759109725,-20.20500532521646],[-44.00575505904989,-20.2051544429919],[-44.005774411962015,-20.20519009765821],[-44.00592179709795,-20.205533836934563],[-44.00598573703625,-20.205661545624164],[-44.005941405016316,-20.205496186172713],[-44.005823948877584,-20.20515333886607],[-44.00567792086903,-20.204876766533484],[-44.005638361338015,-20.204912472025644],[-44.00568759109725,-20.20500532521646]]]]}},{"type":"Feature","id":"496-0","properties":{"FID":"118","Id":"0","ZONEAMENTO":"ZAR-1: Zona de Adensamento Restrito 1","SIGLA":"ZAR-1","NucleoUrb":"Palhano","Bairro":"Sem nome","MACROZONA":"6","AREA_HA":"105,405","ALTERACAO":"","name":"ZAR-1","sourceId":"1TaLSF0pUb8AJXFTHX663iHU8Q3zT74PQ","sourceSha256":"5940316903c4bbba3c28fcd84cbfa35a7f9f6483e275ba56fc00476178b2bff3","sourceDate":"2023","scope":"intersection-with-derived-private-project-boundary","zoneCodeOriginal":"ZAR-1","zoneCodeCurrentRule":"ZAR-1","areaIntersectionM2":98605.30244517917,"percentageGrossProject":7.170751909642132},"geometry":{"type":"Polygon","coordinates":[[[-44.01360612784731,-20.216026950112834],[-44.013684687843025,-20.216032352379713],[-44.013710107635625,-20.216019280318417],[-44.0138882894599,-20.215934299730147],[-44.014018203727865,-20.21593078189857],[-44.01412077744433,-20.215909037303447],[-44.01414268967827,-20.21580116017886],[-44.01421680090427,-20.215281990235862],[-44.0142908466175,-20.2147419395564],[-44.01425999854095,-20.21431974540819],[-44.014198561989694,-20.213993203590338],[-44.01413739067923,-20.213921311618634],[-44.01415004323602,-20.213853902029797],[-44.01414648408274,-20.213737431851467],[-44.014125368684894,-20.213637237540578],[-44.01421583741836,-20.21340260664223],[-44.01420821810082,-20.21328841853154],[-44.01424223019793,-20.213107638796316],[-44.014277849928156,-20.212967633631248],[-44.0142909129482,-20.21283007110045],[-44.01433775621814,-20.21262193074591],[-44.01444773650424,-20.212458014718624],[-44.014548762914444,-20.21227912730603],[-44.01465267050887,-20.212169458653584],[-44.0149331948505,-20.21204698129074],[-44.01491080888486,-20.21192963740553],[-44.01497643727096,-20.211757965172723],[-44.01501688004512,-20.2116030364794],[-44.0150663611896,-20.21154043143245],[-44.015265274089266,-20.21143036529685],[-44.01536368008894,-20.211288368164972],[-44.01539723406041,-20.211202039653998],[-44.01537169098622,-20.211149977631525],[-44.015412824811854,-20.21107618549888],[-44.01550248677034,-20.211027036079653],[-44.0154503211135,-20.210831158579186],[-44.01552184768571,-20.210725022987837],[-44.015505502228805,-20.210611615527483],[-44.015395735423965,-20.210620152432764],[-44.01534627665149,-20.210464737933076],[-44.0152503418017,-20.210471611238884],[-44.01519450263658,-20.21041458860415],[-44.01520819145275,-20.210200034139312],[-44.015089780943356,-20.210138162869473],[-44.015053023822404,-20.210039581698734],[-44.01515816739815,-20.209730751266694],[-44.015186084978374,-20.209684992064194],[-44.01515017792951,-20.2096511200277],[-44.015155366138835,-20.20959034513871],[-44.01469672343563,-20.209510306147372],[-44.014523602600235,-20.209470163264967],[-44.01448830128872,-20.20940066562538],[-44.01285864931311,-20.210868084019705],[-44.01343072776297,-20.211255833682205],[-44.01366908556129,-20.211859542589217],[-44.01393958617563,-20.212224265868002],[-44.01404408330444,-20.213107981188887],[-44.01348619574907,-20.213433497612915],[-44.01294427844061,-20.213523664235975],[-44.01248157623057,-20.21428257056946],[-44.01251977333977,-20.214441818897583],[-44.01308477981979,-20.21483376557803],[-44.01285695968102,-20.21513775128306],[-44.01290039365051,-20.215902268773096],[-44.01314464699988,-20.21628482138746],[-44.01315070979195,-20.21628143356843],[-44.01322948674559,-20.21620866079768],[-44.01328490959675,-20.216176000748632],[-44.01345083013609,-20.216113729288647],[-44.01360612784731,-20.216026950112834]]]}},{"type":"Feature","id":"497-0","properties":{"FID":"119","Id":"0","ZONEAMENTO":"ZAR-3: Zona de Adensamento Restrito 3","SIGLA":"ZAR-3","NucleoUrb":"Palhano","Bairro":"Sem nome","MACROZONA":"5","AREA_HA":"73,8202","ALTERACAO":"0","name":"ZAR-3","sourceId":"1TaLSF0pUb8AJXFTHX663iHU8Q3zT74PQ","sourceSha256":"5940316903c4bbba3c28fcd84cbfa35a7f9f6483e275ba56fc00476178b2bff3","sourceDate":"2023","scope":"intersection-with-derived-private-project-boundary","zoneCodeOriginal":"ZAR-3","zoneCodeCurrentRule":"ZAR-2B","legalUpdate":"LC133/2023 art157I; original preservado","areaIntersectionM2":735084.2154735293,"percentageGrossProject":53.45662364136183},"geometry":{"type":"Polygon","coordinates":[[[-44.01071843399993,-20.2101170463876],[-44.01020515199993,-20.20878824538759],[-44.00868000941686,-20.208226267317613],[-44.00879988945289,-20.20843123784032],[-44.00887278166247,-20.208535803117382],[-44.0088931266345,-20.208697285180595],[-44.00889236050654,-20.208818306322076],[-44.00889228010582,-20.208831006744724],[-44.00895331876678,-20.209141965243173],[-44.00892955829822,-20.20923420845533],[-44.00894271236928,-20.209302692218657],[-44.00896305747634,-20.209464174267072],[-44.00896203600109,-20.20962553577806],[-44.00891828123915,-20.20978665620814],[-44.008874845625684,-20.209897351151987],[-44.00875649889683,-20.210027794315057],[-44.00873430206293,-20.210158779961596],[-44.00877550287738,-20.21040106332094],[-44.00876373392725,-20.21057244961614],[-44.00866611467971,-20.21080386416924],[-44.00862267857472,-20.210914559018835],[-44.00856855900265,-20.21102519355853],[-44.00852518663684,-20.21112580328451],[-44.00843837784829,-20.211337107784733],[-44.00841554167087,-20.211568944257902],[-44.00823226190033,-20.21183013128802],[-44.00783467280559,-20.212190962239852],[-44.007350718465865,-20.21269250043321],[-44.00728578589655,-20.212823244288288],[-44.00716929066751,-20.21266121871896],[-44.00716935463592,-20.212651133633592],[-44.00705305157664,-20.212458852738656],[-44.00685038511197,-20.21240727975374],[-44.00666818976686,-20.212497018548717],[-44.00641069756686,-20.21266701480714],[-44.006249932735926,-20.212746788921958],[-44.00600421195992,-20.21274539859623],[-44.00575785060642,-20.212844858735743],[-44.00547988692972,-20.21287354149231],[-44.00530933517059,-20.21281206311379],[-44.00525643033838,-20.2127310799764],[-44.00522688827301,-20.212696432261097],[-44.00518293591186,-20.212820486939318],[-44.00448562607521,-20.214788600330124],[-44.00427463561999,-20.2150966954802],[-44.00444786877606,-20.215401966983492],[-44.00454764830248,-20.21592346434395],[-44.00384750706542,-20.21617977033397],[-44.00368856732511,-20.216944805893373],[-44.0030238458798,-20.21720862060425],[-44.003020133350915,-20.217208599568593],[-44.00302930231366,-20.217214994534828],[-44.00353392107127,-20.21734232236752],[-44.00413250373322,-20.217629102797147],[-44.0051692825275,-20.218005537845567],[-44.00620697519412,-20.218251254830953],[-44.00701448605718,-20.21836476910036],[-44.00798399295053,-20.218435651341252],[-44.00814988032821,-20.218441823837928],[-44.00835482908497,-20.218395144898608],[-44.00849237044208,-20.218379869323144],[-44.00871147747044,-20.218376482066834],[-44.00907564754063,-20.218360769897348],[-44.00925221975916,-20.218360971206955],[-44.00951444738966,-20.218449845623844],[-44.009662805784,-20.2184922329183],[-44.0101191587611,-20.21844867235557],[-44.010153842464085,-20.218437868773247],[-44.01105487899991,-20.218082412387346],[-44.01177335399984,-20.217672264387364],[-44.01249361199995,-20.21697873938736],[-44.012819169999894,-20.21663178038734],[-44.01299473313639,-20.21644463008067],[-44.01309539277368,-20.216332534397846],[-44.01312908781638,-20.21630140755231],[-44.01314464699987,-20.216284821387333],[-44.01290039365053,-20.21590226877308],[-44.01285695968101,-20.21513775128306],[-44.01308477981978,-20.21483376557793],[-44.01251977333975,-20.214441818897583],[-44.01248157623057,-20.21428257056946],[-44.01294427844059,-20.213523664236025],[-44.01348619574905,-20.213433497612915],[-44.01404408330442,-20.213107981188937],[-44.01393958617563,-20.212224265867867],[-44.01366908556126,-20.211859542589217],[-44.01343072776296,-20.211255833682205],[-44.0128586493131,-20.210868084019594],[-44.01448830128868,-20.20940066562529],[-44.014445112225125,-20.209315639290367],[-44.0143741759533,-20.209178456001446],[-44.014156864367855,-20.209132078970832],[-44.014154319905764,-20.20913321318042],[-44.01399680093202,-20.209127051488665],[-44.01389123167478,-20.209197655964356],[-44.01362398885391,-20.209164435243174],[-44.01362406660303,-20.209081953384725],[-44.013591820382366,-20.209080236104022],[-44.01289240801596,-20.20973715763204],[-44.01288702877417,-20.20977782220144],[-44.01281534200819,-20.20980954118501],[-44.01256553399991,-20.210044170387523],[-44.01255962950314,-20.210044403376305],[-44.01253176755961,-20.210073422582834],[-44.01219593726609,-20.21008788966566],[-44.012076127177956,-20.21009306007884],[-44.011869871846734,-20.21009168018496],[-44.01169731538527,-20.21009090995068],[-44.01163393243578,-20.210111707445286],[-44.011510457935096,-20.21015236900581],[-44.01141978959495,-20.210153228628972],[-44.011219573453495,-20.21015578374401],[-44.01089570299774,-20.210158950002015],[-44.010829452467114,-20.210144413626892],[-44.01073548277657,-20.210123616946056],[-44.01073211603941,-20.210116506644383],[-44.01071843399993,-20.2101170463876]]]}},{"type":"Feature","id":"513-0","properties":{"FID":"135","Id":"0","ZONEAMENTO":"ZAR-3: Zona de Adensamento Restrito 3","SIGLA":"ZAR-3","NucleoUrb":"Palhano","Bairro":"Sem nome","MACROZONA":"5","AREA_HA":"30,323","ALTERACAO":"","name":"ZAR-3","sourceId":"1TaLSF0pUb8AJXFTHX663iHU8Q3zT74PQ","sourceSha256":"5940316903c4bbba3c28fcd84cbfa35a7f9f6483e275ba56fc00476178b2bff3","sourceDate":"2023","scope":"intersection-with-derived-private-project-boundary","zoneCodeOriginal":"ZAR-3","zoneCodeCurrentRule":"ZAR-2B","legalUpdate":"LC133/2023 art157I; original preservado","areaIntersectionM2":313990.733437149,"percentageGrossProject":22.833961212746615},"geometry":{"type":"Polygon","coordinates":[[[-44.00426150446376,-20.206220331621587],[-44.004031597443905,-20.206394159078048],[-44.00401626714477,-20.206408586794236],[-44.0038526114507,-20.20658432617025],[-44.003566670364634,-20.206911647297858],[-44.0034185444208,-20.207089193502817],[-44.003369672561995,-20.20717816726977],[-44.00328152247542,-20.207487813454946],[-44.003223556727754,-20.207794549125413],[-44.003176735740546,-20.207944502968324],[-44.003106648321165,-20.20810783051824],[-44.00305097352304,-20.2082055099884],[-44.00300226076266,-20.208278059583037],[-44.002913373904704,-20.208373814836186],[-44.00285666799991,-20.20845045238763],[-44.00274187499991,-20.20859547338762],[-44.00265861899987,-20.208737187387566],[-44.002609483581026,-20.208817782874643],[-44.00253258330159,-20.209001990501108],[-44.00250584605438,-20.2091473780924],[-44.002489534917686,-20.2092841631894],[-44.00248458340047,-20.209417162296077],[-44.002474502442695,-20.20964311151826],[-44.002437323527865,-20.21008289096867],[-44.00238478106202,-20.21088058219453],[-44.00238014040216,-20.21112927373238],[-44.00234544208143,-20.21143393056213],[-44.00230120029966,-20.211765013075],[-44.00225416802327,-20.211944395227516],[-44.002136285542434,-20.212664596133216],[-44.00211636942453,-20.213028882285776],[-44.00211522019456,-20.213213328475003],[-44.002123471811196,-20.213444245612045],[-44.00213457365952,-20.21383644870087],[-44.00214067016021,-20.2140210997237],[-44.002146440244246,-20.214216009600964],[-44.0021592921351,-20.214587384465414],[-44.002149974155955,-20.214971821694277],[-44.002146916218315,-20.215364650461336],[-44.0021538779673,-20.215681780695586],[-44.00216025295696,-20.21588047238554],[-44.00216454963798,-20.21592782621314],[-44.002192344896244,-20.216000146077782],[-44.00227684294046,-20.21609084180984],[-44.00244184159867,-20.216295395172533],[-44.00246189174255,-20.216520143652275],[-44.00250208351155,-20.216738617210073],[-44.00265626631946,-20.21692985766683],[-44.00280872850201,-20.217061153297287],[-44.00302013298741,-20.21720859931506],[-44.00302384599996,-20.217208620387375],[-44.00368856732511,-20.216944805893373],[-44.00384750706542,-20.21617977033397],[-44.00454764830248,-20.21592346434395],[-44.00444786877606,-20.215401966983492],[-44.00427463562001,-20.2150966954802],[-44.00448562607529,-20.21478860033017],[-44.00518293591186,-20.21282048693935],[-44.00522688827301,-20.212696432261097],[-44.0050231240448,-20.212457451649406],[-44.00502427794645,-20.212275920225316],[-44.00508914801633,-20.21215526234773],[-44.00512158301252,-20.212094933397758],[-44.00520698663518,-20.212105502522796],[-44.00543223650988,-20.211965581813484],[-44.00531542342935,-20.211853980509595],[-44.00497406595355,-20.21177136367611],[-44.00486729565186,-20.21176067340158],[-44.004674865474364,-20.211779754044517],[-44.004546343509,-20.21182945297531],[-44.00424804108012,-20.211696651525468],[-44.00419629197152,-20.211434136701484],[-44.00426077737824,-20.211373989598215],[-44.00446414704781,-20.21131462962134],[-44.00465683316774,-20.211255208868312],[-44.00480672142672,-20.211205630883157],[-44.004977271244535,-20.21126710967899],[-44.00523277579111,-20.21140975297644],[-44.00540268523144,-20.21157208218604],[-44.00560292667019,-20.2116350620984],[-44.00562083126589,-20.21158452588315],[-44.00599020964317,-20.211740964286527],[-44.00639502806264,-20.21176932151218],[-44.00656009697642,-20.21180036225499],[-44.00666055944912,-20.211806860053713],[-44.00710493873767,-20.21161812205508],[-44.00715485212508,-20.21156575223793],[-44.00721411270593,-20.211503575149784],[-44.00718965433764,-20.211476451863195],[-44.00723089541739,-20.211370629593212],[-44.0075754502945,-20.21094898764327],[-44.00752254484197,-20.210868005148825],[-44.00750130594702,-20.210847714253187],[-44.00737336110279,-20.210806649534643],[-44.00723473294912,-20.210765524349885],[-44.00708567736415,-20.210683998324637],[-44.00697948335922,-20.210582543573498],[-44.0067990818356,-20.21038990018616],[-44.0067571162662,-20.21026863753425],[-44.00670446742129,-20.210147314467335],[-44.00669429600688,-20.21006657336592],[-44.00667369723996,-20.209945431508327],[-44.00661017325944,-20.20985430326907],[-44.006461374886264,-20.20973243640941],[-44.00627194079972,-20.20965965989332],[-44.00624822088591,-20.2096505471919],[-44.00612053347895,-20.2095691412672],[-44.00602489607496,-20.20948791659501],[-44.00599335847225,-20.209407054570974],[-44.00586573544015,-20.209315563387513],[-44.0056097211458,-20.209253601773067],[-44.00555630478635,-20.20925329941287],[-44.00525710911142,-20.20926169097903],[-44.00509698822525,-20.20924061336189],[-44.004904817586755,-20.20921935406393],[-44.0047456584922,-20.209046999899623],[-44.00460793035204,-20.20886468158247],[-44.00438576283526,-20.208520517538133],[-44.00426940197216,-20.208338320065042],[-44.00418560411077,-20.208075623535837],[-44.00412323699725,-20.207802963003854],[-44.00411486315332,-20.207439839503458],[-44.00415913518248,-20.207198039748828],[-44.00426782640047,-20.20690617784],[-44.004429099014715,-20.206745724608037],[-44.00468664729353,-20.20656564573831],[-44.00506209330065,-20.206325721435856],[-44.00519093088776,-20.206225596467025],[-44.005331284202725,-20.20599442573961],[-44.00521505208997,-20.205792058699487],[-44.00506548961025,-20.20579121185268],[-44.00490575682821,-20.205709623684868],[-44.00486229748341,-20.205732742219396],[-44.004791124539736,-20.205824033555892],[-44.00470564401237,-20.205901361539695],[-44.00434294818194,-20.206134100560995],[-44.004337554081076,-20.206138204932422],[-44.00426150446376,-20.206220331621587]]]}},{"type":"Feature","id":"589-0","properties":{"FID":"213","Id":"0","ZONEAMENTO":"ZPAM: Zona de Proteção Ambiental","SIGLA":"ZPAM","NucleoUrb":"Palhano","Bairro":"Sem nome","MACROZONA":"5","AREA_HA":"54,772","ALTERACAO":"","name":"ZPAM","sourceId":"1TaLSF0pUb8AJXFTHX663iHU8Q3zT74PQ","sourceSha256":"5940316903c4bbba3c28fcd84cbfa35a7f9f6483e275ba56fc00476178b2bff3","sourceDate":"2023","scope":"intersection-with-derived-private-project-boundary","zoneCodeOriginal":"ZPAM","zoneCodeCurrentRule":"ZPAM","areaIntersectionM2":206029.4501172707,"percentageGrossProject":14.9828258342629},"geometry":{"type":"MultiPolygon","coordinates":[[[[-44.00592179709795,-20.205533836934563],[-44.005774411962015,-20.20519009765821],[-44.00575505904989,-20.2051544429919],[-44.00568759109725,-20.20500532521646],[-44.005638361338015,-20.204912472025644],[-44.00525913473239,-20.205254751621236],[-44.00511616101498,-20.205407118158597],[-44.00486229748341,-20.205732742219396],[-44.00490575682821,-20.205709623684868],[-44.00506548961025,-20.20579121185268],[-44.00521505208997,-20.205792058699487],[-44.005331284202725,-20.20599442573961],[-44.00519093088776,-20.206225596467025],[-44.00506209330065,-20.206325721435856],[-44.00468664729353,-20.20656564573831],[-44.004429099014715,-20.206745724608037],[-44.00426782640047,-20.20690617784],[-44.00415913518248,-20.207198039748828],[-44.00411486315332,-20.207439839503458],[-44.00412323699725,-20.207802963003854],[-44.00418560411077,-20.208075623535837],[-44.00426940197216,-20.208338320065042],[-44.00438576283526,-20.208520517538133],[-44.00460793035204,-20.20886468158247],[-44.0047456584922,-20.209046999899623],[-44.004904817586755,-20.20921935406393],[-44.00509698822525,-20.20924061336189],[-44.00525710911142,-20.20926169097903],[-44.00555630478635,-20.20925329941287],[-44.0056097211458,-20.209253601773067],[-44.00586573544015,-20.209315563387513],[-44.00599335847225,-20.209407054570974],[-44.00602489607496,-20.20948791659501],[-44.00612053347895,-20.2095691412672],[-44.00624822088591,-20.2096505471919],[-44.00627194079972,-20.20965965989332],[-44.006461374886264,-20.20973243640941],[-44.00661017325944,-20.20985430326907],[-44.00667369723996,-20.209945431508327],[-44.00669429600688,-20.21006657336592],[-44.00670446742129,-20.210147314467335],[-44.0067571162662,-20.21026863753425],[-44.0067990818356,-20.21038990018616],[-44.00697948335922,-20.210582543573498],[-44.00708567736415,-20.210683998324637],[-44.00723473294912,-20.210765524349885],[-44.00737336110279,-20.210806649534643],[-44.00750130594702,-20.210847714253187],[-44.00752254484197,-20.210868005148825],[-44.0075754502945,-20.21094898764327],[-44.00723089541739,-20.211370629593212],[-44.00718965433767,-20.21147645186318],[-44.0072141127059,-20.211503575149777],[-44.00715485212508,-20.21156575223793],[-44.00710493873762,-20.211618122055043],[-44.00666055944907,-20.211806860053713],[-44.00656009697644,-20.21180036225499],[-44.00639502806264,-20.21176932151218],[-44.00599020964315,-20.211740964286527],[-44.00562083126591,-20.21158452588312],[-44.00560292667019,-20.2116350620984],[-44.00540268523144,-20.21157208218604],[-44.00523277579111,-20.21140975297644],[-44.004977271244535,-20.21126710967899],[-44.00480672142672,-20.211205630883157],[-44.00465683316774,-20.211255208868312],[-44.00446414704781,-20.21131462962134],[-44.00426077737824,-20.211373989598215],[-44.00419629197152,-20.211434136701484],[-44.00424804108012,-20.211696651525468],[-44.004546343509,-20.21182945297531],[-44.004674865474364,-20.211779754044517],[-44.00486729565186,-20.21176067340158],[-44.00497406595355,-20.21177136367611],[-44.00531542342935,-20.211853980509595],[-44.00543223650988,-20.211965581813484],[-44.00520698663518,-20.212105502522796],[-44.00512158301252,-20.212094933397758],[-44.00508914801633,-20.21215526234773],[-44.00502427794645,-20.212275920225316],[-44.0050231240448,-20.212457451649406],[-44.00522688827301,-20.212696432261097],[-44.00525643033838,-20.2127310799764],[-44.00530933517059,-20.21281206311377],[-44.00547988692972,-20.21287354149231],[-44.00575785060642,-20.212844858735743],[-44.00600421195992,-20.21274539859623],[-44.0062499327359,-20.212746788921958],[-44.00641069756686,-20.21266701480712],[-44.00666818976686,-20.212497018548717],[-44.00685038511197,-20.21240727975374],[-44.00705305157663,-20.212458852738656],[-44.00716935463591,-20.212651133633567],[-44.00716929066748,-20.21266121871894],[-44.00728578589653,-20.212823244288277],[-44.00735071846583,-20.212692500433196],[-44.0078346728056,-20.21219096223983],[-44.0082322619003,-20.21183013128802],[-44.00841554167087,-20.211568944257902],[-44.00843837784827,-20.21133710778471],[-44.00852518663684,-20.211125803284496],[-44.00856855900265,-20.21102519355853],[-44.00862267857471,-20.21091455901882],[-44.00866611467971,-20.210803864169225],[-44.00876373392725,-20.21057244961614],[-44.00877550287738,-20.21040106332091],[-44.00873430206289,-20.210158779961567],[-44.00875649889683,-20.210027794315057],[-44.00887484562567,-20.209897351151987],[-44.00891828123915,-20.20978665620814],[-44.00896203600109,-20.20962553577806],[-44.00896305747634,-20.209464174267072],[-44.008942712369254,-20.209302692218625],[-44.00892955829822,-20.20923420845533],[-44.00895331876678,-20.209141965243173],[-44.0088922801058,-20.20883100674471],[-44.00889236050653,-20.208818306322076],[-44.00889312663448,-20.20869728518058],[-44.00887278166245,-20.208535803117382],[-44.00879988945289,-20.20843123784032],[-44.00868000941693,-20.2082262673176],[-44.00867503546335,-20.2082251302837],[-44.00857195099996,-20.20820156538763],[-44.00823586899996,-20.208168662387656],[-44.00802014999991,-20.208147596387633],[-44.00793259153558,-20.208140102659442],[-44.007905835811016,-20.208165270078318],[-44.00777669922854,-20.208178730290744],[-44.00774003431946,-20.208168794368298],[-44.007664177991856,-20.20814850878425],[-44.007592106370645,-20.208084640768188],[-44.00760012420585,-20.208093100421767],[-44.00760766026272,-20.208101051747803],[-44.007538402985055,-20.208091711637096],[-44.00753260999995,-20.20809093038762],[-44.00711477299991,-20.20778457738762],[-44.00705085384982,-20.207743867874186],[-44.00681018297361,-20.207590586435654],[-44.0066355884157,-20.20747938811149],[-44.00656983172821,-20.20744500555764],[-44.00656923547023,-20.20743712819617],[-44.00656401199988,-20.2074338013876],[-44.006513451274984,-20.20725639929225],[-44.00650744099499,-20.207235311035507],[-44.00646771544029,-20.20704974255839],[-44.00632733276238,-20.20654549547263],[-44.00627188941613,-20.20639199466546],[-44.006050322923436,-20.205902451873012],[-44.00598573703625,-20.205661545624164],[-44.00592179709795,-20.205533836934563]]],[[[-44.00426150446374,-20.20622033162161],[-44.004337554081054,-20.20613820493244],[-44.00422108482709,-20.206226826293936],[-44.00410558912541,-20.20632452365453],[-44.00403159744391,-20.206394159078048],[-44.00426150446374,-20.20622033162161]]]]}},{"type":"Feature","id":"597-0","properties":{"FID":"221","Id":"0","ZONEAMENTO":"ZAR-2B: Zona de Adensamento Restrito 2B","SIGLA":"ZAR-2B","NucleoUrb":"Palhano","Bairro":"Condomínio Boa Vista","MACROZONA":"5","AREA_HA":"55,5868","ALTERACAO":"2","name":"ZAR-2B","sourceId":"1TaLSF0pUb8AJXFTHX663iHU8Q3zT74PQ","sourceSha256":"5940316903c4bbba3c28fcd84cbfa35a7f9f6483e275ba56fc00476178b2bff3","sourceDate":"2023","scope":"intersection-with-derived-private-project-boundary","zoneCodeOriginal":"ZAR-2B","zoneCodeCurrentRule":"ZAR-2B","areaIntersectionM2":1973.4344350326705,"percentageGrossProject":0.14351164078048936},"geometry":{"type":"MultiPolygon","coordinates":[[[[-44.00802014999991,-20.208147596387633],[-44.00823586899996,-20.208168662387656],[-44.00857195099996,-20.20820156538763],[-44.00867503546333,-20.208225130283726],[-44.00868000941692,-20.208226267317592],[-44.00944439696639,-20.208507927730672],[-44.0102051519999,-20.208788245387563],[-44.01069404517637,-20.21005390832833],[-44.01071843399991,-20.2101170463876],[-44.01072128537533,-20.210116933903677],[-44.01073211603941,-20.210116506644376],[-44.01070082385571,-20.210050419817755],[-44.010737893820036,-20.209967614089578],[-44.01077405503503,-20.209947758247754],[-44.01056301629993,-20.20962862290123],[-44.01027814080703,-20.20896274315046],[-44.010239670777004,-20.208826804486883],[-44.010240225622496,-20.20869504974464],[-44.01011090926461,-20.208668461914932],[-44.00995760317244,-20.20862100275224],[-44.0096896318673,-20.208542235529237],[-44.009396846894724,-20.20844565246809],[-44.00918375103413,-20.208340028660906],[-44.009015124262454,-20.208272626287282],[-44.008750187940436,-20.20823535643386],[-44.00862910637218,-20.208212080984744],[-44.00838617622952,-20.208166877480608],[-44.00815713808034,-20.20814089017452],[-44.00804187868274,-20.208128389014213],[-44.00795740907914,-20.20811675835365],[-44.00793259153558,-20.208140102659442],[-44.00802014999991,-20.208147596387633]]],[[[-44.013448707741745,-20.20910273820754],[-44.01339613739877,-20.209089546554946],[-44.013346972569735,-20.20911930155294],[-44.01330221203575,-20.209181697616398],[-44.01319439801397,-20.209265927438388],[-44.01316250632637,-20.209385157959513],[-44.013448707741745,-20.20910273820754]]]]}},{"type":"Feature","id":"599-0","properties":{"FID":"223","Id":"0","ZONEAMENTO":"ZEIS-1B: Zona Especial de Interesse Social 1B","SIGLA":"ZEIS-1B","NucleoUrb":"Palhano","Bairro":"Candeias","MACROZONA":"5","AREA_HA":"8,57577","ALTERACAO":"","name":"ZEIS-1B","sourceId":"1TaLSF0pUb8AJXFTHX663iHU8Q3zT74PQ","sourceSha256":"5940316903c4bbba3c28fcd84cbfa35a7f9f6483e275ba56fc00476178b2bff3","sourceDate":"2023","scope":"intersection-with-derived-private-project-boundary","zoneCodeOriginal":"ZEIS-1B","zoneCodeCurrentRule":"ZEIS-1B","areaIntersectionM2":826.3512332339697,"percentageGrossProject":0.06009372251600776},"geometry":{"type":"MultiPolygon","coordinates":[[[[-44.01437417595331,-20.20917845600146],[-44.01432998631518,-20.209092997758706],[-44.01428193376426,-20.209019080347385],[-44.01421352932504,-20.209106820204443],[-44.014156864367855,-20.209132078970832],[-44.01437417595331,-20.20917845600146]]],[[[-44.01359182038244,-20.20908023610403],[-44.01354190382532,-20.209077577773346],[-44.013485924155034,-20.209082157248304],[-44.01346376043172,-20.20910651542628],[-44.013448707741745,-20.20910273820754],[-44.01316250632637,-20.209385157959513],[-44.0131561451184,-20.20940893999841],[-44.01304301435133,-20.209512186037244],[-44.01299794654732,-20.20963001949325],[-44.012897042445815,-20.2097021234746],[-44.012892408015944,-20.209737157632123],[-44.01359182038244,-20.20908023610403]]],[[[-44.01256553399998,-20.210044170387523],[-44.01281534200834,-20.209809541184953],[-44.01272706855906,-20.209848599159145],[-44.01270836884944,-20.20988948578307],[-44.01255962950314,-20.210044403376305],[-44.01256553399998,-20.210044170387523]]]]}},{"type":"Feature","id":"664-0","properties":{"FID":"291","Id":"0","ZONEAMENTO":"ZAR-3: Zona de Adensamento Restrito 3","SIGLA":"ZAR-3","NucleoUrb":"Palhano","Bairro":"Braga","MACROZONA":"5","AREA_HA":"46,4684","ALTERACAO":"","name":"ZAR-3","sourceId":"1TaLSF0pUb8AJXFTHX663iHU8Q3zT74PQ","sourceSha256":"5940316903c4bbba3c28fcd84cbfa35a7f9f6483e275ba56fc00476178b2bff3","sourceDate":"2023","scope":"intersection-with-derived-private-project-boundary","zoneCodeOriginal":"ZAR-3","zoneCodeCurrentRule":"ZAR-2B","legalUpdate":"LC133/2023 art157I; original preservado","areaIntersectionM2":55.24208338335977,"percentageGrossProject":0.004017301961363272},"geometry":{"type":"Polygon","coordinates":[[[-44.00265861899982,-20.208737187387516],[-44.00274187499986,-20.20859547338762],[-44.00285666799987,-20.20845045238763],[-44.00291337390428,-20.208373814836644],[-44.002818683893615,-20.208475821473858],[-44.00272416368234,-20.208609364983406],[-44.00264089346943,-20.208742543199588],[-44.00260948358117,-20.20881778287432],[-44.00265861899982,-20.208737187387516]]]}}]}