{"type":"FeatureCollection","features":[{"type":"Feature","id":112,"geometry":{"type":"Polygon","coordinates":[[[-48.701744737155494,-26.893323738903455],[-48.70181011402347,-26.89403675511006],[-48.7018734733032,-26.89533109003045],[-48.701904736451674,-26.896074739184733],[-48.70190673730374,-26.89610973863165],[-48.701453737420664,-26.896095739483002],[-48.70053973678213,-26.896112739372363],[-48.70050373717747,-26.895569739421326],[-48.70046273735794,-26.895019738992342],[-48.70041473736333,-26.89452573917629],[-48.70041173714938,-26.89398073894488],[-48.70036173684259,-26.89341473866727],[-48.7010467368761,-26.893368739389853],[-48.701744737155494,-26.893323738903455]]]},"properties":{"objectid":112,"cd_geocodi":"420820305000111","nm_bairro":"Cordeiros","cd_geocodm":"4208203","nm_municip":"ITAJA0"}},{"type":"Feature","id":106,"geometry":{"type":"Polygon","coordinates":[[[-48.714046875389975,-26.891243668601742],[-48.71482487513031,-26.891411669209127],[-48.715056875258696,-26.891460668699214],[-48.71529087529977,-26.891468668644045],[-48.71573987519508,-26.89145566851758],[-48.71600587456996,-26.89141966904428],[-48.71633287457373,-26.891359668691667],[-48.71670787540911,-26.89127866861855],[-48.716827875000455,-26.891245668959783],[-48.71791187528041,-26.89102466843207],[-48.71885987542277,-26.890808668406812],[-48.71964587537575,-26.890648668776635],[-48.72136287540818,-26.89033066838824],[-48.721306874480625,-26.89046366914307],[-48.721218875157895,-26.890671668583938],[-48.720805874534776,-26.89164666839086],[-48.720596875125246,-26.892161669150976],[-48.72055687475403,-26.892243668729034],[-48.71990973722297,-26.893796739340278],[-48.718996737146995,-26.895932738813094],[-48.71825287482283,-26.89768366900121],[-48.71765787463878,-26.899116669046705],[-48.71726087520668,-26.900107669108838],[-48.71712187496858,-26.900458668611886],[-48.71699787447549,-26.90081366919041],[-48.716915875289466,-26.90113166907112],[-48.716829874783805,-26.901475668598113],[-48.71673487499302,-26.90181866876172],[-48.71660787465551,-26.90213666874661],[-48.71653487490831,-26.90232066888324],[-48.716375874981665,-26.9027206687747],[-48.71636087527118,-26.902754668514294],[-48.71619487519223,-26.903127669220094],[-48.71599487486792,-26.903529669200424],[-48.71578187507692,-26.903909668911478],[-48.715539874989275,-26.904334668577913],[-48.71541387490455,-26.90457166899118],[-48.71528387494822,-26.90483566884396],[-48.71508687515169,-26.90530466901544],[-48.715007875308046,-26.90548366887183],[-48.71465787482498,-26.906323668985884],[-48.71443187531554,-26.906852668466726],[-48.714227875399416,-26.907356668652174],[-48.71390887453298,-26.908130668904597],[-48.71389687510357,-26.908158668707085],[-48.71379714813353,-26.908396441100788],[-48.71363817228402,-26.90840161159247],[-48.71336810565696,-26.9081826750273],[-48.71333873656866,-26.908132738972522],[-48.712045736534385,-26.90739973898274],[-48.71200373663483,-26.907236739252994],[-48.71190087494963,-26.905970668981116],[-48.71182887445569,-26.90505266870331],[-48.71173287539756,-26.90350266883247],[-48.71160187534201,-26.902225669089873],[-48.711600108869405,-26.902189681673725],[-48.711480736968845,-26.900946738981617],[-48.71141773695934,-26.900808739288536],[-48.71139073684495,-26.900792738919765],[-48.71138073683472,-26.900763739202446],[-48.71124073743743,-26.900694739146196],[-48.70914573699808,-26.90044073903835],[-48.706491736805745,-26.90003673918107],[-48.706371737121955,-26.899959738866826],[-48.706238874717066,-26.897146669169413],[-48.70623387539452,-26.896806668555936],[-48.70607373653353,-26.893647738582118],[-48.70604073737778,-26.89313373868721],[-48.70538373670184,-26.893166739458646],[-48.705296737348654,-26.890723739025155],[-48.7051097374368,-26.888059738938377],[-48.70510053245058,-26.887973753480697],[-48.70521073689407,-26.887965739355426],[-48.70564473728671,-26.887953739021377],[-48.70586373645059,-26.88795173886956],[-48.70614373689162,-26.887972738978053],[-48.70640473662254,-26.88804073872087],[-48.70660373725073,-26.888122738737817],[-48.706949737308626,-26.888293739411562],[-48.71067973715621,-26.89022673925479],[-48.71088073672304,-26.890279738804505],[-48.710911736662524,-26.890277738868726],[-48.71094073737517,-26.89028773881534],[-48.71097773693898,-26.890311739001127],[-48.711004736963766,-26.890347739332515],[-48.711399875046006,-26.89060166856429],[-48.71163287463308,-26.890705668511323],[-48.711809874724715,-26.89078666877986],[-48.71202287524757,-26.890826668394492],[-48.71289387454035,-26.891012668544246],[-48.714046875389975,-26.891243668601742]]]},"properties":{"objectid":106,"cd_geocodi":"420820305000105","nm_bairro":"Cordeiros","cd_geocodm":"4208203","nm_municip":"ITAJA0"}},{"type":"Feature","id":107,"geometry":{"type":"Polygon","coordinates":[[[-48.711480736968845,-26.900946738981617],[-48.711600108869405,-26.902189681673725],[-48.71160187534201,-26.902225669089873],[-48.71173287539756,-26.90350266883247],[-48.71182887445569,-26.90505266870331],[-48.71190087494963,-26.905970668981116],[-48.71200373663483,-26.907236739252994],[-48.712045736534385,-26.90739973898274],[-48.71333873656866,-26.908132738972522],[-48.71336810565696,-26.9081826750273],[-48.711383967896815,-26.90770253877218],[-48.707742655934766,-26.905212477230318],[-48.705940382452376,-26.904140529120458],[-48.705943105173965,-26.903771685026136],[-48.70596673673427,-26.90373373877449],[-48.70572573711204,-26.89999673901576],[-48.705718737129274,-26.899874738737008],[-48.705568737249365,-26.896841738925367],[-48.70538373670184,-26.893166739458646],[-48.70604073737778,-26.89313373868721],[-48.70607373653353,-26.893647738582118],[-48.70623387539452,-26.896806668555936],[-48.706238874717066,-26.897146669169413],[-48.706371737121955,-26.899959738866826],[-48.706491736805745,-26.90003673918107],[-48.70914573699808,-26.90044073903835],[-48.71124073743743,-26.900694739146196],[-48.71138073683472,-26.900763739202446],[-48.71139073684495,-26.900792738919765],[-48.71141773695934,-26.900808739288536],[-48.711480736968845,-26.900946738981617]]]},"properties":{"objectid":107,"cd_geocodi":"420820305000106","nm_bairro":"Cordeiros","cd_geocodm":"4208203","nm_municip":"ITAJA0"}},{"type":"Feature","id":108,"geometry":{"type":"Polygon","coordinates":[[[-48.70479373719128,-26.893177739126827],[-48.70496973707343,-26.896878738601256],[-48.70509573743566,-26.89979773885418],[-48.70510673664898,-26.899909739212898],[-48.70531373704245,-26.90331973905264],[-48.7052889859561,-26.90335669506164],[-48.705299290284884,-26.903751669853733],[-48.70469147910532,-26.903407477500828],[-48.70470182526922,-26.90300470483156],[-48.70472673669994,-26.902967738902607],[-48.704568736904356,-26.899849739114785],[-48.70457173701846,-26.899728738901977],[-48.704375736874944,-26.896885738628143],[-48.704204737381524,-26.893196739186703],[-48.70479373719128,-26.893177739126827]]]},"properties":{"objectid":108,"cd_geocodi":"420820305000107","nm_bairro":"Cordeiros","cd_geocodm":"4208203","nm_municip":"ITAJA0"}},{"type":"Feature","id":110,"geometry":{"type":"Polygon","coordinates":[[[-48.704204737381524,-26.893196739186703],[-48.704375736874944,-26.896885738628143],[-48.70368473728053,-26.896920738713828],[-48.7029467373763,-26.89692773862484],[-48.70275373736566,-26.89418773933613],[-48.70274679362298,-26.89394892878762],[-48.70279863350744,-26.893946600153175],[-48.703491102506405,-26.89394572622027],[-48.703537736871915,-26.89394473940494],[-48.703507736693126,-26.893230739459174],[-48.704204737381524,-26.893196739186703]]]},"properties":{"objectid":110,"cd_geocodi":"420820305000109","nm_bairro":"Cordeiros","cd_geocodm":"4208203","nm_municip":"ITAJA0"}},{"type":"Feature","id":111,"geometry":{"type":"Polygon","coordinates":[[[-48.700050736733935,-26.887727738682063],[-48.70066373741208,-26.887813739317952],[-48.700893736987304,-26.887838739336043],[-48.701012736713366,-26.887852738756624],[-48.70149973653233,-26.887914738865874],[-48.70201273682396,-26.887970738652875],[-48.70230973665966,-26.888011738629523],[-48.70246784445432,-26.888033463649403],[-48.702468737021626,-26.888095739449657],[-48.7025687367368,-26.89088173892893],[-48.70266073689914,-26.892079739013425],[-48.702728821025765,-26.893330753623257],[-48.7022264736773,-26.893321702216568],[-48.701744737155494,-26.893323738903455],[-48.7010467368761,-26.893368739389853],[-48.70093973689078,-26.891389739081134],[-48.70082073672236,-26.889421738699475],[-48.70018873671885,-26.88948473867754],[-48.70012373742368,-26.887819739372542],[-48.700050736733935,-26.887727738682063]]]},"properties":{"objectid":111,"cd_geocodi":"420820305000110","nm_bairro":"Cordeiros","cd_geocodm":"4208203","nm_municip":"ITAJA0"}},{"type":"Feature","id":113,"geometry":{"type":"Polygon","coordinates":[[[-48.7010467368761,-26.893368739389853],[-48.70036173684259,-26.89341473866727],[-48.70041173714938,-26.89398073894488],[-48.70041473736333,-26.89452573917629],[-48.70046273735794,-26.895019738992342],[-48.69907973658575,-26.895085739265802],[-48.6990590905077,-26.89428720544236],[-48.699034737139854,-26.893466738696606],[-48.69900873656015,-26.892911739333975],[-48.6989017372621,-26.89019773928997],[-48.6988667366667,-26.889617738975208],[-48.69951473673744,-26.889543738690655],[-48.70018873671885,-26.88948473867754],[-48.70082073672236,-26.889421738699475],[-48.70093973689078,-26.891389739081134],[-48.7010467368761,-26.893368739389853]]]},"properties":{"objectid":113,"cd_geocodi":"420820305000112","nm_bairro":"Cordeiros","cd_geocodm":"4208203","nm_municip":"ITAJA0"}},{"type":"Feature","id":123,"geometry":{"type":"Polygon","coordinates":[[[-48.71119492095176,-26.882958155321546],[-48.71125769227857,-26.88455866924066],[-48.71138195448525,-26.885222544788515],[-48.71158179831752,-26.885763298840235],[-48.711940924494016,-26.88644498290154],[-48.71241621576996,-26.886994539313562],[-48.71402272942585,-26.888373852728904],[-48.71408062642595,-26.888385876516907],[-48.71405973664527,-26.889127739044717],[-48.714107875343394,-26.890259668730202],[-48.714046875389975,-26.891243668601742],[-48.71289387454035,-26.891012668544246],[-48.71202287524757,-26.890826668394492],[-48.711809874724715,-26.89078666877986],[-48.71163287463308,-26.890705668511323],[-48.711399875046006,-26.89060166856429],[-48.711004736963766,-26.890347739332515],[-48.71097773693898,-26.890311739001127],[-48.71094073737517,-26.89028773881534],[-48.710911736662524,-26.890277738868726],[-48.71088073672304,-26.890279738804505],[-48.71067973715621,-26.89022673925479],[-48.706949737308626,-26.888293739411562],[-48.70660373725073,-26.888122738737817],[-48.70640473662254,-26.88804073872087],[-48.70614373689162,-26.887972738978053],[-48.70586373645059,-26.88795173886956],[-48.70564473728671,-26.887953739021377],[-48.70521073689407,-26.887965739355426],[-48.70506673670216,-26.885602738889062],[-48.704910737133204,-26.883230738659815],[-48.705354736554604,-26.883210739149106],[-48.70580473674029,-26.883221738995033],[-48.7058582473439,-26.883221004584772],[-48.70800073085727,-26.883155432514407],[-48.70810164274698,-26.883152344045584],[-48.71119492095176,-26.882958155321546]]]},"properties":{"objectid":123,"cd_geocodi":"420820305000122","nm_bairro":"Cordeiros","cd_geocodm":"4208203","nm_municip":"ITAJA0"}},{"type":"Feature","id":124,"geometry":{"type":"Polygon","coordinates":[[[-48.70540060887117,-26.87590583289648],[-48.70568342102915,-26.875924163663374],[-48.706657552598486,-26.876259348495733],[-48.707275549826946,-26.876584058637974],[-48.70805195447832,-26.87716112352094],[-48.70915503759391,-26.877864829450647],[-48.70922113779048,-26.877930678114957],[-48.70998845176904,-26.87853232084462],[-48.71118342848902,-26.882538679202263],[-48.71119492095176,-26.882958155321546],[-48.70810164274698,-26.883152344045584],[-48.70800073085727,-26.883155432514407],[-48.7058582473439,-26.883221004584772],[-48.70580473674029,-26.883221738995033],[-48.705354736554604,-26.883210739149106],[-48.704910737133204,-26.883230738659815],[-48.70436673650985,-26.883250739337086],[-48.70423973734164,-26.88099673871872],[-48.704784737376876,-26.88096573903118],[-48.705245736589305,-26.88093273894352],[-48.70568073741716,-26.880921738941982],[-48.70541373704483,-26.8761447390841],[-48.70540060887117,-26.87590583289648]]]},"properties":{"objectid":124,"cd_geocodi":"420820305000123","nm_bairro":"Cordeiros","cd_geocodm":"4208203","nm_municip":"ITAJA0"}},{"type":"Feature","id":125,"geometry":{"type":"Polygon","coordinates":[[[-48.704033439555424,-26.877331215278215],[-48.70407573707037,-26.878053738640713],[-48.70423973734164,-26.88099673871872],[-48.70383273678524,-26.881005739332732],[-48.703630737014514,-26.881026739048398],[-48.7031317373897,-26.881041739302447],[-48.70247073719397,-26.88108573864023],[-48.70193073681423,-26.88110073907266],[-48.701850975700445,-26.879780921215293],[-48.70182773656541,-26.879374738991018],[-48.70182796839557,-26.878797372546252],[-48.70249433058957,-26.87851294911203],[-48.704033439555424,-26.877331215278215]]]},"properties":{"objectid":125,"cd_geocodi":"420820305000124","nm_bairro":"Cordeiros","cd_geocodm":"4208203","nm_municip":"ITAJA0"}},{"type":"Feature","id":126,"geometry":{"type":"Polygon","coordinates":[[[-48.70182796839557,-26.878797372546252],[-48.70182773656541,-26.879374738991018],[-48.701850975700445,-26.879780921215293],[-48.70193073681423,-26.88110073907266],[-48.70204273662051,-26.883357738905556],[-48.702138737390506,-26.88511173913432],[-48.70221273732287,-26.885703738681457],[-48.70230973665966,-26.888011738629523],[-48.70201273682396,-26.887970738652875],[-48.70149973653233,-26.887914738865874],[-48.701012736713366,-26.887852738756624],[-48.700893736987304,-26.887838739336043],[-48.70066373741208,-26.887813739317952],[-48.70043773719242,-26.88345473943513],[-48.70029073673819,-26.88118073920271],[-48.700224736457734,-26.880000738732413],[-48.70015898589491,-26.879974694855008],[-48.70013023414942,-26.879504640988525],[-48.70037012325652,-26.87945891889518],[-48.70058513173829,-26.87936752934728],[-48.70182796839557,-26.878797372546252]]]},"properties":{"objectid":126,"cd_geocodi":"420820305000125","nm_bairro":"Cordeiros","cd_geocodm":"4208203","nm_municip":"ITAJA0"}},{"type":"Feature","id":131,"geometry":{"type":"Polygon","coordinates":[[[-48.70981371783411,-26.874142443275893],[-48.71042303043906,-26.874916435150443],[-48.70923421881665,-26.87611038380188],[-48.709187736842836,-26.876122738921243],[-48.708802737318926,-26.876491738824416],[-48.70876923842151,-26.87651144994838],[-48.70838894537622,-26.876823705151565],[-48.70833355663486,-26.876900923126588],[-48.70805195447832,-26.87716112352094],[-48.707275549826946,-26.876584058637974],[-48.706657552598486,-26.876259348495733],[-48.70568342102915,-26.875924163663374],[-48.70540060887117,-26.87590583289648],[-48.7049292556375,-26.875973917526416],[-48.704642383081854,-26.876182638275953],[-48.70428437437756,-26.876879127438126],[-48.704033439555424,-26.877331215278215],[-48.70249433058957,-26.87851294911203],[-48.70182796839557,-26.878797372546252],[-48.70058513173829,-26.87936752934728],[-48.70021209729327,-26.87316751719797],[-48.70016510521509,-26.87314270477844],[-48.70011173701643,-26.87311173946461],[-48.70099318437513,-26.872984478426886],[-48.701905736783786,-26.87284273903599],[-48.70210473717483,-26.87284373900422],[-48.70234318841721,-26.8728079713532],[-48.702364737238796,-26.872804739131762],[-48.70258073660505,-26.87276773865562],[-48.70294373698706,-26.872684739151495],[-48.70332873708015,-26.872561739052955],[-48.70392773730007,-26.872158738610135],[-48.70426773660496,-26.87190573916791],[-48.704998737000835,-26.871514738919977],[-48.70534473712998,-26.871339738596987],[-48.70553373679954,-26.871280739063806],[-48.70567773703958,-26.871344739097847],[-48.70666273685759,-26.87291373869125],[-48.70692373725505,-26.873261739485326],[-48.70709373664092,-26.873559739251515],[-48.70724973667514,-26.873828738968886],[-48.70753073734148,-26.874232738860456],[-48.70808573662559,-26.87509873926718],[-48.70842887370737,-26.874888771471316],[-48.70981371783411,-26.874142443275893]]]},"properties":{"objectid":131,"cd_geocodi":"420820305000130","nm_bairro":"Cordeiros","cd_geocodm":"4208203","nm_municip":"ITAJA0"}},{"type":"Feature","id":132,"geometry":{"type":"Polygon","coordinates":[[[-48.7294511670477,-26.867652029336234],[-48.72944987486831,-26.86775366914141],[-48.72945587459505,-26.867929669235274],[-48.72945187499366,-26.868181668548985],[-48.729438875058335,-26.868397668707743],[-48.72942387486067,-26.86860866870126],[-48.729395874520506,-26.868791668683276],[-48.72937087506639,-26.86894166901074],[-48.72935287476026,-26.869088669251553],[-48.72931287441684,-26.869265669043298],[-48.729247875345905,-26.869537669046867],[-48.729205874874886,-26.869705668951433],[-48.72917087494725,-26.869830668423905],[-48.729134874513306,-26.869961668460785],[-48.72906987488822,-26.87016466849512],[-48.72898187515601,-26.87039566920491],[-48.72889287495969,-26.870598668662993],[-48.72880087483054,-26.870817669054027],[-48.72871487460796,-26.871012668505806],[-48.72859887460851,-26.871283668499416],[-48.72847287536444,-26.87156166855544],[-48.72840387476102,-26.871729668939018],[-48.72827187461725,-26.872043668593133],[-48.728089875135524,-26.872471668691404],[-48.72794387492293,-26.872813668806494],[-48.727778875130475,-26.873199669052266],[-48.72766687442243,-26.87346266890863],[-48.72761387538744,-26.87358766887118],[-48.72735887491275,-26.874194669011107],[-48.72725987441519,-26.874429668699957],[-48.727181874518514,-26.87460666893084],[-48.72712487530281,-26.874732669176527],[-48.72706087455502,-26.874880668629256],[-48.72697287492329,-26.875081669169266],[-48.726871874682764,-26.875312669128135],[-48.726846875041645,-26.87536966913322],[-48.726772874858796,-26.875528669030697],[-48.72671187501819,-26.875676668730794],[-48.726660875089415,-26.875799668955977],[-48.72661487503246,-26.87590066841915],[-48.726540875002456,-26.87605866914115],[-48.72648587497849,-26.876203668956528],[-48.726394874928644,-26.87641966910723],[-48.726301874794075,-26.87664366880747],[-48.726234875006384,-26.8768116692553],[-48.72614987490751,-26.877010668813934],[-48.72609387538558,-26.87712666917685],[-48.72588187497314,-26.87764866914803],[-48.72559887505582,-26.878286669111606],[-48.725265875012845,-26.879098668843774],[-48.72517187518191,-26.879316669069553],[-48.72501187535703,-26.8796886689854],[-48.72489387515667,-26.879954669122704],[-48.72479587481047,-26.880186668368946],[-48.72469687491788,-26.880410669239676],[-48.72449987492312,-26.880898668996696],[-48.723840146073755,-26.882331704375638],[-48.723540265955485,-26.883348908015947],[-48.72339001968921,-26.88384543650381],[-48.72320113849807,-26.88453227778366],[-48.7228262370209,-26.886080532706526],[-48.722621905446935,-26.887102694946357],[-48.72233587453452,-26.887936668672097],[-48.721907874784435,-26.888988668931464],[-48.721604875402576,-26.88973766922287],[-48.72146787539948,-26.890073668538285],[-48.72136287540818,-26.89033066838824],[-48.71964587537575,-26.890648668776635],[-48.71885987542277,-26.890808668406812],[-48.71791187528041,-26.89102466843207],[-48.716827875000455,-26.891245668959783],[-48.71670787540911,-26.89127866861855],[-48.71633287457373,-26.891359668691667],[-48.71600587456996,-26.89141966904428],[-48.71573987519508,-26.89145566851758],[-48.71529087529977,-26.891468668644045],[-48.715056875258696,-26.891460668699214],[-48.71482487513031,-26.891411669209127],[-48.714046875389975,-26.891243668601742],[-48.714107875343394,-26.890259668730202],[-48.71405973664527,-26.889127739044717],[-48.71408062642595,-26.888385876516907],[-48.714069874485254,-26.88732766893051],[-48.71404573729182,-26.88618473945764],[-48.713321737051004,-26.882825738665908],[-48.716062737097495,-26.882743738606802],[-48.716355737397414,-26.882501739180306],[-48.71649973707166,-26.881655739373105],[-48.71665673736211,-26.880674739217476],[-48.71730173723096,-26.879367739242557],[-48.71766073673736,-26.879209739011248],[-48.718104736934386,-26.879145739310502],[-48.7189727372237,-26.878917738952357],[-48.719748737337305,-26.878674739129256],[-48.7198567374397,-26.878633738978827],[-48.7200077368184,-26.878606739449864],[-48.720268736771736,-26.87852273864576],[-48.72063273664063,-26.87841873890971],[-48.720892736667835,-26.878354738914894],[-48.72153973686261,-26.87810973938651],[-48.72214373697283,-26.87782273907027],[-48.72240173689588,-26.87766073931053],[-48.72289273675246,-26.877309739117536],[-48.723258736920705,-26.877045739226887],[-48.72388573679409,-26.876451739390024],[-48.72477373707888,-26.875470739476256],[-48.72547373728787,-26.874725738688554],[-48.72581673655918,-26.874201739095728],[-48.72621573713225,-26.87354473940239],[-48.72635373693439,-26.873313738829992],[-48.72681773712602,-26.872340738887488],[-48.72690373657469,-26.872186739243453],[-48.72701173664771,-26.87199173860759],[-48.72708173655243,-26.87185573892676],[-48.727207736511765,-26.87161073940683],[-48.727298737008816,-26.871455738774685],[-48.72734773716259,-26.871265739429266],[-48.72739273719726,-26.87101973895456],[-48.727412736788956,-26.87097573939274],[-48.72743173666705,-26.87087973883316],[-48.72746173738941,-26.870776738917197],[-48.72753673731372,-26.870434738744017],[-48.72759873742826,-26.870115738696345],[-48.72763773717877,-26.86973873888613],[-48.72771973708304,-26.868723739028965],[-48.72778773718404,-26.868152739364586],[-48.72781373737864,-26.86793873903658],[-48.72783973688915,-26.867666738887777],[-48.729064736660504,-26.86763873899812],[-48.72911443370956,-26.8676413715591],[-48.72924328454494,-26.867645711250177],[-48.7294511670477,-26.867652029336234]]]},"properties":{"objectid":132,"cd_geocodi":"420820305000131","nm_bairro":"Salseiros","cd_geocodm":"4208203","nm_municip":"ITAJA0"}},{"type":"Feature","id":133,"geometry":{"type":"Polygon","coordinates":[[[-48.72216938677419,-26.840970534042587],[-48.723009874513345,-26.84168366900222],[-48.726093874429985,-26.84457666924425],[-48.72844587518412,-26.84677566853185],[-48.728887874975975,-26.847280668945338],[-48.72936087516984,-26.84828266869079],[-48.73067787445739,-26.851251668720135],[-48.731058901162186,-26.852816018475384],[-48.73181787520903,-26.854843669178013],[-48.73192887496406,-26.855434668880033],[-48.73226687519775,-26.857030668679077],[-48.73268187474685,-26.858885669108787],[-48.73303887495452,-26.85985566837067],[-48.73373087504409,-26.86189866840774],[-48.73453387521038,-26.864189668935044],[-48.735163874858905,-26.865912668914294],[-48.73514387503708,-26.866950668779563],[-48.73492887536348,-26.86808266841721],[-48.73447087537501,-26.87045266852504],[-48.734292874518474,-26.87116166838509],[-48.73395976795094,-26.87246416432682],[-48.73327582305543,-26.87332968526635],[-48.732356497800815,-26.873307797302257],[-48.731726908272115,-26.873349468930968],[-48.73211528935646,-26.879713479703128],[-48.73219891529665,-26.87969228632655],[-48.732429147331494,-26.879672053219632],[-48.73296879453937,-26.879624628222597],[-48.73297329185122,-26.87962423293435],[-48.733505292107374,-26.87958241641976],[-48.73403556647713,-26.879540735340253],[-48.73477530385179,-26.879482590131317],[-48.734781117005326,-26.8794819162725],[-48.735307222030684,-26.879420918643053],[-48.7354584242421,-26.879445597428884],[-48.736072061858565,-26.87951906100383],[-48.737481903768135,-26.879508277543472],[-48.7388228748808,-26.879608669208032],[-48.740536875132584,-26.879482668442353],[-48.742669874684886,-26.879307669052608],[-48.74352687513637,-26.879302669003977],[-48.744353874900575,-26.879346669159045],[-48.74674216343367,-26.87912289407812],[-48.74692419089171,-26.881777568097288],[-48.747166347848186,-26.88506797943171],[-48.74736478719933,-26.8850528898317],[-48.74741173733756,-26.885050739099597],[-48.747920737096656,-26.885091738800728],[-48.74843673646397,-26.88516773916063],[-48.74907573732234,-26.885296739477642],[-48.749584736661184,-26.885436739399182],[-48.749637814890505,-26.885445569246865],[-48.7498589716915,-26.885508351324468],[-48.749924698275045,-26.884653898064858],[-48.74980200740929,-26.883457663769946],[-48.75082297015621,-26.883370027240343],[-48.750682751966366,-26.881542812299994],[-48.75057320669728,-26.879978504864603],[-48.751475874763486,-26.880018669004734],[-48.751946874815424,-26.88008766893754],[-48.75257287443315,-26.880288668500313],[-48.75458187535132,-26.881198668507803],[-48.75801887534986,-26.88265266922795],[-48.75871787455466,-26.88295266901875],[-48.759144874746895,-26.883198668642496],[-48.75971287480211,-26.88352766879197],[-48.76021287493848,-26.88389766848865],[-48.76087387530458,-26.884405669128597],[-48.76138787480369,-26.884720668749306],[-48.76176087473256,-26.88490466845545],[-48.762291874938434,-26.885084668521202],[-48.76241665676799,-26.88586288329635],[-48.76265081041167,-26.886394231576748],[-48.762841746035136,-26.886827508151907],[-48.76305739176404,-26.887316858891545],[-48.76323809697416,-26.88772692222126],[-48.7640647194103,-26.88861967314057],[-48.76481779129312,-26.88943299196835],[-48.765223119102615,-26.889728506405373],[-48.76564129553202,-26.89003338850315],[-48.7660037169858,-26.89029762025929],[-48.76686096366047,-26.890717574393562],[-48.766548166611884,-26.891514701556723],[-48.76641699423796,-26.892029302549037],[-48.76634636282651,-26.892291649159898],[-48.76629940973297,-26.89223885943583],[-48.76573773670044,-26.89218973943316],[-48.76242273714711,-26.89192673909546],[-48.760664857791355,-26.89175174693836],[-48.75897773660003,-26.891522739105778],[-48.75490573686743,-26.888974739379154],[-48.75407073667248,-26.888424739076207],[-48.75315073733732,-26.887950738941402],[-48.75260273722118,-26.88777573867073],[-48.75202873683494,-26.887617739047048],[-48.751408736623006,-26.887441738849386],[-48.74969273725644,-26.886839739399672],[-48.74898773727514,-26.886593738784363],[-48.74851173649117,-26.886482738817552],[-48.74757673648962,-26.886311738889074],[-48.74268173672096,-26.886215738881354],[-48.74109073709993,-26.88604273938955],[-48.740106737316175,-26.886052739112117],[-48.739279737225864,-26.886348739217567],[-48.738513737389376,-26.886574739306642],[-48.73741273659517,-26.88683273885849],[-48.735406737215,-26.887307739117926],[-48.735045736773074,-26.88738373902613],[-48.73463987475384,-26.88745166875404],[-48.7337947374225,-26.887682738772945],[-48.733550874467504,-26.88774166837687],[-48.730990874692196,-26.888282668436357],[-48.7308478747624,-26.88831166861986],[-48.73034587496497,-26.888413668758467],[-48.729099875141976,-26.888664668529323],[-48.7279918745707,-26.88891166854191],[-48.72609787505541,-26.88931966894595],[-48.724888874776184,-26.889575669118415],[-48.724118874827305,-26.88973766852946],[-48.72251887500942,-26.890077668998153],[-48.72136287540818,-26.89033066838824],[-48.72146787539948,-26.890073668538285],[-48.721604875402576,-26.88973766922287],[-48.721907874784435,-26.888988668931464],[-48.72233587453452,-26.887936668672097],[-48.722621905446935,-26.887102694946357],[-48.7228262370209,-26.886080532706526],[-48.72320113849807,-26.88453227778366],[-48.72339001968921,-26.88384543650381],[-48.723540265955485,-26.883348908015947],[-48.723840146073755,-26.882331704375638],[-48.72449987492312,-26.880898668996696],[-48.72469687491788,-26.880410669239676],[-48.72479587481047,-26.880186668368946],[-48.72489387515667,-26.879954669122704],[-48.72501187535703,-26.8796886689854],[-48.72517187518191,-26.879316669069553],[-48.725265875012845,-26.879098668843774],[-48.72559887505582,-26.878286669111606],[-48.72588187497314,-26.87764866914803],[-48.72609387538558,-26.87712666917685],[-48.72614987490751,-26.877010668813934],[-48.726234875006384,-26.8768116692553],[-48.726301874794075,-26.87664366880747],[-48.726394874928644,-26.87641966910723],[-48.72648587497849,-26.876203668956528],[-48.726540875002456,-26.87605866914115],[-48.72661487503246,-26.87590066841915],[-48.726660875089415,-26.875799668955977],[-48.72671187501819,-26.875676668730794],[-48.726772874858796,-26.875528669030697],[-48.726846875041645,-26.87536966913322],[-48.726871874682764,-26.875312669128135],[-48.72697287492329,-26.875081669169266],[-48.72706087455502,-26.874880668629256],[-48.72712487530281,-26.874732669176527],[-48.727181874518514,-26.87460666893084],[-48.72725987441519,-26.874429668699957],[-48.72735887491275,-26.874194669011107],[-48.72761387538744,-26.87358766887118],[-48.72766687442243,-26.87346266890863],[-48.727778875130475,-26.873199669052266],[-48.72794387492293,-26.872813668806494],[-48.728089875135524,-26.872471668691404],[-48.72827187461725,-26.872043668593133],[-48.72840387476102,-26.871729668939018],[-48.72847287536444,-26.87156166855544],[-48.72859887460851,-26.871283668499416],[-48.72871487460796,-26.871012668505806],[-48.72880087483054,-26.870817669054027],[-48.72889287495969,-26.870598668662993],[-48.72898187515601,-26.87039566920491],[-48.72906987488822,-26.87016466849512],[-48.729134874513306,-26.869961668460785],[-48.72917087494725,-26.869830668423905],[-48.729205874874886,-26.869705668951433],[-48.729247875345905,-26.869537669046867],[-48.72931287441684,-26.869265669043298],[-48.72935287476026,-26.869088669251553],[-48.72937087506639,-26.86894166901074],[-48.729395874520506,-26.868791668683276],[-48.72942387486067,-26.86860866870126],[-48.729438875058335,-26.868397668707743],[-48.72945187499366,-26.868181668548985],[-48.72945587459505,-26.867929669235274],[-48.72944987486831,-26.86775366914141],[-48.7294511670477,-26.867652029336234],[-48.729450875338,-26.86751966889852],[-48.72943287509907,-26.867268668800985],[-48.729419874492,-26.86706966904534],[-48.72937687466837,-26.866761668857013],[-48.729343875274,-26.866551668957523],[-48.729280875227516,-26.866262668872732],[-48.72925787470414,-26.866167668769158],[-48.72922387459199,-26.866021668363217],[-48.72918087450316,-26.865839668795783],[-48.72911287466159,-26.865617668631547],[-48.7290428747655,-26.86541766881651],[-48.728985875263135,-26.865256669022628],[-48.72889187481474,-26.864956668676715],[-48.728807874665705,-26.864705668949476],[-48.72872187443038,-26.864468668392547],[-48.7286588744122,-26.864270668875843],[-48.7285898753581,-26.864057668869123],[-48.72852887516686,-26.863852668626347],[-48.72841987535777,-26.863533668492714],[-48.72835687505305,-26.863348668717983],[-48.72830087450603,-26.86316566848528],[-48.72822387459254,-26.8629046690182],[-48.72816287466356,-26.862722668604043],[-48.72808087510168,-26.862503669235583],[-48.727998875414805,-26.86226666857034],[-48.72792587450073,-26.862021668808893],[-48.72784687517534,-26.86178666922614],[-48.72775687485824,-26.86150366895349],[-48.727675874969684,-26.861269668630488],[-48.727598875093044,-26.861043668776283],[-48.727531874644654,-26.860836668423932],[-48.72746987450286,-26.86065466883126],[-48.72740187474983,-26.860458668618584],[-48.72733587499074,-26.86023566842834],[-48.727266874672566,-26.86000266859313],[-48.72721287475574,-26.859737668900188],[-48.727179737393335,-26.85955273927025],[-48.727138736837205,-26.85932673881572],[-48.72710073713311,-26.859079738672776],[-48.72702687536904,-26.858645668633873],[-48.72696573713056,-26.85824073860092],[-48.72691187464404,-26.857967668565312],[-48.72684773708419,-26.85752773908699],[-48.72674373710698,-26.856901739278733],[-48.7265867143244,-26.856276845717925],[-48.726490000526894,-26.855551489007],[-48.7263739434761,-26.85472941815568],[-48.72637310587535,-26.85462367491408],[-48.72635460050571,-26.854487632718],[-48.72617084311946,-26.85365589027129],[-48.726006429261794,-26.85280480518506],[-48.7257358747284,-26.851686668843218],[-48.725647874807464,-26.851468669203882],[-48.72550887516062,-26.85115966838577],[-48.72542887527862,-26.850988669052693],[-48.72530687509463,-26.85074766903429],[-48.725177875029004,-26.850524668537368],[-48.72502187510848,-26.85027266890238],[-48.72487887445088,-26.850052669113044],[-48.724759874783686,-26.8498746686032],[-48.72462087523634,-26.8496886688873],[-48.72449187458711,-26.849527669168513],[-48.72428487540727,-26.849285669164196],[-48.724128875397696,-26.849109668864056],[-48.72396687448487,-26.84894266852594],[-48.723920875014784,-26.848898668715538],[-48.723762874520915,-26.848746669100304],[-48.723536518820815,-26.84861435926151],[-48.723354940474124,-26.84846482315236],[-48.722172737395894,-26.847475738762608],[-48.71997597726427,-26.845547081374576],[-48.718949597645484,-26.84482748425752],[-48.71927592332225,-26.844354551155508],[-48.720039343804025,-26.84340612332915],[-48.72180524158006,-26.841212277751847],[-48.72216938677419,-26.840970534042587]]]},"properties":{"objectid":133,"cd_geocodi":"420820305000132","nm_bairro":"Salseiros","cd_geocodm":"4208203","nm_municip":"ITAJA0"}},{"type":"Feature","id":134,"geometry":{"type":"Polygon","coordinates":[[[-48.75897773660003,-26.891522739105778],[-48.75934973719855,-26.89216073915722],[-48.759466736759315,-26.892464739309723],[-48.759577737045845,-26.892985738807525],[-48.759923736792615,-26.893160738883793],[-48.760915736954864,-26.893277738594005],[-48.76144373731326,-26.893359738869275],[-48.76197873695587,-26.89357573942834],[-48.763297737261205,-26.894295738934247],[-48.763682737222226,-26.8945357388179],[-48.7639107369503,-26.894880739355486],[-48.76398873653854,-26.895231739006835],[-48.764119736852166,-26.895565738942658],[-48.76409748548159,-26.89562297189674],[-48.7631678752321,-26.897469668807783],[-48.76257787497553,-26.89820966854081],[-48.76222087478985,-26.89895366925514],[-48.762056875356734,-26.89962566876974],[-48.761988875013685,-26.900275668965943],[-48.76214187478593,-26.90154366841897],[-48.76245887514633,-26.902137668443352],[-48.764374875310715,-26.905717668928798],[-48.766603874683064,-26.910112668885503],[-48.75664593859817,-26.904824961756354],[-48.75372792541139,-26.903275484375992],[-48.749065736549106,-26.899275739333152],[-48.748706737047755,-26.898872739370052],[-48.74847273649112,-26.898837739307762],[-48.747447737413204,-26.899386738625967],[-48.746860736805935,-26.899585738858466],[-48.74644273650312,-26.899679738775998],[-48.74614273685361,-26.89972073934405],[-48.74517673674267,-26.899819738942323],[-48.74442073710454,-26.89983173873841],[-48.74428973725663,-26.89976173942057],[-48.74403573670499,-26.899743738662252],[-48.743760736516634,-26.896087739419617],[-48.74296473722947,-26.896105739022488],[-48.74289373741172,-26.895221739178524],[-48.74278873735555,-26.894724739331174],[-48.7432977371306,-26.893911738639066],[-48.74360473658429,-26.89327373939216],[-48.74368273728561,-26.892940739322714],[-48.74354573738542,-26.89257773877981],[-48.74303073698832,-26.89210973865356],[-48.742743736533654,-26.89165973896828],[-48.74256673691316,-26.89115073861155],[-48.74207773708345,-26.890553738814493],[-48.741699736797806,-26.89023773905974],[-48.739578737096615,-26.888839738989677],[-48.738227736588335,-26.887868739156296],[-48.737979736736776,-26.887540739408458],[-48.737770736941464,-26.887394738591432],[-48.737588736883126,-26.887265739120245],[-48.737490736580746,-26.88703173902332],[-48.73741273659517,-26.88683273885849],[-48.738513737389376,-26.886574739306642],[-48.739279737225864,-26.886348739217567],[-48.740106737316175,-26.886052739112117],[-48.74109073709993,-26.88604273938955],[-48.74268173672096,-26.886215738881354],[-48.74757673648962,-26.886311738889074],[-48.74851173649117,-26.886482738817552],[-48.74898773727514,-26.886593738784363],[-48.74969273725644,-26.886839739399672],[-48.751408736623006,-26.887441738849386],[-48.75202873683494,-26.887617739047048],[-48.75260273722118,-26.88777573867073],[-48.75315073733732,-26.887950738941402],[-48.75407073667248,-26.888424739076207],[-48.75490573686743,-26.888974739379154],[-48.75897773660003,-26.891522739105778]]]},"properties":{"objectid":134,"cd_geocodi":"420820305000133","nm_bairro":"Espinheiros","cd_geocodm":"4208203","nm_municip":"ITAJA0"}},{"type":"Feature","id":135,"geometry":{"type":"Polygon","coordinates":[[[-48.73741273659517,-26.88683273885849],[-48.737490736580746,-26.88703173902332],[-48.737588736883126,-26.887265739120245],[-48.737770736941464,-26.887394738591432],[-48.737979736736776,-26.887540739408458],[-48.738227736588335,-26.887868739156296],[-48.739578737096615,-26.888839738989677],[-48.741699736797806,-26.89023773905974],[-48.74207773708345,-26.890553738814493],[-48.74256673691316,-26.89115073861155],[-48.742743736533654,-26.89165973896828],[-48.74303073698832,-26.89210973865356],[-48.74354573738542,-26.89257773877981],[-48.74368273728561,-26.892940739322714],[-48.74360473658429,-26.89327373939216],[-48.7432977371306,-26.893911738639066],[-48.74278873735555,-26.894724739331174],[-48.74289373741172,-26.895221739178524],[-48.74296473722947,-26.896105739022488],[-48.743760736516634,-26.896087739419617],[-48.74403573670499,-26.899743738662252],[-48.74428973725663,-26.89976173942057],[-48.74442073710454,-26.89983173873841],[-48.74517673674267,-26.899819738942323],[-48.74614273685361,-26.89972073934405],[-48.74644273650312,-26.899679738775998],[-48.746860736805935,-26.899585738858466],[-48.747447737413204,-26.899386738625967],[-48.74847273649112,-26.898837739307762],[-48.748706737047755,-26.898872739370052],[-48.749065736549106,-26.899275739333152],[-48.75372792541139,-26.903275484375992],[-48.74797806889723,-26.902965930519663],[-48.74457139137225,-26.903891936161674],[-48.74436773691489,-26.903932739032083],[-48.74401573714384,-26.903897738916346],[-48.74376773666763,-26.903797739463492],[-48.74360473644081,-26.903399739345907],[-48.74336973730135,-26.90291473931273],[-48.74312873647695,-26.902411739183897],[-48.74292573668698,-26.902142739364194],[-48.74266473739945,-26.9017567389293],[-48.742475737091986,-26.901627739214575],[-48.742351736634504,-26.90137573901326],[-48.74238473738989,-26.900521738908296],[-48.74240373667316,-26.899814738681695],[-48.74186273725528,-26.899647738641068],[-48.741477736572456,-26.899150738941742],[-48.74107973716638,-26.898722738720988],[-48.74043373677153,-26.898383739375742],[-48.73996373710083,-26.89823773904797],[-48.73977473694741,-26.89809173923885],[-48.73972873731533,-26.897722738959086],[-48.73966373693438,-26.897453738707085],[-48.73864173721181,-26.89773673938446],[-48.738105737382945,-26.897660738770217],[-48.73726773685961,-26.897618738782658],[-48.73684573658188,-26.897648738845827],[-48.73681573686,-26.896736738970016],[-48.7366147371334,-26.894248738947073],[-48.73655673672232,-26.893285738949615],[-48.736520875067285,-26.893059668751572],[-48.736400874577235,-26.89116266877424],[-48.73620387528664,-26.888512668733267],[-48.73569487471972,-26.888632669182577],[-48.73515973693129,-26.888756739154243],[-48.73510887524039,-26.887927669034408],[-48.735045736773074,-26.88738373902613],[-48.735406737215,-26.887307739117926],[-48.73741273659517,-26.88683273885849]]]},"properties":{"objectid":135,"cd_geocodi":"420820305000134","nm_bairro":"Espinheiros","cd_geocodm":"4208203","nm_municip":"ITAJA0"}},{"type":"Feature","id":136,"geometry":{"type":"Polygon","coordinates":[[[-48.73684573658188,-26.897648738845827],[-48.73726773685961,-26.897618738782658],[-48.738105737382945,-26.897660738770217],[-48.73864173721181,-26.89773673938446],[-48.73966373693438,-26.897453738707085],[-48.73972873731533,-26.897722738959086],[-48.73977473694741,-26.89809173923885],[-48.73996373710083,-26.89823773904797],[-48.74043373677153,-26.898383739375742],[-48.74107973716638,-26.898722738720988],[-48.741477736572456,-26.899150738941742],[-48.74186273725528,-26.899647738641068],[-48.74240373667316,-26.899814738681695],[-48.74238473738989,-26.900521738908296],[-48.742351736634504,-26.90137573901326],[-48.742475737091986,-26.901627739214575],[-48.74266473739945,-26.9017567389293],[-48.74292573668698,-26.902142739364194],[-48.74312873647695,-26.902411739183897],[-48.74336973730135,-26.90291473931273],[-48.74360473644081,-26.903399739345907],[-48.74376773666763,-26.903797739463492],[-48.74401573714384,-26.903897738916346],[-48.74436773691489,-26.903932739032083],[-48.74521673731452,-26.903949738638453],[-48.74573873689071,-26.903815739443942],[-48.746142736628535,-26.903797739430427],[-48.746475736704724,-26.903996739410623],[-48.74680873684044,-26.904224739101824],[-48.74696473699756,-26.904213739196702],[-48.74730473720664,-26.90411373873551],[-48.74758473659909,-26.904253738767395],[-48.74790473646888,-26.904534739232847],[-48.74806773677882,-26.904604738847617],[-48.74834873736841,-26.90484473937207],[-48.748648737097966,-26.904991739152464],[-48.749131737082074,-26.904993739286443],[-48.74942473663724,-26.905192739168605],[-48.74994073687223,-26.905374739015897],[-48.75041673730094,-26.905543738602088],[-48.75061273666128,-26.90579573929548],[-48.75064473721744,-26.905941739012544],[-48.750586736604305,-26.90623973947458],[-48.75052073715518,-26.906491738673775],[-48.75045573711203,-26.906684739324174],[-48.75054773707425,-26.90688973865244],[-48.750703736696856,-26.907263738627435],[-48.75069773719415,-26.907520738820114],[-48.750749737135756,-26.907667739477922],[-48.75101073701407,-26.907871738719173],[-48.751440736945106,-26.90800073913323],[-48.751799737195796,-26.908094739032816],[-48.75210073731033,-26.908386738691746],[-48.7524527370583,-26.908860739162883],[-48.75268073665001,-26.909357739142354],[-48.75286373715404,-26.91035773941954],[-48.75254373743774,-26.910527739041648],[-48.75221073703046,-26.910580739225914],[-48.752021737370185,-26.91051573916381],[-48.75116073676711,-26.909498738792873],[-48.75056073680743,-26.908708739315262],[-48.750227736892406,-26.90846273912101],[-48.749548737080865,-26.908094738991934],[-48.74884473722835,-26.907918739101188],[-48.748230736874035,-26.907936738781785],[-48.7477547373367,-26.90801273862668],[-48.74723273709712,-26.90804773863532],[-48.7468797372641,-26.908047738991385],[-48.74637773693669,-26.908012739298158],[-48.74608373720241,-26.90791873860733],[-48.74563373733409,-26.907725738944563],[-48.745287737362254,-26.907649739449894],[-48.743917736791964,-26.907731739452842],[-48.74370273652993,-26.907784738637694],[-48.74339573692524,-26.907977739112003],[-48.7425407368293,-26.90860873899542],[-48.74198673666918,-26.90891873862718],[-48.74141873722203,-26.909228739324334],[-48.741131736865505,-26.909398738702873],[-48.74077973720559,-26.909644738607117],[-48.74043973665135,-26.91010073933063],[-48.740296736947414,-26.9104397389049],[-48.7402177374057,-26.910913738595934],[-48.740289737431226,-26.911592738748677],[-48.740420736811885,-26.912153739209],[-48.74047273664684,-26.91244673928493],[-48.740302736668596,-26.912574738687344],[-48.73999673725181,-26.91260473935107],[-48.73954573718641,-26.912539738591605],[-48.73918073651435,-26.912305739103164],[-48.73873673707341,-26.912089739453027],[-48.73811673702631,-26.911668738639],[-48.73771273688173,-26.911223738912803],[-48.737275736548135,-26.910831738954506],[-48.73696873738048,-26.910615739352863],[-48.73672073707962,-26.910439738890275],[-48.736361737333645,-26.9101357389976],[-48.73598973680189,-26.909872739295658],[-48.73578773710438,-26.90970873872078],[-48.73531173743959,-26.909474738728342],[-48.73505673715276,-26.909141739188115],[-48.73483473650247,-26.90881973910345],[-48.73469773667457,-26.908632738956552],[-48.73442773660957,-26.908439738672083],[-48.733967737089934,-26.90823573881957],[-48.733485736715835,-26.908039739138975],[-48.73318273694424,-26.9078057389751],[-48.73301673739816,-26.907639739121013],[-48.73284373651424,-26.907420739378498],[-48.732684737129134,-26.90718673910932],[-48.732533736749915,-26.90693773939612],[-48.732428736683055,-26.906657739347654],[-48.732307737327496,-26.906400739262285],[-48.73214973739204,-26.906113739141706],[-48.73202773721619,-26.905960739290606],[-48.73200273651356,-26.905941738969165],[-48.731817736608676,-26.9057827388205],[-48.73158273742152,-26.90560273898256],[-48.73132473698923,-26.905428738596342],[-48.731097736761335,-26.905361738807528],[-48.730991736881755,-26.905384738604727],[-48.73066073684498,-26.90544673935945],[-48.730220736941405,-26.90564573926713],[-48.729948736450595,-26.9056887392554],[-48.72965473711991,-26.905636738595376],[-48.72956273713006,-26.905580739072473],[-48.72916673734718,-26.905397738597532],[-48.728776736596124,-26.905200739128677],[-48.72824073674198,-26.90495773928373],[-48.72766073738165,-26.904765738654447],[-48.72735073681352,-26.90474273947896],[-48.72730373661743,-26.90473873934562],[-48.72690773707346,-26.90480873899869],[-48.726607737159355,-26.9046367388175],[-48.72624373694207,-26.904450738931303],[-48.7260317372239,-26.904349739329437],[-48.72590873700951,-26.904290739258744],[-48.725809737021294,-26.904243739374788],[-48.725577737266875,-26.904189738612846],[-48.725305737006906,-26.904171738628683],[-48.72502173683884,-26.904184738766833],[-48.724990737163594,-26.904186738934122],[-48.724493736775386,-26.904245739260894],[-48.724099737418285,-26.90429673875463],[-48.72379773695784,-26.90433573900811],[-48.72339773662313,-26.904368738780157],[-48.72311973667189,-26.904388739160147],[-48.72280873740807,-26.904370738800274],[-48.72265673677113,-26.904320739306858],[-48.722392736915374,-26.904155739436696],[-48.722110736960985,-26.90387873915243],[-48.72195873703533,-26.903748738785],[-48.72173273727896,-26.90357173931895],[-48.72147273745364,-26.90344273877381],[-48.72132873686638,-26.903328739147664],[-48.72113173667476,-26.903136738967238],[-48.72092073744794,-26.90293873866289],[-48.719936736486616,-26.902443739185653],[-48.71955173692791,-26.902199738922477],[-48.719112736664805,-26.901848739230072],[-48.71920487510582,-26.903404668911598],[-48.719263874500484,-26.90570066910935],[-48.71934887525605,-26.907699668818047],[-48.71939287457247,-26.90975366847777],[-48.71934587476605,-26.910928668793737],[-48.71880387517576,-26.91147666851029],[-48.71384615611059,-26.908414635851653],[-48.71379714813353,-26.908396441100788],[-48.71389687510357,-26.908158668707085],[-48.71390887453298,-26.908130668904597],[-48.714227875399416,-26.907356668652174],[-48.71443187531554,-26.906852668466726],[-48.71465787482498,-26.906323668985884],[-48.715007875308046,-26.90548366887183],[-48.71508687515169,-26.90530466901544],[-48.71528387494822,-26.90483566884396],[-48.71541387490455,-26.90457166899118],[-48.715539874989275,-26.904334668577913],[-48.71578187507692,-26.903909668911478],[-48.71599487486792,-26.903529669200424],[-48.71619487519223,-26.903127669220094],[-48.71636087527118,-26.902754668514294],[-48.716375874981665,-26.9027206687747],[-48.71653487490831,-26.90232066888324],[-48.71660787465551,-26.90213666874661],[-48.71673487499302,-26.90181866876172],[-48.716829874783805,-26.901475668598113],[-48.716915875289466,-26.90113166907112],[-48.71699787447549,-26.90081366919041],[-48.71712187496858,-26.900458668611886],[-48.71726087520668,-26.900107669108838],[-48.71765787463878,-26.899116669046705],[-48.71825287482283,-26.89768366900121],[-48.718996737146995,-26.895932738813094],[-48.71958273699308,-26.896231739075013],[-48.72065973702332,-26.896705738618923],[-48.7210697373318,-26.896848738849584],[-48.72154673719893,-26.89701773941733],[-48.72194173696001,-26.89706273921568],[-48.72230373729636,-26.897026738727252],[-48.72264873736056,-26.89689873910246],[-48.72302673693234,-26.896792739161004],[-48.72345773717062,-26.896826738691693],[-48.72409973675678,-26.896939739302184],[-48.72466373679167,-26.89708273904273],[-48.724929737011145,-26.89735973872798],[-48.72512473711437,-26.89754473893599],[-48.72545473734202,-26.89777273896046],[-48.72576173681122,-26.897914738818503],[-48.7262437369639,-26.89803773899886],[-48.72650173661835,-26.898030738794414],[-48.726686737344004,-26.89798173945279],[-48.72690673713794,-26.897923739210643],[-48.72734873670856,-26.89783273885134],[-48.72743573707911,-26.897812738614547],[-48.72764773722951,-26.897781738776256],[-48.72780273734707,-26.897758739262574],[-48.7283077365393,-26.897677739060942],[-48.72871873702263,-26.897542739181212],[-48.7291107370456,-26.897363739370185],[-48.72940473674593,-26.89719473896964],[-48.729626736439506,-26.897149739238188],[-48.730068737365904,-26.897074738701317],[-48.73029573742844,-26.896994739098215],[-48.730569736769255,-26.89682473866342],[-48.731412736663806,-26.89630573911907],[-48.73181373701638,-26.896004739017993],[-48.73223273658828,-26.895702738972414],[-48.73245473666278,-26.895546739269456],[-48.7327067370601,-26.89548073882398],[-48.73290573717529,-26.895529739235286],[-48.73303373722743,-26.895643739237173],[-48.73327673656641,-26.89587573923915],[-48.7335887369587,-26.89615273912158],[-48.73391773699515,-26.89642973868693],[-48.73440173709235,-26.896765739251638],[-48.73493073677344,-26.897170738934474],[-48.7353647370888,-26.897503738589624],[-48.73570173663324,-26.897715738905593],[-48.736097737159255,-26.897804738927572],[-48.736509737177926,-26.897704739021034],[-48.73684573658188,-26.897648738845827]]]},"properties":{"objectid":136,"cd_geocodi":"420820305000135","nm_bairro":"Espinheiros","cd_geocodm":"4208203","nm_municip":"ITAJA0"}},{"type":"Feature","id":149,"geometry":{"type":"Polygon","coordinates":[[[-48.70510053245058,-26.887973753480697],[-48.7051097374368,-26.888059738938377],[-48.705296737348654,-26.890723739025155],[-48.70538373670184,-26.893166739458646],[-48.70479373719128,-26.893177739126827],[-48.704204737381524,-26.893196739186703],[-48.70407773681244,-26.890826738951922],[-48.70392973696521,-26.888150739462493],[-48.70392243287212,-26.888049831405446],[-48.704005737112425,-26.88804073920303],[-48.70460573657815,-26.888009739033382],[-48.70510053245058,-26.887973753480697]]]},"properties":{"objectid":149,"cd_geocodi":"420820305000148","nm_bairro":"Cordeiros","cd_geocodm":"4208203","nm_municip":"ITAJA0"}},{"type":"Feature","id":142,"geometry":{"type":"Polygon","coordinates":[[[-48.735045736773074,-26.88738373902613],[-48.73510887524039,-26.887927669034408],[-48.73515973693129,-26.888756739154243],[-48.73569487471972,-26.888632669182577],[-48.73620387528664,-26.888512668733267],[-48.736400874577235,-26.89116266877424],[-48.736520875067285,-26.893059668751572],[-48.73655673672232,-26.893285738949615],[-48.7366147371334,-26.894248738947073],[-48.73681573686,-26.896736738970016],[-48.73684573658188,-26.897648738845827],[-48.736509737177926,-26.897704739021034],[-48.736097737159255,-26.897804738927572],[-48.73570173663324,-26.897715738905593],[-48.7353647370888,-26.897503738589624],[-48.73493073677344,-26.897170738934474],[-48.73440173709235,-26.896765739251638],[-48.73391773699515,-26.89642973868693],[-48.7335887369587,-26.89615273912158],[-48.73327673656641,-26.89587573923915],[-48.73303373722743,-26.895643739237173],[-48.73290573717529,-26.895529739235286],[-48.7327067370601,-26.89548073882398],[-48.73245473666278,-26.895546739269456],[-48.73223273658828,-26.895702738972414],[-48.73181373701638,-26.896004739017993],[-48.731412736663806,-26.89630573911907],[-48.730569736769255,-26.89682473866342],[-48.73029573742844,-26.896994739098215],[-48.730068737365904,-26.897074738701317],[-48.729626736439506,-26.897149739238188],[-48.72940473674593,-26.89719473896964],[-48.7291107370456,-26.897363739370185],[-48.72871873702263,-26.897542739181212],[-48.7283077365393,-26.897677739060942],[-48.72780273734707,-26.897758739262574],[-48.72764773722951,-26.897781738776256],[-48.72743573707911,-26.897812738614547],[-48.72734873670856,-26.89783273885134],[-48.72690673713794,-26.897923739210643],[-48.726686737344004,-26.89798173945279],[-48.72650173661835,-26.898030738794414],[-48.7262437369639,-26.89803773899886],[-48.72576173681122,-26.897914738818503],[-48.72545473734202,-26.89777273896046],[-48.72512473711437,-26.89754473893599],[-48.724929737011145,-26.89735973872798],[-48.72466373679167,-26.89708273904273],[-48.72409973675678,-26.896939739302184],[-48.72345773717062,-26.896826738691693],[-48.72302673693234,-26.896792739161004],[-48.72264873736056,-26.89689873910246],[-48.72230373729636,-26.897026738727252],[-48.72194173696001,-26.89706273921568],[-48.72154673719893,-26.89701773941733],[-48.7210697373318,-26.896848738849584],[-48.72065973702332,-26.896705738618923],[-48.71958273699308,-26.896231739075013],[-48.718996737146995,-26.895932738813094],[-48.71990973722297,-26.893796739340278],[-48.72055687475403,-26.892243668729034],[-48.720596875125246,-26.892161669150976],[-48.720805874534776,-26.89164666839086],[-48.721218875157895,-26.890671668583938],[-48.721306874480625,-26.89046366914307],[-48.72136287540818,-26.89033066838824],[-48.72251887500942,-26.890077668998153],[-48.724118874827305,-26.88973766852946],[-48.724888874776184,-26.889575669118415],[-48.72609787505541,-26.88931966894595],[-48.7279918745707,-26.88891166854191],[-48.729099875141976,-26.888664668529323],[-48.73034587496497,-26.888413668758467],[-48.7308478747624,-26.88831166861986],[-48.730990874692196,-26.888282668436357],[-48.733550874467504,-26.88774166837687],[-48.7337947374225,-26.887682738772945],[-48.73463987475384,-26.88745166875404],[-48.735045736773074,-26.88738373902613]]]},"properties":{"objectid":142,"cd_geocodi":"420820305000141","nm_bairro":"Espinheiros","cd_geocodm":"4208203","nm_municip":"ITAJA0"}},{"type":"Feature","id":248,"geometry":{"type":"Polygon","coordinates":[[[-48.70538373670184,-26.893166739458646],[-48.705568737249365,-26.896841738925367],[-48.705718737129274,-26.899874738737008],[-48.70572573711204,-26.89999673901576],[-48.70596673673427,-26.90373373877449],[-48.705943105173965,-26.903771685026136],[-48.705940382452376,-26.904140529120458],[-48.705299290284884,-26.903751669853733],[-48.7052889859561,-26.90335669506164],[-48.70531373704245,-26.90331973905264],[-48.70510673664898,-26.899909739212898],[-48.70509573743566,-26.89979773885418],[-48.70496973707343,-26.896878738601256],[-48.70479373719128,-26.893177739126827],[-48.70538373670184,-26.893166739458646]]]},"properties":{"objectid":248,"cd_geocodi":"420820305000247","nm_bairro":"Cordeiros","cd_geocodm":"4208203","nm_municip":"ITAJA0"}},{"type":"Feature","id":249,"geometry":{"type":"Polygon","coordinates":[[[-48.702728821025765,-26.893330753623257],[-48.70274679362298,-26.89394892878762],[-48.70275373736566,-26.89418773933613],[-48.7029467373763,-26.89692773862484],[-48.70368473728053,-26.896920738713828],[-48.704375736874944,-26.896885738628143],[-48.70457173701846,-26.899728738901977],[-48.70388073717173,-26.89964573860453],[-48.70304373716117,-26.89951973885022],[-48.70209073684023,-26.899405739154947],[-48.70202858486142,-26.898167199736466],[-48.70199473705253,-26.897601738912165],[-48.701969686556176,-26.897163470484987],[-48.70190673730374,-26.89610973863165],[-48.701904736451674,-26.896074739184733],[-48.7018734733032,-26.89533109003045],[-48.70181011402347,-26.89403675511006],[-48.701744737155494,-26.893323738903455],[-48.7022264736773,-26.893321702216568],[-48.702728821025765,-26.893330753623257]]]},"properties":{"objectid":249,"cd_geocodi":"420820305000248","nm_bairro":"Cordeiros","cd_geocodm":"4208203","nm_municip":"ITAJA0"}},{"type":"Feature","id":250,"geometry":{"type":"Polygon","coordinates":[[[-48.70246784445432,-26.888033463649403],[-48.70257173652488,-26.888047739386717],[-48.70263673741406,-26.88805373865825],[-48.70278273667913,-26.888053739484853],[-48.70314973682512,-26.888082738689842],[-48.70349673666434,-26.888087738821994],[-48.703666737434574,-26.88807773924172],[-48.70392243287212,-26.888049831405446],[-48.70392973696521,-26.888150739462493],[-48.70407773681244,-26.890826738951922],[-48.704204737381524,-26.893196739186703],[-48.703507736693126,-26.893230739459174],[-48.703537736871915,-26.89394473940494],[-48.703491102506405,-26.89394572622027],[-48.70279863350744,-26.893946600153175],[-48.70274679362298,-26.89394892878762],[-48.702728821025765,-26.893330753623257],[-48.70266073689914,-26.892079739013425],[-48.7025687367368,-26.89088173892893],[-48.702468737021626,-26.888095739449657],[-48.70246784445432,-26.888033463649403]]]},"properties":{"objectid":250,"cd_geocodi":"420820305000249","nm_bairro":"Cordeiros","cd_geocodm":"4208203","nm_municip":"ITAJA0"}},{"type":"Feature","id":252,"geometry":{"type":"Polygon","coordinates":[[[-48.70190673730374,-26.89610973863165],[-48.701969686556176,-26.897163470484987],[-48.70199473705253,-26.897601738912165],[-48.70202858486142,-26.898167199736466],[-48.70209073684023,-26.899405739154947],[-48.702096736621556,-26.899517739454005],[-48.702206737338955,-26.90145773943647],[-48.702181825894286,-26.90149468504942],[-48.702207003583844,-26.901890111106535],[-48.7017748423125,-26.90154940855788],[-48.70065643817368,-26.900807142275745],[-48.70048173687975,-26.9007107388692],[-48.70061973649534,-26.900525739450835],[-48.70067373656372,-26.90045673946805],[-48.700784737273864,-26.900262738650383],[-48.700779736646396,-26.90007073888658],[-48.700748736461385,-26.899613739179884],[-48.700740737081574,-26.899516739167506],[-48.7007327368763,-26.899379739384486],[-48.70069673653141,-26.89878273937338],[-48.700659737261866,-26.898205739183513],[-48.700615736861614,-26.89764373900421],[-48.700594736460225,-26.897058739289783],[-48.700547737301804,-26.89669573877176],[-48.700569737426505,-26.89647973881589],[-48.70053973678213,-26.896112739372363],[-48.701453737420664,-26.896095739483002],[-48.70190673730374,-26.89610973863165]]]},"properties":{"objectid":252,"cd_geocodi":"420820305000251","nm_bairro":"Cordeiros","cd_geocodm":"4208203","nm_municip":"ITAJA0"}},{"type":"Feature","id":262,"geometry":{"type":"Polygon","coordinates":[[[-48.704910737133204,-26.883230738659815],[-48.70506673670216,-26.885602738889062],[-48.70521073689407,-26.887965739355426],[-48.70510053245058,-26.887973753480697],[-48.70460573657815,-26.888009739033382],[-48.704005737112425,-26.88804073920303],[-48.70392243287212,-26.888049831405446],[-48.703666737434574,-26.88807773924172],[-48.70349673666434,-26.888087738821994],[-48.703382736996524,-26.885665738992614],[-48.70324273658117,-26.883320739045075],[-48.70376773725154,-26.883295739308366],[-48.70436673650985,-26.883250739337086],[-48.704910737133204,-26.883230738659815]]]},"properties":{"objectid":262,"cd_geocodi":"420820305000261","nm_bairro":"Cordeiros","cd_geocodm":"4208203","nm_municip":"ITAJA0"}},{"type":"Feature","id":263,"geometry":{"type":"Polygon","coordinates":[[[-48.70540060887117,-26.87590583289648],[-48.70541373704483,-26.8761447390841],[-48.70568073741716,-26.880921738941982],[-48.705245736589305,-26.88093273894352],[-48.704784737376876,-26.88096573903118],[-48.70423973734164,-26.88099673871872],[-48.70407573707037,-26.878053738640713],[-48.704033439555424,-26.877331215278215],[-48.70428437437756,-26.876879127438126],[-48.704642383081854,-26.876182638275953],[-48.7049292556375,-26.875973917526416],[-48.70540060887117,-26.87590583289648]]]},"properties":{"objectid":263,"cd_geocodi":"420820305000262","nm_bairro":"Cordeiros","cd_geocodm":"4208203","nm_municip":"ITAJA0"}},{"type":"Feature","id":264,"geometry":{"type":"Polygon","coordinates":[[[-48.70423973734164,-26.88099673871872],[-48.70436673650985,-26.883250739337086],[-48.70376773725154,-26.883295739308366],[-48.70324273658117,-26.883320739045075],[-48.70262673678988,-26.883316739294024],[-48.70204273662051,-26.883357738905556],[-48.70193073681423,-26.88110073907266],[-48.70247073719397,-26.88108573864023],[-48.7031317373897,-26.881041739302447],[-48.703630737014514,-26.881026739048398],[-48.70383273678524,-26.881005739332732],[-48.70423973734164,-26.88099673871872]]]},"properties":{"objectid":264,"cd_geocodi":"420820305000263","nm_bairro":"Cordeiros","cd_geocodm":"4208203","nm_municip":"ITAJA0"}},{"type":"Feature","id":265,"geometry":{"type":"Polygon","coordinates":[[[-48.70324273658117,-26.883320739045075],[-48.703382736996524,-26.885665738992614],[-48.70349673666434,-26.888087738821994],[-48.70314973682512,-26.888082738689842],[-48.70278273667913,-26.888053739484853],[-48.70263673741406,-26.88805373865825],[-48.70257173652488,-26.888047739386717],[-48.70246784445432,-26.888033463649403],[-48.70230973665966,-26.888011738629523],[-48.70221273732287,-26.885703738681457],[-48.702138737390506,-26.88511173913432],[-48.70204273662051,-26.883357738905556],[-48.70262673678988,-26.883316739294024],[-48.70324273658117,-26.883320739045075]]]},"properties":{"objectid":265,"cd_geocodi":"420820305000264","nm_bairro":"Cordeiros","cd_geocodm":"4208203","nm_municip":"ITAJA0"}},{"type":"Feature","id":272,"geometry":{"type":"Polygon","coordinates":[[[-48.70163173724229,-26.867646739144863],[-48.70217373702028,-26.86788673865089],[-48.70232873737913,-26.86796173924019],[-48.70268873743911,-26.868091738965646],[-48.70279773683079,-26.86813973897348],[-48.70298273652798,-26.868214739325428],[-48.7030417372212,-26.868342739249858],[-48.703093737017866,-26.868933738999793],[-48.70311373690844,-26.86963673882866],[-48.7031397373143,-26.86990573885793],[-48.70320473676621,-26.870724739398195],[-48.70330873646929,-26.872169738759894],[-48.70330273682778,-26.872386739467416],[-48.70332873708015,-26.872561739052955],[-48.70294373698706,-26.872684739151495],[-48.70258073660505,-26.87276773865562],[-48.702364737238796,-26.872804739131762],[-48.70234318841721,-26.8728079713532],[-48.70210473717483,-26.87284373900422],[-48.701905736783786,-26.87284273903599],[-48.70186673686973,-26.872275739218168],[-48.70186673699432,-26.871806739339647],[-48.70178873655107,-26.870373739226682],[-48.70173673708533,-26.869846738892825],[-48.70174273727291,-26.869688739197066],[-48.70163173724229,-26.867646739144863]]]},"properties":{"objectid":272,"cd_geocodi":"420820305000271","nm_bairro":"Cordeiros","cd_geocodm":"4208203","nm_municip":"ITAJA0"}},{"type":"Feature","id":273,"geometry":{"type":"Polygon","coordinates":[[[-48.718949597645484,-26.84482748425752],[-48.71997597726427,-26.845547081374576],[-48.722172737395894,-26.847475738762608],[-48.723354940474124,-26.84846482315236],[-48.723536518820815,-26.84861435926151],[-48.723762874520915,-26.848746669100304],[-48.723920875014784,-26.848898668715538],[-48.72396687448487,-26.84894266852594],[-48.724128875397696,-26.849109668864056],[-48.72428487540727,-26.849285669164196],[-48.72449187458711,-26.849527669168513],[-48.72462087523634,-26.8496886688873],[-48.724759874783686,-26.8498746686032],[-48.72487887445088,-26.850052669113044],[-48.72502187510848,-26.85027266890238],[-48.725177875029004,-26.850524668537368],[-48.72530687509463,-26.85074766903429],[-48.72542887527862,-26.850988669052693],[-48.72550887516062,-26.85115966838577],[-48.725647874807464,-26.851468669203882],[-48.7257358747284,-26.851686668843218],[-48.726006429261794,-26.85280480518506],[-48.72617084311946,-26.85365589027129],[-48.72635460050571,-26.854487632718],[-48.72637310587535,-26.85462367491408],[-48.7263739434761,-26.85472941815568],[-48.726490000526894,-26.855551489007],[-48.7265867143244,-26.856276845717925],[-48.72674373710698,-26.856901739278733],[-48.72684773708419,-26.85752773908699],[-48.72691187464404,-26.857967668565312],[-48.72696573713056,-26.85824073860092],[-48.72702687536904,-26.858645668633873],[-48.72710073713311,-26.859079738672776],[-48.727138736837205,-26.85932673881572],[-48.727179737393335,-26.85955273927025],[-48.72721287475574,-26.859737668900188],[-48.727266874672566,-26.86000266859313],[-48.72733587499074,-26.86023566842834],[-48.72740187474983,-26.860458668618584],[-48.72746987450286,-26.86065466883126],[-48.727531874644654,-26.860836668423932],[-48.727598875093044,-26.861043668776283],[-48.727675874969684,-26.861269668630488],[-48.72775687485824,-26.86150366895349],[-48.72784687517534,-26.86178666922614],[-48.72792587450073,-26.862021668808893],[-48.727998875414805,-26.86226666857034],[-48.72808087510168,-26.862503669235583],[-48.72816287466356,-26.862722668604043],[-48.72822387459254,-26.8629046690182],[-48.72830087450603,-26.86316566848528],[-48.72835687505305,-26.863348668717983],[-48.72841987535777,-26.863533668492714],[-48.72852887516686,-26.863852668626347],[-48.7285898753581,-26.864057668869123],[-48.7286588744122,-26.864270668875843],[-48.72872187443038,-26.864468668392547],[-48.728807874665705,-26.864705668949476],[-48.72889187481474,-26.864956668676715],[-48.728985875263135,-26.865256669022628],[-48.7290428747655,-26.86541766881651],[-48.72911287466159,-26.865617668631547],[-48.72918087450316,-26.865839668795783],[-48.72922387459199,-26.866021668363217],[-48.72925787470414,-26.866167668769158],[-48.729280875227516,-26.866262668872732],[-48.729343875274,-26.866551668957523],[-48.72937687466837,-26.866761668857013],[-48.729419874492,-26.86706966904534],[-48.72943287509907,-26.867268668800985],[-48.729450875338,-26.86751966889852],[-48.7294511670477,-26.867652029336234],[-48.72924328454494,-26.867645711250177],[-48.72911443370956,-26.8676413715591],[-48.729064736660504,-26.86763873899812],[-48.72783973688915,-26.867666738887777],[-48.72781373737864,-26.86793873903658],[-48.72778773718404,-26.868152739364586],[-48.72771973708304,-26.868723739028965],[-48.72763773717877,-26.86973873888613],[-48.72759873742826,-26.870115738696345],[-48.72753673731372,-26.870434738744017],[-48.72746173738941,-26.870776738917197],[-48.72743173666705,-26.87087973883316],[-48.727412736788956,-26.87097573939274],[-48.72739273719726,-26.87101973895456],[-48.72734773716259,-26.871265739429266],[-48.727298737008816,-26.871455738774685],[-48.727207736511765,-26.87161073940683],[-48.72708173655243,-26.87185573892676],[-48.72701173664771,-26.87199173860759],[-48.72690373657469,-26.872186739243453],[-48.72681773712602,-26.872340738887488],[-48.72635373693439,-26.873313738829992],[-48.72621573713225,-26.87354473940239],[-48.72581673655918,-26.874201739095728],[-48.72547373728787,-26.874725738688554],[-48.72477373707888,-26.875470739476256],[-48.72388573679409,-26.876451739390024],[-48.723258736920705,-26.877045739226887],[-48.72289273675246,-26.877309739117536],[-48.72240173689588,-26.87766073931053],[-48.72214373697283,-26.87782273907027],[-48.72153973686261,-26.87810973938651],[-48.720892736667835,-26.878354738914894],[-48.72063273664063,-26.87841873890971],[-48.720268736771736,-26.87852273864576],[-48.7200077368184,-26.878606739449864],[-48.7198567374397,-26.878633738978827],[-48.719748737337305,-26.878674739129256],[-48.7189727372237,-26.878917738952357],[-48.718104736934386,-26.879145739310502],[-48.71766073673736,-26.879209739011248],[-48.71730173723096,-26.879367739242557],[-48.71665673736211,-26.880674739217476],[-48.71649973707166,-26.881655739373105],[-48.716355737397414,-26.882501739180306],[-48.716062737097495,-26.882743738606802],[-48.713321737051004,-26.882825738665908],[-48.71404573729182,-26.88618473945764],[-48.714069874485254,-26.88732766893051],[-48.71408062642595,-26.888385876516907],[-48.71402272942585,-26.888373852728904],[-48.71241621576996,-26.886994539313562],[-48.711940924494016,-26.88644498290154],[-48.71158179831752,-26.885763298840235],[-48.71138195448525,-26.885222544788515],[-48.71125769227857,-26.88455866924066],[-48.71119492095176,-26.882958155321546],[-48.71118342848902,-26.882538679202263],[-48.70998845176904,-26.87853232084462],[-48.70922113779048,-26.877930678114957],[-48.70915503759391,-26.877864829450647],[-48.70805195447832,-26.87716112352094],[-48.70833355663486,-26.876900923126588],[-48.70838894537622,-26.876823705151565],[-48.70876923842151,-26.87651144994838],[-48.708802737318926,-26.876491738824416],[-48.709187736842836,-26.876122738921243],[-48.70923421881665,-26.87611038380188],[-48.71042303043906,-26.874916435150443],[-48.7129443940385,-26.87629172440255],[-48.71580526830065,-26.877272490559427],[-48.71705498166807,-26.877422518553452],[-48.718552518164174,-26.87737667497337],[-48.71975971748719,-26.877071055043885],[-48.721379502567615,-26.876429253253743],[-48.72299928759311,-26.875008121250065],[-48.72474132048688,-26.871982484539274],[-48.725856833634985,-26.86875819535012],[-48.72582991839162,-26.86767489447957],[-48.7257957090961,-26.866297955037016],[-48.72542896541922,-26.8647851373575],[-48.7246954778751,-26.863348724028608],[-48.722739510833215,-26.860154996520407],[-48.72118084915369,-26.858030938274222],[-48.71904151079017,-26.85428709555761],[-48.718139931879364,-26.850604375976108],[-48.71782454141788,-26.847043959115695],[-48.71815730680576,-26.845975724018597],[-48.718949597645484,-26.84482748425752]]]},"properties":{"objectid":273,"cd_geocodi":"420820305000272","nm_bairro":"Salseiros","cd_geocodm":"4208203","nm_municip":"ITAJA0"}},{"type":"Feature","id":287,"geometry":{"type":"Polygon","coordinates":[[[-48.7343487170254,-26.84172262083829],[-48.73448571713419,-26.843050620321446],[-48.73476094328011,-26.84477397710676],[-48.734828716569346,-26.846137620400594],[-48.735301830257534,-26.847939467017756],[-48.73531104264326,-26.847974553290786],[-48.736478507984046,-26.850285324407615],[-48.73828217704379,-26.8526592687718],[-48.738751513211504,-26.853099173462603],[-48.74057641072825,-26.854809630074755],[-48.74118777354583,-26.855227863661714],[-48.745132331388774,-26.857047047830015],[-48.74989891730532,-26.85715610930148],[-48.75225354429109,-26.856632903473443],[-48.75851216045035,-26.854997007203025],[-48.76022925887551,-26.85529108190234],[-48.76099319749936,-26.85566012097708],[-48.761479443361075,-26.856178489813864],[-48.76207732963895,-26.857168093982462],[-48.76251715348135,-26.858164571132367],[-48.76256525922199,-26.859009858198156],[-48.76257323455298,-26.85968301216067],[-48.76231030151458,-26.86170760062836],[-48.761994781264825,-26.864547283042683],[-48.761863313544765,-26.866545578119094],[-48.76188960738931,-26.869280087323297],[-48.76197086311485,-26.870408637594252],[-48.76223142147448,-26.873355558208438],[-48.76241547412675,-26.875827134148743],[-48.762336594515,-26.878771990080203],[-48.76220512794607,-26.88063881863117],[-48.76191590105206,-26.881953486060944],[-48.76199933796774,-26.883895688335933],[-48.762291874938434,-26.885084668521202],[-48.76176087473256,-26.88490466845545],[-48.76138787480369,-26.884720668749306],[-48.76087387530458,-26.884405669128597],[-48.76021287493848,-26.88389766848865],[-48.75971287480211,-26.88352766879197],[-48.759144874746895,-26.883198668642496],[-48.75871787455466,-26.88295266901875],[-48.75801887534986,-26.88265266922795],[-48.75458187535132,-26.881198668507803],[-48.75257287443315,-26.880288668500313],[-48.751946874815424,-26.88008766893754],[-48.751475874763486,-26.880018669004734],[-48.75057320669728,-26.879978504864603],[-48.750114054029865,-26.875387040903913],[-48.74970409372041,-26.87030134003554],[-48.74602622269519,-26.87055057305253],[-48.74645506167152,-26.875622059267467],[-48.74674216343367,-26.87912289407812],[-48.744353874900575,-26.879346669159045],[-48.74352687513637,-26.879302669003977],[-48.742669874684886,-26.879307669052608],[-48.740536875132584,-26.879482668442353],[-48.7388228748808,-26.879608669208032],[-48.737481903768135,-26.879508277543472],[-48.736072061858565,-26.87951906100383],[-48.7354584242421,-26.879445597428884],[-48.73491309814303,-26.873382218123176],[-48.734221415000995,-26.873408484959462],[-48.73327582305543,-26.87332968526635],[-48.73395976795094,-26.87246416432682],[-48.734292874518474,-26.87116166838509],[-48.73447087537501,-26.87045266852504],[-48.73492887536348,-26.86808266841721],[-48.73514387503708,-26.866950668779563],[-48.735163874858905,-26.865912668914294],[-48.73453387521038,-26.864189668935044],[-48.73373087504409,-26.86189866840774],[-48.73303887495452,-26.85985566837067],[-48.73268187474685,-26.858885669108787],[-48.73226687519775,-26.857030668679077],[-48.73192887496406,-26.855434668880033],[-48.73181787520903,-26.854843669178013],[-48.731058901162186,-26.852816018475384],[-48.73067787445739,-26.851251668720135],[-48.72936087516984,-26.84828266869079],[-48.728887874975975,-26.847280668945338],[-48.72844587518412,-26.84677566853185],[-48.726093874429985,-26.84457666924425],[-48.723009874513345,-26.84168366900222],[-48.72216938677419,-26.840970534042587],[-48.726234992418696,-26.838271518602472],[-48.728749314711926,-26.837625811672194],[-48.731735640598046,-26.8381857473659],[-48.73305009056226,-26.839610741220646],[-48.73401274258506,-26.84065435113681],[-48.7343487170254,-26.84172262083829]]]},"properties":{"objectid":287,"cd_geocodi":"420820305000286","nm_bairro":" ","cd_geocodm":"4208203","nm_municip":"ITAJA0"}},{"type":"Feature","id":298,"geometry":{"type":"Polygon","coordinates":[[[-48.69603195249321,-26.86358361169248],[-48.69705990943744,-26.863682933681243],[-48.69853526834925,-26.8638770785403],[-48.699516150206534,-26.864022088318883],[-48.7007537013147,-26.864453018401072],[-48.703126461619455,-26.865946028355747],[-48.7065416584184,-26.868697071583348],[-48.70872684033953,-26.872761815621764],[-48.70981371783411,-26.874142443275893],[-48.70842887370737,-26.874888771471316],[-48.70808573662559,-26.87509873926718],[-48.70753073734148,-26.874232738860456],[-48.70724973667514,-26.873828738968886],[-48.70709373664092,-26.873559739251515],[-48.70692373725505,-26.873261739485326],[-48.70666273685759,-26.87291373869125],[-48.70567773703958,-26.871344739097847],[-48.70553373679954,-26.871280739063806],[-48.70534473712998,-26.871339738596987],[-48.704998737000835,-26.871514738919977],[-48.70426773660496,-26.87190573916791],[-48.70392773730007,-26.872158738610135],[-48.70332873708015,-26.872561739052955],[-48.70330273682778,-26.872386739467416],[-48.70330873646929,-26.872169738759894],[-48.70320473676621,-26.870724739398195],[-48.7031397373143,-26.86990573885793],[-48.70311373690844,-26.86963673882866],[-48.703093737017866,-26.868933738999793],[-48.7030417372212,-26.868342739249858],[-48.70298273652798,-26.868214739325428],[-48.70279773683079,-26.86813973897348],[-48.70268873743911,-26.868091738965646],[-48.70232873737913,-26.86796173924019],[-48.70217373702028,-26.86788673865089],[-48.70163173724229,-26.867646739144863],[-48.70174273727291,-26.869688739197066],[-48.70173673708533,-26.869846738892825],[-48.70178873655107,-26.870373739226682],[-48.70186673699432,-26.871806739339647],[-48.70186673686973,-26.872275739218168],[-48.701905736783786,-26.87284273903599],[-48.70099318437513,-26.872984478426886],[-48.70011173701643,-26.87311173946461],[-48.699804736770204,-26.873181739419827],[-48.69960273713676,-26.873222739354198],[-48.699204736576036,-26.873380738654973],[-48.699074736549996,-26.87342773941379],[-48.698238736528864,-26.87378473869319],[-48.698212736792435,-26.873386738836498],[-48.698134736719226,-26.871999739290363],[-48.698075736702684,-26.87113973877368],[-48.698023736959136,-26.86989373872361],[-48.697912736448025,-26.8676117388847],[-48.69756773737463,-26.867672739035534],[-48.697205736605675,-26.86765973890966],[-48.69693909893875,-26.86763796753297],[-48.69686473653087,-26.867631738681045],[-48.69658673692381,-26.86761073892161],[-48.69627273697865,-26.867561739050764],[-48.696092736905065,-26.867502738871643],[-48.696109914506046,-26.867461198923195],[-48.69603195249321,-26.86358361169248]]]},"properties":{"objectid":298,"cd_geocodi":"420820305000297","nm_bairro":"Cordeiros","cd_geocodm":"4208203","nm_municip":"ITAJA0"}},{"type":"Feature","id":302,"geometry":{"type":"Polygon","coordinates":[[[-48.73327582305543,-26.87332968526635],[-48.734221415000995,-26.873408484959462],[-48.73491309814303,-26.873382218123176],[-48.7354584242421,-26.879445597428884],[-48.735307222030684,-26.879420918643053],[-48.734781117005326,-26.8794819162725],[-48.73477530385179,-26.879482590131317],[-48.73403556647713,-26.879540735340253],[-48.733505292107374,-26.87958241641976],[-48.73297329185122,-26.87962423293435],[-48.73296879453937,-26.879624628222597],[-48.732429147331494,-26.879672053219632],[-48.73219891529665,-26.87969228632655],[-48.73211528935646,-26.879713479703128],[-48.731726908272115,-26.873349468930968],[-48.732356497800815,-26.873307797302257],[-48.73327582305543,-26.87332968526635]]]},"properties":{"objectid":302,"cd_geocodi":"420820305000301","nm_bairro":" ","cd_geocodm":"4208203","nm_municip":"ITAJA0"}},{"type":"Feature","id":303,"geometry":{"type":"Polygon","coordinates":[[[-48.750114054029865,-26.875387040903913],[-48.75057320669728,-26.879978504864603],[-48.750682751966366,-26.881542812299994],[-48.75056973656712,-26.881540738979787],[-48.75039373651932,-26.881557739430036],[-48.74985873666405,-26.88159273921615],[-48.749369736820285,-26.881604738875975],[-48.74884073660984,-26.881668738875998],[-48.74873351841038,-26.88166197614861],[-48.74812273655554,-26.88169873947623],[-48.747633737176585,-26.881733739491178],[-48.74714473660246,-26.881768738679067],[-48.74700773663732,-26.88177473867383],[-48.74692419089171,-26.881777568097288],[-48.74674216343367,-26.87912289407812],[-48.74645506167152,-26.875622059267467],[-48.74655073711113,-26.87560873918766],[-48.74664873660758,-26.875601739039574],[-48.74711173659272,-26.875572739438976],[-48.74764073711384,-26.875549738866443],[-48.74824853096998,-26.875507143673083],[-48.7483127371094,-26.875508739285017],[-48.748860737038754,-26.87547273919906],[-48.749356736844305,-26.875432739045113],[-48.74979373692574,-26.875396739192478],[-48.7499437373656,-26.87539773872918],[-48.750114054029865,-26.875387040903913]]]},"properties":{"objectid":303,"cd_geocodi":"420820305000302","nm_bairro":" ","cd_geocodm":"4208203","nm_municip":"ITAJA0"}},{"type":"Feature","id":304,"geometry":{"type":"Polygon","coordinates":[[[-48.750114054029865,-26.875387040903913],[-48.7499437373656,-26.87539773872918],[-48.74979373692574,-26.875396739192478],[-48.749356736844305,-26.875432739045113],[-48.748860737038754,-26.87547273919906],[-48.7483127371094,-26.875508739285017],[-48.74824853096998,-26.875507143673083],[-48.74764073711384,-26.875549738866443],[-48.74711173659272,-26.875572739438976],[-48.74664873660758,-26.875601739039574],[-48.74655073711113,-26.87560873918766],[-48.74645506167152,-26.875622059267467],[-48.74602622269519,-26.87055057305253],[-48.74970409372041,-26.87030134003554],[-48.750114054029865,-26.875387040903913]]]},"properties":{"objectid":304,"cd_geocodi":"420820305000303","nm_bairro":" ","cd_geocodm":"4208203","nm_municip":"ITAJA0"}},{"type":"Feature","id":305,"geometry":{"type":"Polygon","coordinates":[[[-48.750682751966366,-26.881542812299994],[-48.75082297015621,-26.883370027240343],[-48.74980200740929,-26.883457663769946],[-48.749924698275045,-26.884653898064858],[-48.7498589716915,-26.885508351324468],[-48.749637814890505,-26.885445569246865],[-48.749584736661184,-26.885436739399182],[-48.74907573732234,-26.885296739477642],[-48.74843673646397,-26.88516773916063],[-48.747920737096656,-26.885091738800728],[-48.74741173733756,-26.885050739099597],[-48.74736478719933,-26.8850528898317],[-48.747166347848186,-26.88506797943171],[-48.74692419089171,-26.881777568097288],[-48.74700773663732,-26.88177473867383],[-48.74714473660246,-26.881768738679067],[-48.747633737176585,-26.881733739491178],[-48.74812273655554,-26.88169873947623],[-48.74873351841038,-26.88166197614861],[-48.74884073660984,-26.881668738875998],[-48.749369736820285,-26.881604738875975],[-48.74985873666405,-26.88159273921615],[-48.75039373651932,-26.881557739430036],[-48.75056973656712,-26.881540738979787],[-48.750682751966366,-26.881542812299994]]]},"properties":{"objectid":305,"cd_geocodi":"420820305000304","nm_bairro":"Salseiros","cd_geocodm":"4208203","nm_municip":"ITAJA0"}}]}