{"type":"FeatureCollection","features":[{"type":"Feature","geometry":{"type":"Polygon","coordinates":[[[-48.73121216573089,-26.865003577761406],[-48.73122099028445,-26.86500913147871],[-48.73123512032631,-26.865012589149398],[-48.731255024985224,-26.865011973805352],[-48.73128725991715,-26.86500990674843],[-48.731346069953396,-26.865003691825482],[-48.731356688597586,-26.865002996861335],[-48.731372167942375,-26.865005349015828],[-48.73138945606818,-26.865004950647297],[-48.73140062129431,-26.865004447653895],[-48.73141882599991,-26.865004256220782],[-48.731438557447866,-26.865],[-48.731208096271175,-26.865],[-48.73121216573089,-26.865003577761406]]]},"properties":{"objectid":8,"nome":"Massa_Dagua_Lago_Lagoa_Perm","regime":2,"sourceLayer":"massa-agua-0"}},{"type":"Feature","geometry":{"type":"Polygon","coordinates":[[[-48.72612925721081,-26.86527920494406],[-48.72641012964356,-26.866351864873845],[-48.72650428992398,-26.867445452232104],[-48.726409665517814,-26.868393353583226],[-48.72601573694731,-26.869817287010708],[-48.72545658593011,-26.871355576928742],[-48.724677181771646,-26.872984609940715],[-48.723509696686556,-26.875003379412505],[-48.722712523000055,-26.87567031326833],[-48.72148191531315,-26.876633414204765],[-48.720677965932914,-26.87714942122757],[-48.720014013062695,-26.87746164299135],[-48.71927776530638,-26.877651131507697],[-48.71828870326986,-26.877670030579548],[-48.717,-26.877527659412387],[-48.717,-26.878413245854684],[-48.71700902483095,-26.878412867324858],[-48.7170172365454,-26.878405163187132],[-48.7170229601798,-26.87839207002237],[-48.717025787181726,-26.87838450175669],[-48.71703236920972,-26.878374113566842],[-48.717048905300814,-26.878362112046755],[-48.71706259083872,-26.878356997964392],[-48.71708340040529,-26.878357839668663],[-48.71710483034258,-26.87836581893486],[-48.717124019197215,-26.878375898073084],[-48.71715202445754,-26.87839665578544],[-48.71716468608803,-26.87840723677399],[-48.717183100740215,-26.878417332270555],[-48.7172009361241,-26.878421649951814],[-48.717226758572195,-26.8784233821477],[-48.71736472981044,-26.878434194170122],[-48.71738013165391,-26.878435165930433],[-48.71739392832815,-26.87843413628923],[-48.71741135914573,-26.87842688703957],[-48.71742876638946,-26.87841895786286],[-48.717448055856536,-26.878409959917793],[-48.71746373272291,-26.87840786237306],[-48.7174804239822,-26.87841322732258],[-48.71749348115894,-26.878424809173378],[-48.71750174211134,-26.878442297656015],[-48.71750228461459,-26.878458619986997],[-48.71750696794341,-26.87847245439911],[-48.717520925779034,-26.878488094674296],[-48.717581154954864,-26.87853317600503],[-48.71759818508152,-26.87853750408915],[-48.717627088079354,-26.878541186548055],[-48.71764728264923,-26.87853692752023],[-48.7176643405673,-26.878530707322557],[-48.717687901633546,-26.878523982146312],[-48.717703558465416,-26.87852188064197],[-48.71772963889359,-26.87852189414097],[-48.71775792469978,-26.87851913033612],[-48.71778096688335,-26.87850867867112],[-48.71779641345001,-26.878500463278332],[-48.71780960547858,-26.878493665301566],[-48.717843127850934,-26.87848736997537],[-48.71787019219149,-26.878482940345588],[-48.71791319571809,-26.878474025864733],[-48.71792762907201,-26.87847025850117],[-48.71794505655156,-26.87846437634025],[-48.71795316185821,-26.8784546525505],[-48.717953285803205,-26.87844683032164],[-48.71795181153784,-26.878437010421006],[-48.717953792063206,-26.878427442168157],[-48.717960084917955,-26.878420824202706],[-48.7179703167666,-26.878417506057257],[-48.717982912022585,-26.87841616726174],[-48.71799944426187,-26.87841812825217],[-48.71801418667855,-26.878423872268673],[-48.71803321483563,-26.878431886595457],[-48.718051632856806,-26.878444674041734],[-48.71806543701808,-26.878456896917207],[-48.71808607998566,-26.878467586012682],[-48.718094740850304,-26.878474840838184],[-48.7181160663847,-26.87849468456868],[-48.71814424816056,-26.87853677342228],[-48.718149150734824,-26.878546160480703],[-48.718157841952255,-26.87856598149148],[-48.718165544067425,-26.878579032595578],[-48.71817833837391,-26.878595689122665],[-48.71818581459167,-26.87860195106323],[-48.71821552705101,-26.878609675914063],[-48.71824127784395,-26.87861342554749],[-48.71826212596139,-26.878607792632053],[-48.718277252218215,-26.878602646654887],[-48.71830124255559,-26.878599650009065],[-48.71832988096644,-26.878598571243135],[-48.718355728648916,-26.878605713824065],[-48.71839290389034,-26.878620370872383],[-48.71841025378834,-26.87862501446819],[-48.71843198158512,-26.878623433293622],[-48.718445375788555,-26.87862410448259],[-48.71847835829279,-26.878628003373663],[-48.71850247971054,-26.878629753887807],[-48.71852509427353,-26.878632222774336],[-48.71854435049097,-26.87863715344083],[-48.718557635625146,-26.878646311293135],[-48.718574015854145,-26.878656744661818],[-48.71859553310322,-26.87866093663784],[-48.71863418830968,-26.878652467003036],[-48.71865166238207,-26.87864997691062],[-48.718669616780424,-26.878650528607654],[-48.718684238480236,-26.878654219340444],[-48.718706639560814,-26.878662457717077],[-48.71872871260274,-26.87867239822589],[-48.71874877784877,-26.878679338149055],[-48.71877380526797,-26.878686487261398],[-48.718795188409615,-26.878687285637863],[-48.71883389178449,-26.87868152858562],[-48.71891990977956,-26.878666062713908],[-48.718938880062176,-26.878663534479696],[-48.718959001427464,-26.87866131632302],[-48.71897420589861,-26.878660242481313],[-48.71899127943578,-26.87865810324812],[-48.71900880974515,-26.87865832497667],[-48.71904268959101,-26.878657781933875],[-48.71905899587962,-26.878655662790585],[-48.71908364774181,-26.878652648717864],[-48.719105991326934,-26.87864901799401],[-48.71912789672367,-26.87864370434243],[-48.71916602939134,-26.878634242451994],[-48.71921329248419,-26.87861336580335],[-48.71922942818593,-26.87860651053885],[-48.71924556185567,-26.87859965614202],[-48.71926517146009,-26.878594406472175],[-48.719282587002915,-26.878591923477426],[-48.71929765403664,-26.87858746951328],[-48.71931313360969,-26.878584021219975],[-48.719335148546044,-26.87858277393559],[-48.71935872509488,-26.878582842364608],[-48.719527420449744,-26.878570018674804],[-48.71966818056711,-26.878554877528842],[-48.719678409198245,-26.878554274676187],[-48.71969691383709,-26.878551429280716],[-48.719716284915194,-26.87855194415302],[-48.71974856668073,-26.878552802814944],[-48.7197645317307,-26.87855374460327],[-48.71978984991569,-26.878550723112845],[-48.71986158381724,-26.87854075571524],[-48.719872493554725,-26.878538107160825],[-48.719887859697245,-26.87853263819255],[-48.719904004653834,-26.878527826143472],[-48.719922832690465,-26.878523959853148],[-48.719934473886184,-26.87852061738564],[-48.719946092428025,-26.87851659861672],[-48.719955415768425,-26.878511963424927],[-48.719972432721136,-26.87850206299364],[-48.71996186707542,-26.8783762209245],[-48.720135944309256,-26.87832909100612],[-48.72042438860474,-26.878251869846466],[-48.720767544268114,-26.87813887340451],[-48.72077331043076,-26.878226652993625],[-48.72082210667229,-26.878222833361722],[-48.72084196292264,-26.87821862616553],[-48.720857661570676,-26.878214185830537],[-48.72086817005483,-26.878212573954094],[-48.72088091722881,-26.87821023201896],[-48.72090487959533,-26.878204911565266],[-48.72092840762606,-26.878197915469382],[-48.721005576969645,-26.878171375045568],[-48.72101491461289,-26.87816878225528],[-48.721026789031015,-26.878163091672395],[-48.72105651642152,-26.878150215040375],[-48.72107548570961,-26.87814266436174],[-48.72109146419001,-26.878135862290584],[-48.72110419618942,-26.878133523699614],[-48.721122174323014,-26.878130381735925],[-48.721163547393026,-26.878128682101398],[-48.721178531702044,-26.8781262886934],[-48.72119826366742,-26.878119396456345],[-48.72121696313332,-26.878115563109045],[-48.721236910176174,-26.878115406613908],[-48.721254276080465,-26.87811699803378],[-48.72127224008817,-26.878113857627643],[-48.72128412098165,-26.878108846671566],[-48.721291079520164,-26.878102946807232],[-48.72129687731686,-26.87809606440026],[-48.72130462443886,-26.87807969981102],[-48.72130842249968,-26.878069160903376],[-48.7213096424231,-26.87806037086542],[-48.72131167961118,-26.87805358210941],[-48.721318937176775,-26.878045317233386],[-48.72132295236977,-26.878041512301085],[-48.72132662408675,-26.878038726108564],[-48.72133221058019,-26.878034249832925],[-48.721320578325,-26.877924730345608],[-48.72153182868115,-26.877810186961984],[-48.72170489837764,-26.877716884763515],[-48.72170296229843,-26.877846076296773],[-48.72174559425682,-26.87782751555573],[-48.72175176458859,-26.877820973043136],[-48.72175979928694,-26.877814049083252],[-48.7217652619867,-26.87780886958843],[-48.72177670468327,-26.877802874166786],[-48.72178459150308,-26.87780302212836],[-48.72179177171692,-26.877804532222218],[-48.72179704307813,-26.877805079297193],[-48.721807070494904,-26.877801810812503],[-48.72187844111897,-26.87776948370487],[-48.72188910588074,-26.877762836792108],[-48.72192070815985,-26.8777425711614],[-48.721983958203815,-26.87769229324363],[-48.721999622223265,-26.877678132826198],[-48.72201344464901,-26.87766502474526],[-48.72202985569155,-26.877650848395433],[-48.72204294770987,-26.8776384324433],[-48.72205610494072,-26.87762803361578],[-48.72207831327335,-26.87761944125996],[-48.72209478892348,-26.87761905448437],[-48.72210595681341,-26.877616774503295],[-48.72212170211759,-26.877617077150642],[-48.72213590578096,-26.877616070748342],[-48.72214777621025,-26.877612430368487],[-48.722156906787106,-26.87760515495403],[-48.72216667666118,-26.877594503853985],[-48.72216945447487,-26.877587714391403],[-48.722172145283324,-26.877578237833035],[-48.72217556241225,-26.87756807178316],[-48.722178231450236,-26.877557924352836],[-48.72218205623784,-26.877548757572132],[-48.72219291453419,-26.87753707447168],[-48.72220054590372,-26.8775298362446],[-48.72221035718543,-26.87752053226484],[-48.722224592630006,-26.877509107574195],[-48.72224102872948,-26.877496288886867],[-48.72225457928517,-26.877486899906557],[-48.722270286022166,-26.877474771560802],[-48.72228413243783,-26.877463023830202],[-48.72229727327713,-26.87745263734795],[-48.72230973027474,-26.877444284790435],[-48.72232583955853,-26.87743315923431],[-48.722338316292195,-26.87742547841552],[-48.72235077024778,-26.877417126707467],[-48.72236582949929,-26.87740838022131],[-48.72237497155719,-26.877401785423984],[-48.72238635576117,-26.87739514014398],[-48.7224102105795,-26.87738081754846],[-48.72245302962344,-26.8773573286052],[-48.72246419503285,-26.87734985043852],[-48.72247809238972,-26.87734012770518],[-48.72249000192792,-26.877326754994904],[-48.72249734298377,-26.877316678374108],[-48.72250215252156,-26.877303467335075],[-48.72250495534984,-26.877291814961154],[-48.72250997858718,-26.87727943942681],[-48.72251823684305,-26.87726883973247],[-48.72252877875474,-26.877259532166523],[-48.72254385684029,-26.877251802122686],[-48.72255804880435,-26.877245604590577],[-48.72257315698362,-26.877238883066028],[-48.72258101980125,-26.87723350037648],[-48.72258498758551,-26.877229044875673],[-48.72258653074304,-26.87721893433214],[-48.72258312204391,-26.877190434128277],[-48.722703865483744,-26.877114429822914],[-48.722841653975074,-26.87702769480262],[-48.72284292187274,-26.87705295047424],[-48.72286827003242,-26.877043795838343],[-48.72287924072159,-26.877036841527996],[-48.72289413045225,-26.877024097098126],[-48.72290567391981,-26.877011762582725],[-48.722915767849486,-26.877000803497836],[-48.72292590534313,-26.87699118525387],[-48.72293205944387,-26.87698534633366],[-48.722962724110985,-26.87696454371737],[-48.722989915916315,-26.87695187214596],[-48.72304479359406,-26.876907402284314],[-48.723066671916406,-26.876892168720843],[-48.723082696985955,-26.876880417216867],[-48.72309797499041,-26.87686868344975],[-48.723110272937504,-26.876857013549134],[-48.72312512242809,-26.876843613264267],[-48.723141779453215,-26.876828498577716],[-48.723160009596,-26.876816034475315],[-48.723198678031196,-26.876790391015394],[-48.72324781575776,-26.876752479611483],[-48.723497539294506,-26.876560915308804],[-48.723646239958896,-26.876432312805406],[-48.723719537929355,-26.876368920896116],[-48.723839404061586,-26.87625520691014],[-48.723910327324404,-26.876187924060254],[-48.72400690340927,-26.87606577303843],[-48.724066491059816,-26.875990404688174],[-48.72413801624713,-26.87590250497626],[-48.72420067839757,-26.875851533331325],[-48.7242585353824,-26.875813917232335],[-48.7243323122621,-26.875779680058912],[-48.724378614403456,-26.87575819227717],[-48.72449554511925,-26.875675758981856],[-48.724669712918235,-26.875552974812543],[-48.72469705445591,-26.875543302338695],[-48.72470713844036,-26.875539255728924],[-48.72471848488963,-26.875534931643976],[-48.724728661145384,-26.875530046336323],[-48.7247367349522,-26.875524518911412],[-48.72474250503607,-26.875518199028143],[-48.72474695605678,-26.875513324382595],[-48.72475008903875,-26.875509894088957],[-48.72475464812675,-26.875506004856092],[-48.72476003237153,-26.87550121292523],[-48.72476552466583,-26.875497407309233],[-48.72477248075308,-26.875493471853073],[-48.72478072020827,-26.875487762993313],[-48.724788613602726,-26.87548059109969],[-48.72479553707181,-26.875473008309612],[-48.724803728111446,-26.875461828006326],[-48.72480790952475,-26.875452828421686],[-48.72480932490425,-26.875447227139322],[-48.724810301969576,-26.875441000617855],[-48.72481477795163,-26.875431311791996],[-48.724820789094196,-26.875422150357323],[-48.724835543671915,-26.875406987659748],[-48.724973679915244,-26.875264312076762],[-48.724922257924504,-26.875229467793204],[-48.725096959156915,-26.87504003563048],[-48.725185032183155,-26.87494453602932],[-48.72517258214597,-26.874935377801638],[-48.72527987137141,-26.874767025801688],[-48.72540663877584,-26.874568109038854],[-48.725587508779086,-26.87428589151372],[-48.72576009366661,-26.874016601513425],[-48.72591610999097,-26.873771982001895],[-48.72602779731512,-26.8735962999966],[-48.72615397848694,-26.873398581358693],[-48.72626341090489,-26.873228128639877],[-48.72636176332143,-26.87307493287461],[-48.726487267443325,-26.872878652313986],[-48.72657492699808,-26.87274140930456],[-48.72663195997479,-26.87265211613708],[-48.72677798983804,-26.872693576520543],[-48.72680204511146,-26.872625903320554],[-48.726803739663154,-26.87262112863667],[-48.72680102816593,-26.872616727963756],[-48.726792296057276,-26.872611516572004],[-48.72677960203048,-26.872603996125058],[-48.72675832178577,-26.872592573382462],[-48.72675084010423,-26.872585270370053],[-48.72674798276033,-26.872579558792857],[-48.72674824716868,-26.872571926492505],[-48.72674965005853,-26.872564528198186],[-48.72675454644358,-26.872551868867653],[-48.72676135568697,-26.872536399396168],[-48.72676555113727,-26.872527438769353],[-48.72676982001478,-26.872519133602154],[-48.72677248446329,-26.872466285525377],[-48.726771361351936,-26.872452810077533],[-48.726767452387016,-26.872434274871715],[-48.72676989524237,-26.872416191123975],[-48.72677388794607,-26.872392014587795],[-48.72677802752153,-26.872369148068742],[-48.72678544347831,-26.872339046061494],[-48.72679156945767,-26.872314018544884],[-48.726795039958745,-26.872298489029312],[-48.72680381477623,-26.872270581992204],[-48.72681464158955,-26.872247797806487],[-48.726825397036194,-26.87222435548566],[-48.72683597492632,-26.872195955840798],[-48.72692780463197,-26.872053580625824],[-48.72693672588187,-26.872033592249885],[-48.72694671523027,-26.87201318066171],[-48.72695869296858,-26.871990609007298],[-48.72695966483862,-26.87197925193322],[-48.72695768639036,-26.87197477822742],[-48.72695203169011,-26.871970618084518],[-48.72691591980935,-26.871956120321613],[-48.726905232236675,-26.871950067072394],[-48.72690318039861,-26.871944936101826],[-48.72693184778074,-26.871895396056573],[-48.72693457100976,-26.87189317381385],[-48.72693938672281,-26.871893095173693],[-48.726942805149136,-26.87189379813678],[-48.72694434823329,-26.871894330143252],[-48.72698693591639,-26.871906953011727],[-48.72699495187226,-26.87190560647387],[-48.72700540150764,-26.87189940869967],[-48.72701375966224,-26.871891067339238],[-48.72702260480673,-26.87187704475036],[-48.727024292882,-26.871855339039048],[-48.72702509039904,-26.871839014765253],[-48.72702647901963,-26.87182131202919],[-48.72702834364743,-26.871804563624774],[-48.72703156592271,-26.87179002099975],[-48.72703986379345,-26.871774380530404],[-48.72704683572264,-26.871760180701074],[-48.7270466713343,-26.871748578828605],[-48.72704256881948,-26.871738308787688],[-48.72703934693943,-26.871729290178248],[-48.72703664377585,-26.871718235858527],[-48.72703954496935,-26.871697408799516],[-48.72704525591323,-26.871668374014273],[-48.727048841231756,-26.871657112231105],[-48.72705356701674,-26.871646085385397],[-48.727060179226974,-26.87162858852132],[-48.727061371513564,-26.87161919060726],[-48.72706513325917,-26.871612892445896],[-48.72707113317679,-26.87161005690782],[-48.72707657364832,-26.871612248958684],[-48.7270816094939,-26.871614143909582],[-48.72708569237246,-26.871614127474622],[-48.72709205517912,-26.871614580897948],[-48.72710081103215,-26.871613169548453],[-48.72711690687657,-26.871600839287915],[-48.72712806888771,-26.8715909213207],[-48.72713768883983,-26.871580470462344],[-48.72715114392314,-26.871564378703223],[-48.727164756925966,-26.871542957790872],[-48.727172513746865,-26.871525688703933],[-48.72717592882809,-26.871509454369015],[-48.72717871006785,-26.87149759034363],[-48.7271825715793,-26.871478657636413],[-48.727191585082224,-26.87145928439098],[-48.72720293451763,-26.8714307391916],[-48.72721287346985,-26.871409621951802],[-48.72722382454075,-26.87139772150245],[-48.72723587430595,-26.871389049655356],[-48.72725505529975,-26.871384421810877],[-48.7272707007585,-26.871381424673803],[-48.72728247842768,-26.871380419296234],[-48.72730640879358,-26.871375053835987],[-48.727319298352825,-26.871370630703446],[-48.72732855046316,-26.87136352562341],[-48.727339505577774,-26.87135162342438],[-48.727349984753246,-26.87133876328495],[-48.72735811164952,-26.871324774238563],[-48.72736732293433,-26.87130371115918],[-48.72737309758558,-26.871288591401342],[-48.727379681486894,-26.871274065840986],[-48.72738682898388,-26.871254505535948],[-48.72739968301477,-26.871202200368117],[-48.72740598058426,-26.87118503503681],[-48.72740910036863,-26.8711727956156],[-48.727415139093814,-26.87115664769681],[-48.72742305413608,-26.87114067164544],[-48.72742737462791,-26.871119013683312],[-48.727433718172705,-26.87109884482319],[-48.72743994553315,-26.871081013252297],[-48.727444916247215,-26.871065284036476],[-48.727450883739344,-26.871048470764066],[-48.727463758289055,-26.87102341278293],[-48.72748182273631,-26.870984596456275],[-48.72749331004631,-26.870970635282728],[-48.72750484227609,-26.870953673271316],[-48.72751235898915,-26.870937385776816],[-48.727519283529176,-26.87092248033931],[-48.727523216746505,-26.87091082615398],[-48.72752829144811,-26.87089940601588],[-48.72753652960844,-26.870889712618066],[-48.7275485957332,-26.870881023856615],[-48.72756135582512,-26.87087527200988],[-48.72758391007319,-26.870870681227913],[-48.727580268322626,-26.87084069188685],[-48.727577104881405,-26.870838964245152],[-48.72757375285363,-26.8708389175477],[-48.72757013988504,-26.87083989274229],[-48.72756310357658,-26.870840160398725],[-48.72755637208801,-26.870836407114005],[-48.727552731704556,-26.870833721516888],[-48.727549829204946,-26.87083097198254],[-48.72754759020525,-26.87082750032859],[-48.727544920208295,-26.870820068996846],[-48.72754486537903,-26.87081274741434],[-48.72754440596106,-26.870805126929135],[-48.72754786436653,-26.87079250850481],[-48.72755201470949,-26.87078282786602],[-48.727555024609764,-26.870772911391796],[-48.72756283285614,-26.870759253819145],[-48.72756845896273,-26.87074944530517],[-48.727574893239414,-26.870740234579944],[-48.72758211033615,-26.870727958177834],[-48.72759467505371,-26.87071355858482],[-48.72760306201652,-26.870705178840044],[-48.72761506195977,-26.870695822996534],[-48.7276256868774,-26.87069091669129],[-48.72763295977071,-26.870685963689414],[-48.727643603283056,-26.870674391259467],[-48.72765345619381,-26.87065555580266],[-48.727661575486984,-26.87063786655281],[-48.727663895606646,-26.870625004202783],[-48.727667070898065,-26.87060973522768],[-48.727666749313684,-26.870586265367145],[-48.72766547747584,-26.87057287506514],[-48.72766599067387,-26.87056049714799],[-48.72766578999359,-26.870546680970023],[-48.72766895604781,-26.870534741898737],[-48.72767908245569,-26.870511538451737],[-48.727682581800714,-26.870499236539676],[-48.72768539362669,-26.87048915984874],[-48.72768762056156,-26.870477132573267],[-48.72768897636677,-26.870460510433475],[-48.72769014254551,-26.87044557102648],[-48.72769220288616,-26.870433722464423],[-48.727697241002375,-26.870425287044974],[-48.72770249406193,-26.870418834162532],[-48.72770893558367,-26.87040961181405],[-48.72771281760853,-26.87039910652316],[-48.727716046618944,-26.870368318919905],[-48.72761409508057,-26.87036537959033],[-48.72766523290651,-26.87019493180458],[-48.727723390835365,-26.869984104717147],[-48.72777310047779,-26.869988017678203],[-48.72777666901792,-26.86996017662709],[-48.727777335600834,-26.869959450945835],[-48.72778044211232,-26.869957180700496],[-48.727783894513045,-26.869956383407274],[-48.72778754918895,-26.869955736467077],[-48.7278014981139,-26.86995554387408],[-48.72780854647533,-26.869955274592083],[-48.72781611784093,-26.869952955224857],[-48.72782376148949,-26.869951298518096],[-48.727831045679274,-26.86994633124538],[-48.72783523382662,-26.86994029260227],[-48.72783660789389,-26.869925472951877],[-48.72783945870384,-26.869910526341677],[-48.72784311967374,-26.869896178453125],[-48.7278444224977,-26.86988069435346],[-48.72784793994106,-26.869865019354737],[-48.72785900148849,-26.869832988689023],[-48.72786892843654,-26.869762938362314],[-48.72786296517552,-26.869745729233795],[-48.72786062706928,-26.869737904360473],[-48.727855098577166,-26.86973503498964],[-48.72783844186135,-26.869725762426892],[-48.72783769895038,-26.869715459802247],[-48.72783588287885,-26.86970558302302],[-48.72783292438166,-26.86969546947687],[-48.72783594509297,-26.869685512556316],[-48.727839899450544,-26.869684170130096],[-48.72785090619442,-26.8696825575811],[-48.72786486740627,-26.86968069202914],[-48.72787041695534,-26.869676871850587],[-48.72787806062975,-26.869664845949924],[-48.727882652495985,-26.869648731587098],[-48.72788531586171,-26.869635458718914],[-48.72789336119697,-26.869613359773787],[-48.7279003103252,-26.86958800790294],[-48.72790266260412,-26.86956840112488],[-48.727905825040864,-26.869549393068027],[-48.72791217995588,-26.86952542502815],[-48.7279181457978,-26.869473709309926],[-48.727920878784154,-26.869450713623436],[-48.72792321105999,-26.86943779370328],[-48.72791882024829,-26.869424780102456],[-48.727905107403785,-26.869404865330303],[-48.727897021278544,-26.869392166819104],[-48.72789567947578,-26.86937286341849],[-48.72790339972067,-26.86936148580551],[-48.72791655508647,-26.86934863796433],[-48.72792623090755,-26.869338096787764],[-48.72793490581787,-26.86932864592208],[-48.72793995866617,-26.86932017462847],[-48.727937139223094,-26.869300992759825],[-48.727935368023175,-26.86927769902376],[-48.727936625594324,-26.869254814074413],[-48.72794012213147,-26.869225034288085],[-48.72793393086686,-26.869174639181207],[-48.7279307050829,-26.86915514574836],[-48.72793544707196,-26.869140328816616],[-48.72794095288844,-26.869129132177495],[-48.727958813795766,-26.86911486373517],[-48.727971239123164,-26.869112456364],[-48.72798340339189,-26.86911107720042],[-48.72799258521925,-26.86910626767844],[-48.72799852257676,-26.869099054186883],[-48.72799823401168,-26.86908600728729],[-48.72799388985226,-26.86906995587752],[-48.72798451312259,-26.869055675372294],[-48.72797699575903,-26.869037883539782],[-48.72797991932034,-26.868992370185477],[-48.72797359136921,-26.868961392779315],[-48.7279771413446,-26.868938954406993],[-48.72798434480592,-26.86892961614389],[-48.7279971558332,-26.868923820843964],[-48.72800927679214,-26.868925462395346],[-48.72802037189379,-26.86892451004143],[-48.728027552901615,-26.868921881157412],[-48.7280332551671,-26.8689193792033],[-48.72803747869034,-26.86891700417927],[-48.72804334691213,-26.868909120855182],[-48.7280440141247,-26.86889799530685],[-48.72803957548381,-26.86888797798861],[-48.728033966525615,-26.86887403603131],[-48.72802847619543,-26.86885773426035],[-48.728023033617795,-26.868848808108073],[-48.728016517853284,-26.86884030960737],[-48.7280116965508,-26.86883367845796],[-48.7280081866605,-26.86882190185034],[-48.72800569629883,-26.86877111142133],[-48.728008486174126,-26.868755434640843],[-48.728012517294616,-26.868733944360415],[-48.72801413694175,-26.868714338429708],[-48.72801403962587,-26.868699577235724],[-48.72801239033493,-26.868684277588386],[-48.7280109557404,-26.86867097310872],[-48.72801069241342,-26.868661595990776],[-48.728013960193074,-26.868646878983515],[-48.7280165841604,-26.868636580865516],[-48.72801834961973,-26.868628706469167],[-48.728021571018964,-26.86861701374036],[-48.72802558074243,-26.868602230150238],[-48.72802887338212,-26.868591201870196],[-48.72803242914332,-26.868579142706892],[-48.72803636444476,-26.86855927349565],[-48.728016250470546,-26.868559154001783],[-48.728016167510475,-26.868561843784477],[-48.7279700207206,-26.868560948280106],[-48.72799647817987,-26.868360104020226],[-48.72808894208968,-26.86835306541369],[-48.72808664752166,-26.8683228297085],[-48.72808605015094,-26.868303383957375],[-48.72808970416256,-26.868285251955527],[-48.72809281024443,-26.86826548492112],[-48.72809347908223,-26.86824390898354],[-48.728095007553776,-26.86821990302429],[-48.72809777952236,-26.868190070965348],[-48.728095390241414,-26.868153952445898],[-48.728103230059794,-26.86806345501041],[-48.72811736580697,-26.86779831398326],[-48.72811609904416,-26.86779000277121],[-48.728115620311826,-26.867789033960022],[-48.72810969070746,-26.86777910276932],[-48.72810230291533,-26.86777300251088],[-48.72808747772492,-26.867763837049687],[-48.7280714564969,-26.867757469815235],[-48.728063207047754,-26.86775380044653],[-48.72804888314316,-26.867749307825697],[-48.728024993445025,-26.867735868774737],[-48.72801332178285,-26.867724746056805],[-48.72800291736994,-26.86771149136397],[-48.72800076338994,-26.867701906961308],[-48.72800195696026,-26.867688662792144],[-48.72799809544663,-26.867624967781442],[-48.72799660641743,-26.867593750523486],[-48.72799466427688,-26.867565265828723],[-48.72799616643461,-26.867537492604058],[-48.72800537218043,-26.86751175014179],[-48.728019387149466,-26.867488962035484],[-48.72804459771053,-26.867434518093518],[-48.72804806587116,-26.867418030079524],[-48.728051677394504,-26.86740287729486],[-48.72805095847642,-26.867385736259333],[-48.72804688997208,-26.867372256764213],[-48.728042340586185,-26.867347346276343],[-48.72804367740746,-26.867314504015596],[-48.72804020538219,-26.867289157819936],[-48.728044630928075,-26.867264141670383],[-48.72805228603306,-26.867216904892278],[-48.7280635351215,-26.867203107670676],[-48.728070978303656,-26.867195714428586],[-48.72808495816223,-26.867186407505464],[-48.72809841061557,-26.867179170451475],[-48.728104538687205,-26.867166488437835],[-48.72810099590068,-26.867161392168853],[-48.728092809741185,-26.86715838441749],[-48.728082754607065,-26.867148448255918],[-48.72807035389105,-26.867130609492037],[-48.72806350614341,-26.867115668454893],[-48.72805665843352,-26.867100725613184],[-48.72805021623674,-26.867086085296695],[-48.728047174538595,-26.86706473306139],[-48.72804863394178,-26.867050421952175],[-48.72804997245954,-26.867028013888312],[-48.72804865441187,-26.867012252094575],[-48.72803969706291,-26.866995121172],[-48.72803739732044,-26.866984170817968],[-48.728039000104644,-26.866971194036154],[-48.72804453076547,-26.866959905733896],[-48.72805087648881,-26.8669492216448],[-48.72805822731798,-26.86693743738193],[-48.72806148354809,-26.866929384803818],[-48.72806361473742,-26.86692480753393],[-48.72805561481326,-26.866909616039198],[-48.72805331512445,-26.86689866297883],[-48.72805709886378,-26.866888535117127],[-48.72806667842228,-26.86687655566301],[-48.72808009039046,-26.86686187903078],[-48.72809836623111,-26.866847119969314],[-48.728105815638,-26.866839715994512],[-48.72812157728589,-26.866822468145372],[-48.72813401070392,-26.8668021264115],[-48.72813437204637,-26.866774034320144],[-48.7281327933073,-26.866748812422813],[-48.728131548998775,-26.866723220482008],[-48.72812776526037,-26.8666914194366],[-48.72812242467137,-26.86665907354455],[-48.728116100293924,-26.86663154357175],[-48.72810395146054,-26.866612634039654],[-48.72809513286101,-26.866596818422263],[-48.72808286307847,-26.86658028490979],[-48.72807521756452,-26.866557936338893],[-48.728069656929634,-26.86652356180054],[-48.728070613476554,-26.866494035353554],[-48.72807423203954,-26.866478830336032],[-48.72807931319119,-26.86645977460153],[-48.72808437015517,-26.866436995855466],[-48.72808264380802,-26.866410399853912],[-48.728082739670754,-26.866383306119413],[-48.728086958569804,-26.866356191142998],[-48.72808933159837,-26.866336344630554],[-48.72808863579511,-26.86631235885183],[-48.72808374494374,-26.8662877181216],[-48.72807693405705,-26.866269676846958],[-48.72807590334697,-26.866256554837953],[-48.72807451244618,-26.86625057808206],[-48.72808088989057,-26.866243590047564],[-48.72808722040456,-26.866239654259726],[-48.72809199299388,-26.866235177217515],[-48.72809534992653,-26.866231498645373],[-48.728098491517315,-26.866225806845716],[-48.7280514180465,-26.865923096065575],[-48.72799462131215,-26.86564193384274],[-48.72798917449224,-26.865578815265092],[-48.727986590810836,-26.865538378978435],[-48.72798548796213,-26.865511953637103],[-48.727984287480176,-26.865494992565363],[-48.72798266067068,-26.86547575045434],[-48.72797848495242,-26.86545621106031],[-48.72798145323226,-26.865432661423476],[-48.72797765461858,-26.865400701302047],[-48.72797846512437,-26.865377825394788],[-48.72797539760063,-26.865333102792956],[-48.72797304344139,-26.865313852595822],[-48.727967897357686,-26.865298558985845],[-48.72795975586946,-26.865280035157205],[-48.72794927319927,-26.86525565556128],[-48.727949971289284,-26.865228839537217],[-48.727949609132025,-26.865203013602947],[-48.72794103850692,-26.86518219876197],[-48.72792577157347,-26.8651555844662],[-48.72791076039996,-26.865138122457616],[-48.72790162827771,-26.86512319792727],[-48.727892868051974,-26.865108596137965],[-48.72788405250001,-26.865092030621156],[-48.727873673854496,-26.86507155941661],[-48.727862568526035,-26.86505109728245],[-48.72785153669066,-26.86503325073848],[-48.727831536887685,-26.86500636268927],[-48.727826487457754,-26.865],[-48.725993011191875,-26.865],[-48.72612925721081,-26.86527920494406]]]},"properties":{"objectid":620,"nome":"Massa_Dagua_Rio_Permanente","regime":2,"sourceLayer":"massa-agua-0"}}]}