{"type":"FeatureCollection","features":[{"type":"Feature","geometry":{"type":"MultiLineString","coordinates":[[[-48.72578,-26.880400000000005],[-48.72676,-26.88053],[-48.72906,-26.880189999999995],[-48.73169,-26.88005],[-48.7331,-26.879490000000004]],[[-48.74,-26.879179999999998],[-48.74242,-26.878800000000002]]]},"properties":{"tipoint":"Nova Ligação (Variante)","sourceRow":37,"distanceToParcelM":195.66}},{"type":"Feature","geometry":{"type":"LineString","coordinates":[[-48.7287,-26.87545],[-48.72963,-26.875889999999995],[-48.73136,-26.876379999999997],[-48.73284,-26.876399999999993]]},"properties":{"tipoint":"Nova Ligação (Variante)","sourceRow":138,"distanceToParcelM":8.368}},{"type":"Feature","geometry":{"type":"LineString","coordinates":[[-48.73547,-26.87326],[-48.72869,-26.873390000000004]]},"properties":{"tipoint":"Alargamento","sourceRow":320,"distanceToParcelM":227.674}}]}