{"type":"FeatureCollection","features":[{"type":"Feature","properties":{"source":"Prefeitura de Itajaí · APP_hidrografia_integrada_SDS","sourceObjectId":18,"sourceSha256":"42bf337686bc75c929224e48ab873c6ce6df4f34c3ff6a71cebf504e576b798b","authority":"municipal-screening-observation","legalAppAreaAdopted":false,"kind":"mapped-app-indication","role":"app-screening","label":"APP indicada na cartografia municipal"},"geometry":{"type":"MultiPolygon","coordinates":[[[[-48.72745239621382,-26.87991639520845],[-48.72748009486731,-26.879473273155302],[-48.727461879728274,-26.879364357707814],[-48.72745341849663,-26.879343810151454],[-48.727422936862375,-26.879289498208134],[-48.72741509097669,-26.879278731647346],[-48.72735566562398,-26.879218872531194],[-48.727279298943415,-26.879177239714398],[-48.727263146336256,-26.879171155724215],[-48.727171422955855,-26.8791509767138],[-48.727077235496616,-26.879157202528646],[-48.72698980336833,-26.879189223403255],[-48.72691768482069,-26.879243905578008],[-48.72686793971358,-26.879315896589812],[-48.72684543691568,-26.879398148510262],[-48.726852379994476,-26.879482610248257],[-48.72687212945605,-26.8795259744766],[-48.72684953323339,-26.8798874369478],[-48.72684938051975,-26.87989012116201],[-48.726843027152086,-26.880013698693183],[-48.72698137138317,-26.880131538740034],[-48.7271777030699,-26.880268403468772],[-48.72738814552212,-26.880387215879576],[-48.72742729181949,-26.88040473946145],[-48.72745239621382,-26.87991639520845]]],[[[-48.72888701290904,-26.880660414279333],[-48.72879727121216,-26.88063402101914],[-48.7287028277331,-26.880633787053384],[-48.728450465641025,-26.880668988821427],[-48.728576365420196,-26.880676610136042],[-48.72891639527277,-26.880682084932918],[-48.72891993271139,-26.880681987056423],[-48.72888701290904,-26.880660414279333]]]]}},{"type":"Feature","properties":{"source":"Prefeitura de Itajaí · APP_hidrografia_integrada_SDS","sourceObjectId":47,"sourceSha256":"42bf337686bc75c929224e48ab873c6ce6df4f34c3ff6a71cebf504e576b798b","authority":"municipal-screening-observation","legalAppAreaAdopted":false,"kind":"mapped-app-indication","role":"app-screening","label":"APP indicada na cartografia municipal"},"geometry":{"type":"Polygon","coordinates":[[[-48.731284194194174,-26.876483448732923],[-48.73056353962215,-26.876118394435935],[-48.73056144564918,-26.876117343150398],[-48.730072006651476,-26.875873991124443],[-48.73006862898604,-26.875872336467996],[-48.72984071921194,-26.875762401518806],[-48.729833008073555,-26.87575880934822],[-48.72958440740351,-26.87564704334556],[-48.72893892026111,-26.875332372291684],[-48.72890121437537,-26.87531096822432],[-48.7287947729974,-26.875273527923774],[-48.728777699617076,-26.875270690553425],[-48.72867653943465,-26.875269341981237],[-48.72858056342967,-26.875298045011863],[-48.72850055497891,-26.875353575231234],[-48.72844550172669,-26.875429695361923],[-48.72842158857387,-26.875517852404467],[-48.72842012970981,-26.875536443107684],[-48.72842093549862,-26.8755828441306],[-48.72842535790478,-26.875621819596972],[-48.728405966871065,-26.8756193548344],[-48.728286324749945,-26.87560153818939],[-48.72827108213622,-26.875599273748488],[-48.728112341740655,-26.87519064959765],[-48.72807239096503,-26.87512170487384],[-48.728012247858416,-26.875065777099746],[-48.727972435423396,-26.875038095657857],[-48.72794620012551,-26.875021770927738],[-48.727897338960545,-26.874994684034245],[-48.727848367302855,-26.874972767075505],[-48.72777321783945,-26.87494646383481],[-48.72809632927074,-26.874215058052688],[-48.72811527833331,-26.87414850060394],[-48.72811493517687,-26.874079808455203],[-48.728103340621516,-26.874001321177673],[-48.72826275834681,-26.8738919557365],[-48.72826807816988,-26.873886781739227],[-48.728467691012526,-26.87360863556922],[-48.72851131679602,-26.873614989897675],[-48.72853470173949,-26.873618590149437],[-48.72924033917493,-26.87362398371575],[-48.72924716457444,-26.87362396688838],[-48.730021391028615,-26.873614181529582],[-48.729992905220584,-26.873597926849087],[-48.72977215300924,-26.873497790301926],[-48.72945352575083,-26.873370493671715],[-48.72922522843122,-26.873290989681642],[-48.7289893920762,-26.873231772258546],[-48.72874825222265,-26.873193402724745],[-48.728504094669525,-26.873176244781494],[-48.72825923381403,-26.873180461062315],[-48.728015990716955,-26.873206011591964],[-48.72777667110508,-26.873252654165626],[-48.72754354351878,-26.873319946644685],[-48.72731881781188,-26.87340725114748],[-48.727104624207506,-26.87351374009504],[-48.72690299310805,-26.87363840405485],[-48.72671583585073,-26.873780061308164],[-48.72654492659097,-26.873937369050225],[-48.726391885485185,-26.874108836117426],[-48.726258163332524,-26.874292837120706],[-48.72614502782097,-26.87448762785141],[-48.72605355150833,-26.87469136181351],[-48.72598460165204,-26.87490210772576],[-48.725938831984344,-26.875117867827715],[-48.725916676511005,-26.875336596816304],[-48.72591834539227,-26.875556221233513],[-48.72600358657669,-26.876931755208123],[-48.72606301687959,-26.876892437600787],[-48.726099782229284,-26.876864286255163],[-48.726445927362775,-26.876521274850617],[-48.726466207728606,-26.876495087354822],[-48.726617793042905,-26.876264562290103],[-48.72663339318611,-26.876236224890228],[-48.72664131273367,-26.87620645799252],[-48.726696162068286,-26.87615246104922],[-48.72698662692548,-26.8757322394617],[-48.72699672129436,-26.875737421387335],[-48.72710702542812,-26.875564626034254],[-48.72720169887587,-26.875396537994714],[-48.727234738013706,-26.875329384280324],[-48.72729103722921,-26.87535885493159],[-48.72757732492039,-26.875459058614275],[-48.7277267488881,-26.875843704897587],[-48.727759631719074,-26.875903435992612],[-48.727799549257014,-26.875957844915753],[-48.727886182783024,-26.876035418972332],[-48.72793499543896,-26.876064126616267],[-48.72799021308286,-26.876089734882896],[-48.72804204856964,-26.876107986548654],[-48.72810303339766,-26.876123071534586],[-48.728187488509114,-26.876135618048963],[-48.72831060621209,-26.876153952239587],[-48.72831768403819,-26.876154929005306],[-48.7283889078638,-26.876163983518957],[-48.728603725590936,-26.876211555761618],[-48.728614174794345,-26.876213693587367],[-48.72864381021556,-26.876219263312336],[-48.72874532702922,-26.876222679987197],[-48.72884235765631,-26.876195702356007],[-48.72886432865149,-26.876185700726996],[-48.72894635920999,-26.876130937745735],[-48.72900329173777,-26.87605475558697],[-48.72902442550317,-26.876012341152773],[-48.729029986074714,-26.875992974082077],[-48.7293004804849,-26.876124838367186],[-48.7293093657214,-26.876128999438283],[-48.72955856377109,-26.876241034195793],[-48.72978095249945,-26.876348306817214],[-48.73026766061869,-26.876590302054186],[-48.73098990071723,-26.876956160112485],[-48.73099518640439,-26.87695877548631],[-48.73138875767072,-26.87714893236401],[-48.7313425135582,-26.87651162624132],[-48.731284194194174,-26.876483448732923]]]}}]}