{"type":"FeatureCollection","features":[{"type":"Feature","geometry":{"type":"Polygon","coordinates":[[[-48.7170017517436,-26.876527897472922],[-48.71710375644072,-26.876556222438264],[-48.717347698119056,-26.87661744852322],[-48.71743822210666,-26.87662036067327],[-48.717715627601045,-26.876633367563034],[-48.718078805910594,-26.87665346484402],[-48.71812365319719,-26.8766390967682],[-48.71814026857372,-26.876625534241725],[-48.71816509009525,-26.87661415283461],[-48.71819801766264,-26.87661444469023],[-48.71824273654318,-26.876611678191793],[-48.718608721050124,-26.876590665946726],[-48.71863928308753,-26.876591991603476],[-48.71866506049314,-26.876600658113148],[-48.71869565788709,-26.876598820341595],[-48.71871816433577,-26.876584253702053],[-48.7187630579803,-26.87656566811811],[-48.718854850132516,-26.876560154717577],[-48.71894319853302,-26.876547227073246],[-48.719235584047524,-26.87648126668585],[-48.71928619598438,-26.87647749762517],[-48.7193451332314,-26.87646536369311],[-48.719421730644335,-26.876451276785268],[-48.71958087805155,-26.876416829450058],[-48.719703614701224,-26.876377839622805],[-48.71998178713809,-26.876321244854903],[-48.72004203869647,-26.876296466857163],[-48.7201071100706,-26.876261184497455],[-48.72038748932678,-26.87611074445653],[-48.72045599525955,-26.876083929990884],[-48.72049142339573,-26.876070533586937],[-48.72052805093926,-26.87605503757581],[-48.7205741324109,-26.87603540747199],[-48.72061557060815,-26.876010462801673],[-48.72064162644904,-26.875993819719145],[-48.72068065273622,-26.875974126271757],[-48.72072679164558,-26.875949223123285],[-48.720788277527376,-26.875919183566758],[-48.720917219970126,-26.875850717668296],[-48.7210451836722,-26.875764314996335],[-48.72108552413453,-26.875731977643817],[-48.721227036630985,-26.875589798133962],[-48.72125197456315,-26.875567871999674],[-48.72128629785186,-26.875548136797676],[-48.72138578238093,-26.8754846839373],[-48.72143450515824,-26.87543871029281],[-48.72151200875055,-26.87534236943338],[-48.7215358046754,-26.875317268050967],[-48.72163330938372,-26.875220047658182],[-48.721754517010915,-26.87510616398266],[-48.721853518733866,-26.87500342470955],[-48.72188011179939,-26.874975828874863],[-48.7220680086964,-26.874759630206235],[-48.72220812222899,-26.874614022977017],[-48.72233410070001,-26.874481562004842],[-48.722514044919926,-26.874253367194783],[-48.722794689739715,-26.873887150168084],[-48.723007289485786,-26.873482288335246],[-48.723033887375465,-26.87343654403092],[-48.72304561565824,-26.873414917211786],[-48.72310039922856,-26.87332483853049],[-48.72321130268719,-26.873096564065428],[-48.723337032977234,-26.87283532724423],[-48.72350901750683,-26.87251447246589],[-48.72364139775461,-26.872162640649364],[-48.72378132072709,-26.871820331927356],[-48.72389478085269,-26.87147211517363],[-48.72402434194679,-26.87110897482162],[-48.724152236635966,-26.870728505642496],[-48.72431069554541,-26.87030652127774],[-48.724449329008706,-26.869944051721728],[-48.72455877891065,-26.86966271348821],[-48.72465012501832,-26.869548432522063],[-48.72470630303093,-26.86934301500557],[-48.724706622628574,-26.869248555052252],[-48.72468388539545,-26.86895996184207],[-48.7246955823321,-26.86893232039034],[-48.724766369715525,-26.868848887946296],[-48.72483210695295,-26.868781064174136],[-48.72487499971228,-26.868680774071333],[-48.72491797188977,-26.868516802767097],[-48.7249993420737,-26.868142178373617],[-48.724990093225486,-26.867631358601102],[-48.725007001764446,-26.867224446031372],[-48.72504478323508,-26.866810725699004],[-48.725061984841034,-26.866779525112875],[-48.725097015024915,-26.866763817908286],[-48.72513678090692,-26.86674880060963],[-48.72515210665343,-26.866736710831706],[-48.72515379435769,-26.86667974450172],[-48.7251478002638,-26.86666420341767],[-48.72513117684052,-26.86665294931291],[-48.72509762317877,-26.86664848340835],[-48.72507985081258,-26.86664395573093],[-48.72506990404161,-26.8666270135675],[-48.72500719518682,-26.86615426294808],[-48.725008911500716,-26.86610260530683],[-48.72502660109469,-26.86609015110487],[-48.72506089230419,-26.86608470732768],[-48.72508811437465,-26.866085660019568],[-48.725097156884225,-26.86607960936786],[-48.72509267378502,-26.866050617184406],[-48.724896800801815,-26.86529396042928],[-48.724888023809804,-26.865274183536584],[-48.7248737763245,-26.865264689546883],[-48.724858010979574,-26.86526758345158],[-48.724820591751055,-26.86527870017903],[-48.72481074070821,-26.86528050709795],[-48.724802446816284,-26.8652784188349],[-48.72478932665101,-26.865257951114327],[-48.724709930663344,-26.86507748882547],[-48.72468173810598,-26.865],[-48.72249263395809,-26.865],[-48.72258506103339,-26.865160358565976],[-48.722597502240916,-26.86518159615035],[-48.72267977423149,-26.865319799778465],[-48.72268428434262,-26.86532737545532],[-48.722797029597935,-26.86563727704847],[-48.72283740988863,-26.865738030522703],[-48.72283820575756,-26.865739841936104],[-48.722917599069106,-26.86592030510367],[-48.72296898222253,-26.866026915900672],[-48.722996745509555,-26.8660755849417],[-48.722995917296494,-26.86610049912495],[-48.72299534853357,-26.86612185551108],[-48.72299729152592,-26.866239932963477],[-48.72300784126636,-26.866357643742973],[-48.72300910929235,-26.866367429611],[-48.72304373947052,-26.86662853551013],[-48.72303959668031,-26.866660379450384],[-48.72303931760643,-26.866663409899072],[-48.72301924771406,-26.86688314215902],[-48.72300152912526,-26.867077121125998],[-48.72299620797831,-26.867157227249916],[-48.72297929228175,-26.86756413912906],[-48.72297822046056,-26.867598949278104],[-48.72297816060605,-26.867660643532925],[-48.72298398365919,-26.867982560731974],[-48.722983375071074,-26.867985362963697],[-48.722971306879,-26.86800208944061],[-48.72290715990824,-26.868105219303462],[-48.72285066997963,-26.868211890126315],[-48.72281429405206,-26.86829200468391],[-48.722802596747826,-26.86831964595737],[-48.722790383383646,-26.86834928776932],[-48.722749901392355,-26.86846165923639],[-48.72271770142353,-26.868576164012683],[-48.722693921089856,-26.868692313389282],[-48.722691860860216,-26.868708149793395],[-48.72269185014338,-26.86870823264621],[-48.7226786619909,-26.868809608148556],[-48.72267198954982,-26.86892754668342],[-48.72267323355084,-26.8690312196197],[-48.72267328543846,-26.869032396350512],[-48.722672827606274,-26.869033499888687],[-48.72266526628037,-26.86905203709744],[-48.72265886993085,-26.869068228660726],[-48.72259600680936,-26.869229811857597],[-48.722586539139634,-26.869254144558262],[-48.722549416125275,-26.869349565182556],[-48.72254595589337,-26.869358534821554],[-48.72240731736171,-26.869721002198276],[-48.72240369115107,-26.86973057018921],[-48.7223465474083,-26.86988274171521],[-48.72227149578064,-26.870082599711267],[-48.72224522839576,-26.870152547570832],[-48.722225634896056,-26.870207624136846],[-48.7221026335635,-26.870573517114774],[-48.721978240380224,-26.87092215789205],[-48.721963295472065,-26.870965950208618],[-48.72187949346211,-26.871223132183516],[-48.721868768574645,-26.87125604760801],[-48.7217520757891,-26.871541512545353],[-48.72174785038478,-26.871551949836398],[-48.72173474970708,-26.871585660797653],[-48.72164187201317,-26.871832495802657],[-48.721523417984784,-26.87205347722785],[-48.72149206915664,-26.8721148761387],[-48.721489502281685,-26.872120185369706],[-48.721365136987714,-26.872378578943852],[-48.72129116527826,-26.87253083039249],[-48.72129097693576,-26.87253113960245],[-48.72127900769293,-26.872550821208318],[-48.72125713884228,-26.872587792012855],[-48.72123703247102,-26.872623786815357],[-48.721223006860995,-26.872647906888062],[-48.721218811964256,-26.872655162608705],[-48.72118676664944,-26.872713439449537],[-48.721043757255224,-26.872985770773948],[-48.72086326800929,-26.873221288216882],[-48.72074381101583,-26.873372774777636],[-48.720680842183455,-26.873438982331283],[-48.720544533072044,-26.873580634425313],[-48.720493824398346,-26.873635482932436],[-48.720480829937664,-26.87365027558371],[-48.720357789189194,-26.873791846471715],[-48.720324252313176,-26.87383043461296],[-48.72026448039255,-26.873892461955005],[-48.7201776260188,-26.873974067639296],[-48.720144479741705,-26.87400597307493],[-48.72013712512568,-26.87401326710488],[-48.72003962033462,-26.874110486464023],[-48.7200026491475,-26.874148400008366],[-48.71998528176188,-26.874166720096838],[-48.71995259107442,-26.874189908850244],[-48.71985487680979,-26.874269070269605],[-48.71984318092006,-26.874279271392098],[-48.71981824303788,-26.874301197281866],[-48.719738207130774,-26.874375719292317],[-48.71973421889359,-26.874379689768165],[-48.71968908833184,-26.874403061191558],[-48.71966816569204,-26.874414354225713],[-48.719654789051,-26.8744211043046],[-48.719603216582556,-26.874448707981763],[-48.71958250073842,-26.874456816887683],[-48.71953008219895,-26.874478140266504],[-48.719412850061374,-26.874531923428496],[-48.719354294164994,-26.87456215681137],[-48.719289411132806,-26.87459696992508],[-48.71924496519166,-26.87462081791472],[-48.719217856595165,-26.874626598108915],[-48.71909117662259,-26.87465883858415],[-48.71903168241706,-26.874676805921137],[-48.71900730272869,-26.874684551452656],[-48.71898338519861,-26.874689727948788],[-48.71896615169019,-26.874692897931727],[-48.71895924114845,-26.874693756476915],[-48.71887859252008,-26.874705283399297],[-48.718749832970815,-26.874730024012617],[-48.71874465021308,-26.874731186598698],[-48.71857522814969,-26.874769407251794],[-48.71853636328377,-26.874772549098388],[-48.71840607377754,-26.874789684105853],[-48.71837038150487,-26.874796049257867],[-48.718131592651524,-26.874809759272278],[-48.71811850702171,-26.874810030703774],[-48.71806966429216,-26.87481157725025],[-48.717938404882965,-26.874821033456012],[-48.71784943535073,-26.87483273399485],[-48.71783956925724,-26.874832188354837],[-48.71782069593782,-26.87483122375454],[-48.71766929947251,-26.87482412563605],[-48.71759698105609,-26.87480404365932],[-48.71755751801964,-26.87479348090477],[-48.71752386609244,-26.8747850921792],[-48.71734206454634,-26.874741291665853],[-48.71728428683297,-26.874728359060587],[-48.71724025806061,-26.874715848955923],[-48.71723029285147,-26.87471117206576],[-48.717111347467515,-26.87466050500494],[-48.717,-26.874620854262],[-48.717,-26.876527475432134],[-48.7170017517436,-26.876527897472922]],[[-48.72315807617077,-26.869423590273378],[-48.72313252299117,-26.869414540197536],[-48.723120331094535,-26.869409309839025],[-48.72311948101255,-26.86939629180977],[-48.72312761491835,-26.869374437365536],[-48.72315610038652,-26.869262755969867],[-48.72316001896368,-26.869182495498247],[-48.72315167976324,-26.86916246746075],[-48.72311553373542,-26.86915416356519],[-48.72306412709641,-26.86915507321778],[-48.72303667566125,-26.869158702664915],[-48.723014368511116,-26.86917146119079],[-48.72300502114654,-26.86918557649992],[-48.72297332164639,-26.869362030969164],[-48.72296443881923,-26.869390926895118],[-48.7229562077723,-26.86939272006705],[-48.72275899420205,-26.86935092011053],[-48.7227523040595,-26.869347426277418],[-48.722749541688756,-26.86934427009908],[-48.72275224500357,-26.86933510866611],[-48.722858832025096,-26.869066145296333],[-48.72286548111969,-26.869061543470814],[-48.722873702137875,-26.869057638404477],[-48.72289606635855,-26.86905649356847],[-48.72293842692452,-26.869051748957002],[-48.7234097406414,-26.86904986860437],[-48.72341406891037,-26.869052315406957],[-48.7234168443201,-26.86905793547664],[-48.72341726586863,-26.869063916500746],[-48.72341692649172,-26.869074828894945],[-48.72341577711062,-26.869080465137667],[-48.72325847676987,-26.869442556989455],[-48.72322097100886,-26.869444455983135],[-48.72315807617077,-26.869423590273378]]]},"properties":{"id":94555,"objectid":8275,"categoria":"200 a 600","buffer":"200 meters","sourceLayer":"ima-protegidas-281"}},{"type":"Feature","geometry":{"type":"Polygon","coordinates":[[[-48.71702057238988,-26.880242982853016],[-48.71720617240111,-26.880279224376064],[-48.717412080912716,-26.880319431633446],[-48.71749225582596,-26.880335087966298],[-48.71761917126904,-26.88035607316914],[-48.717622401967596,-26.880356511623155],[-48.71772720836171,-26.880370742003294],[-48.717729900138536,-26.880371105867898],[-48.71783278451378,-26.88038252557201],[-48.71796673027238,-26.880394261157637],[-48.717994646697754,-26.880396531535133],[-48.71799919478406,-26.88039686762983],[-48.71804756556457,-26.880400397992467],[-48.71833070227825,-26.88044673659384],[-48.718393452901786,-26.88045609070855],[-48.71852425392022,-26.880469780212408],[-48.71862020509753,-26.88047491189981],[-48.71880243462043,-26.880480746660655],[-48.7188380027577,-26.880481603585263],[-48.71896967728583,-26.8804798658853],[-48.71899869445607,-26.880478442069947],[-48.71917874832096,-26.880468437521237],[-48.71928099711877,-26.880460404454475],[-48.719411293132836,-26.880443269054435],[-48.71948653790982,-26.880429772263593],[-48.719534353846974,-26.88042034211169],[-48.71953440941502,-26.880420331277055],[-48.71959208958239,-26.880408957664283],[-48.71976882701549,-26.880374105819318],[-48.72032488079508,-26.88031214650196],[-48.72037095558775,-26.880306527880904],[-48.720438090114,-26.880297630314388],[-48.72050088184226,-26.880288396404758],[-48.720629647535596,-26.880263654585605],[-48.72070637353281,-26.88024508941385],[-48.72076888675463,-26.88022876936528],[-48.720818846768445,-26.880215093048438],[-48.720935308588196,-26.880178156134455],[-48.72099433844978,-26.880157585189096],[-48.72100193970702,-26.880154920170654],[-48.721122848086814,-26.880108126089233],[-48.721240085492,-26.880054341858127],[-48.72128014327948,-26.88003391502084],[-48.72131785871385,-26.880014166025],[-48.72133870377467,-26.880004578977942],[-48.721394996522086,-26.879977669110804],[-48.72144815952118,-26.879949199834186],[-48.72145493833009,-26.87994629500735],[-48.72153252122247,-26.879931703142894],[-48.72160796979248,-26.87991549571372],[-48.7216249634946,-26.87991177559299],[-48.721751648905425,-26.879879533190007],[-48.721875711347764,-26.879839930395658],[-48.72191052621023,-26.879826456112927],[-48.72199661908022,-26.87979313551993],[-48.72211385579113,-26.879739350514203],[-48.722225343713845,-26.8796797096504],[-48.72225360328164,-26.87966346192157],[-48.72246338397952,-26.879555134920114],[-48.72255740510404,-26.87950658390536],[-48.722566028891116,-26.879502105116412],[-48.72260036948253,-26.879484168511517],[-48.722621633268695,-26.879473061972185],[-48.72269653512248,-26.879431950123635],[-48.722804939514305,-26.87936490227815],[-48.72290822119076,-26.879291639605466],[-48.722916721134,-26.879284752863715],[-48.722933754071796,-26.87927741257922],[-48.72303680257471,-26.879229679080947],[-48.72314986354579,-26.879169131465318],[-48.723243090070675,-26.87911204440883],[-48.72324953626362,-26.87910785535678],[-48.72325624913621,-26.879104018046537],[-48.72326234536943,-26.879100519142398],[-48.72337074912917,-26.879033470818452],[-48.72347403015447,-26.87896020768658],[-48.72357174638619,-26.878881043905576],[-48.72366347942589,-26.878796318382534],[-48.72370220461251,-26.87875551997036],[-48.723762723954174,-26.878705910179377],[-48.723788694215074,-26.878686668797272],[-48.72388640999394,-26.878607504766972],[-48.72395752762855,-26.87854280341458],[-48.723987176785684,-26.878514435223376],[-48.72400038235563,-26.87850694468815],[-48.724108785129395,-26.878439895729052],[-48.72417941336725,-26.878390869163354],[-48.724856346056306,-26.87789905112552],[-48.72488899755752,-26.877874813773484],[-48.72498671188535,-26.87779564888075],[-48.72507611879525,-26.877713210489755],[-48.725278103963696,-26.87751468694878],[-48.725348373611645,-26.87744562134399],[-48.72535069780556,-26.877443333153398],[-48.72543605258752,-26.877353407489288],[-48.72547914881963,-26.877303079535395],[-48.725556880455784,-26.87720892488024],[-48.72573400911135,-26.87710188439783],[-48.72576464717517,-26.877083544415115],[-48.72579509225904,-26.877066147087834],[-48.72583290180407,-26.877044676430934],[-48.72584410087178,-26.87703826973672],[-48.72595250119676,-26.876971219191965],[-48.7260557787228,-26.876897953928314],[-48.7260630170893,-26.87689243734704],[-48.7260997828342,-26.876864286103984],[-48.726190257104875,-26.876790636843868],[-48.72628198651167,-26.876705909366628],[-48.72636733999967,-26.876615983049433],[-48.72644592681571,-26.876521274864682],[-48.72646620742318,-26.876495087238602],[-48.72653776671376,-26.876395907943017],[-48.72660191578966,-26.876292776629075],[-48.72661779289886,-26.876264561590194],[-48.726633392674806,-26.87623622476691],[-48.7266565846834,-26.876191423054628],[-48.726696161749985,-26.876152460378854],[-48.72669740902522,-26.87615123236008],[-48.726782761752325,-26.87606130573825],[-48.72686137261382,-26.875966565180104],[-48.72693290641139,-26.875867417724002],[-48.7269970548061,-26.87576428618201],[-48.727053545282075,-26.875657613796243],[-48.72706864158249,-26.87562475564743],[-48.727107025639604,-26.875564625568707],[-48.727149151116585,-26.875495143998215],[-48.72720169912541,-26.87539653829864],[-48.727253277810156,-26.875291701787287],[-48.72742958632527,-26.875036934083557],[-48.72744416532894,-26.875015537735358],[-48.72748079328253,-26.874958609158586],[-48.72780642595196,-26.87443050036468],[-48.72803723382293,-26.874079886135647],[-48.728082884181724,-26.87404648954615],[-48.728180592950906,-26.873967322055638],[-48.72826275846344,-26.873891955647775],[-48.72826807867578,-26.873886781706524],[-48.728277638738625,-26.873877419075317],[-48.72836298843822,-26.873787491285167],[-48.7284415963268,-26.873692749637026],[-48.728496856004476,-26.873616154463026],[-48.7285131272188,-26.873593601173916],[-48.728577272787724,-26.873490468712237],[-48.728633760529775,-26.87338379549798],[-48.728643140494356,-26.873364159120655],[-48.72864722691657,-26.873355462001506],[-48.72868643329945,-26.873265339852978],[-48.72872691163317,-26.87315296649196],[-48.728759107308065,-26.873038460113683],[-48.7287828827752,-26.872922309448075],[-48.7287981365048,-26.872805013729877],[-48.72880460127553,-26.87269596501265],[-48.72880463053973,-26.872694803123025],[-48.72880516291463,-26.872693744079523],[-48.728815687024984,-26.87267244300364],[-48.72886427284997,-26.87256268437646],[-48.72887262952153,-26.87254001552625],[-48.72891892767798,-26.872491233176078],[-48.72899753414477,-26.87239649111678],[-48.729069063668085,-26.872297342273367],[-48.72913320792733,-26.872194209463892],[-48.72915721345395,-26.872151052849393],[-48.72930457699608,-26.87187701077507],[-48.72933705779625,-26.871813493815196],[-48.729384715038776,-26.87170604385031],[-48.72940481838794,-26.871656116525045],[-48.72940574604704,-26.871653807616028],[-48.72944622298574,-26.871541433944326],[-48.7294556697714,-26.87151093482933],[-48.72945651732873,-26.871508102111665],[-48.729457858862816,-26.871505426238],[-48.72946771198721,-26.871485461679214],[-48.72951629660178,-26.8713757027391],[-48.72955677331289,-26.87126332901852],[-48.729588967480844,-26.871148822336508],[-48.7296070906114,-26.87106453018807],[-48.729665501886544,-26.87075319272171],[-48.729671152799796,-26.870721333952318],[-48.72968640514587,-26.87060403802823],[-48.7296928291416,-26.870490375195523],[-48.72973316576563,-26.870378387193583],[-48.729765359438204,-26.8702638804312],[-48.729789133086406,-26.87014772945293],[-48.72979260496332,-26.87012606226881],[-48.72981575206508,-26.869975135972055],[-48.7298230480726,-26.869927566628544],[-48.72983600706499,-26.869847478098087],[-48.72984919537162,-26.86981237337138],[-48.72987632216782,-26.8697343805673],[-48.72990851546525,-26.86961987374211],[-48.72993228878258,-26.869503722712313],[-48.72994754059928,-26.869386426714183],[-48.72994755598693,-26.86938626090985],[-48.7299744701283,-26.869097064180277],[-48.72998432199087,-26.868991210259967],[-48.729990733970354,-26.86888371455351],[-48.729992357574076,-26.868822033519073],[-48.730021412251325,-26.86871869010816],[-48.73004518519397,-26.868602539026586],[-48.73006043670124,-26.868485242987557],[-48.73006710143378,-26.868367303612345],[-48.730065151219215,-26.868249225825252],[-48.73006207660344,-26.86820350772087],[-48.73006195786921,-26.86820204654444],[-48.73006235954815,-26.86820062711987],[-48.730078006120785,-26.868141026818375],[-48.730081908029355,-26.86812457368765],[-48.7300922502284,-26.86807995103034],[-48.73011212101843,-26.8679802530469],[-48.73012318018945,-26.867902656289818],[-48.73012956347444,-26.86784857366807],[-48.73013342624184,-26.86781236607893],[-48.73014049100358,-26.867738270743008],[-48.73014082036375,-26.86773477902306],[-48.730147484908166,-26.867616839624503],[-48.73014778669491,-26.86757633960571],[-48.730147563199296,-26.867532112132704],[-48.730145311064916,-26.867454534349143],[-48.73014342265191,-26.867424289832687],[-48.73012406584807,-26.867154780271665],[-48.73011823361938,-26.86709593497679],[-48.73011811910955,-26.86705506728619],[-48.73011811907666,-26.86705501855312],[-48.730118105857755,-26.867050390553626],[-48.73011844088856,-26.86702223123075],[-48.73012094754913,-26.86700998548423],[-48.73013619863639,-26.866892689394316],[-48.73014286306785,-26.866774749980234],[-48.730140912672425,-26.866656672166453],[-48.73014087246417,-26.866655914361058],[-48.73013914458611,-26.86662362745912],[-48.73012862761723,-26.8665066745554],[-48.730109508975,-26.866389834345956],[-48.73008191043301,-26.866274366806614],[-48.73006497821393,-26.866217338509127],[-48.73006390296186,-26.8662139415421],[-48.73006803456809,-26.866179333804904],[-48.730074698970355,-26.8660613943849],[-48.730072748600186,-26.865943316564408],[-48.730062191500444,-26.865825605848197],[-48.7300430729872,-26.86570876563087],[-48.73003249396732,-26.86566001563602],[-48.729974490392394,-26.865411020637538],[-48.729957471110765,-26.865344303079784],[-48.729921510993606,-26.865230701018337],[-48.72987734433887,-26.865119451559266],[-48.729826843523085,-26.86501424513492],[-48.72981939950878,-26.865],[-48.72741818435684,-26.865],[-48.72742186922413,-26.86503788858565],[-48.727442172543824,-26.86510625654209],[-48.72752016140264,-26.86520493254982],[-48.727524562393654,-26.865223870030402],[-48.727523922435026,-26.865252655234382],[-48.727526801487414,-26.865280374381896],[-48.727543703685036,-26.86529469922937],[-48.727577836333204,-26.865311059166945],[-48.727611613208175,-26.865334443490422],[-48.72772488088064,-26.865443505459417],[-48.72783598688691,-26.865590137838637],[-48.72786103914302,-26.865669018090728],[-48.727890159529494,-26.865700140920083],[-48.727926679897756,-26.86572421544937],[-48.727961567053676,-26.865734956122083],[-48.72798745872609,-26.865746786697244],[-48.72800484754682,-26.865780063632556],[-48.72806284686527,-26.866029059168568],[-48.72806095296025,-26.866042052930666],[-48.72803990889919,-26.86606004158535],[-48.72794772375723,-26.866096918954533],[-48.72787930549088,-26.86611228853282],[-48.72782657127086,-26.86613285935294],[-48.72781845064161,-26.866152900411247],[-48.727820250362555,-26.866199578996255],[-48.72789028811231,-26.866351642484982],[-48.727911971863975,-26.8663827955356],[-48.727941798744446,-26.866398822644378],[-48.72795992974103,-26.86642437388194],[-48.72799029317512,-26.866469533600174],[-48.72800561849968,-26.86648140724886],[-48.728032689862,-26.86649463754676],[-48.72807324778046,-26.866543265961113],[-48.72808910455793,-26.866583219877587],[-48.72812927094155,-26.86671012805213],[-48.72813099824564,-26.86674241494247],[-48.72812485638222,-26.866766660781316],[-48.7281082491209,-26.866810956918453],[-48.72808417849607,-26.866850368088226],[-48.72806903082141,-26.866873597342334],[-48.728071580886926,-26.86691395456982],[-48.72809415089654,-26.86696581511519],[-48.72810643857554,-26.86699665641901],[-48.72810588655156,-26.86704299396222],[-48.7281063757572,-26.86721885398188],[-48.728116030452995,-26.867270766757407],[-48.728135382467876,-26.867540276291294],[-48.728135605179325,-26.867584503718184],[-48.728128539134644,-26.86765859887363],[-48.72812215492145,-26.867712681346998],[-48.728111812004244,-26.86775730381555],[-48.72809391377186,-26.86777878680806],[-48.72806933389924,-26.86779433250503],[-48.72799573803959,-26.867808209200224],[-48.72798638406946,-26.867820074050343],[-48.72797470628064,-26.86789089312448],[-48.72797089442854,-26.8679895458213],[-48.72797344340404,-26.868029552875164],[-48.72800924594988,-26.868066616616925],[-48.728015991796745,-26.868084844559984],[-48.72805520853788,-26.868334965729304],[-48.72804939875713,-26.86834692367153],[-48.7280345882027,-26.86835962128015],[-48.7280048848369,-26.86838208399993],[-48.72798557737251,-26.868420896688594],[-48.72798137296775,-26.868753682853768],[-48.727979069739696,-26.868841097179164],[-48.72794229688951,-26.869236146879036],[-48.72787083787914,-26.869426339484193],[-48.727830593074785,-26.86967502570584],[-48.72779913052028,-26.869880150935916],[-48.72774648882398,-26.869997955255826],[-48.7277410173554,-26.869999731724874],[-48.7277251872191,-26.87004297176468],[-48.72765757806137,-26.870292703211064],[-48.72763281846913,-26.870361685583557],[-48.72763251897399,-26.870376661491264],[-48.7276338429161,-26.870388855076126],[-48.72764357120438,-26.87039884287495],[-48.72766417492215,-26.870413687522905],[-48.727672905824676,-26.87042131831392],[-48.72767999456426,-26.870432667873164],[-48.727681346584326,-26.870443457692033],[-48.72768114069413,-26.870453753177735],[-48.727622724260144,-26.87076508950281],[-48.72751724768545,-26.870962788152607],[-48.72751216989461,-26.871043192664825],[-48.72749206586383,-26.871093119679045],[-48.72734469926012,-26.871367159678254],[-48.72731540751049,-26.87138026496997],[-48.72728291864691,-26.87138004373805],[-48.72725745599487,-26.87137558390353],[-48.72723361338293,-26.87138269972113],[-48.7272016434174,-26.87140775008851],[-48.727035098014404,-26.871760846475127],[-48.72697068540113,-26.87195206146451],[-48.72690198478063,-26.87206817568043],[-48.72686824966931,-26.872131846001217],[-48.72677147367505,-26.872348113827194],[-48.72675918548341,-26.872395552966278],[-48.726754811567645,-26.872460157763403],[-48.726767702681045,-26.87253347109154],[-48.726786134912174,-26.872598516869672],[-48.72679332639365,-26.872630182337442],[-48.72679283556956,-26.872654713934654],[-48.72678874903889,-26.872663410993553],[-48.72678342882518,-26.872668584879257],[-48.726774929054635,-26.872669615880728],[-48.72674494069996,-26.872669133324926],[-48.7267175949089,-26.872666940723054],[-48.72667873538845,-26.87265346086413],[-48.726653356895234,-26.87265071692335],[-48.72663449922002,-26.872648076108394],[-48.726601749430436,-26.87265514412625],[-48.72658728925922,-26.872660753903002],[-48.72653959405075,-26.872759940202528],[-48.72636914379411,-26.873064061591794],[-48.72605913771226,-26.873534974760084],[-48.725719776241824,-26.874085333861757],[-48.725469110071046,-26.8744475401948],[-48.72536060874667,-26.87466806706896],[-48.72525030339596,-26.874840861174448],[-48.72520850960805,-26.874937207157554],[-48.72514135800009,-26.87500331512242],[-48.72512437251008,-26.875020034758084],[-48.7250468348383,-26.875091603104572],[-48.724984925368105,-26.875157140227447],[-48.72495286270494,-26.875185332649774],[-48.72490153367564,-26.875254487496907],[-48.724832150606765,-26.875361449443425],[-48.72482927854067,-26.875408882975353],[-48.72482896592217,-26.875437355706676],[-48.72481336583678,-26.875465692312055],[-48.72479308506908,-26.87549187969173],[-48.72475631949788,-26.875520030607035],[-48.72471608361298,-26.875542878761177],[-48.72466519464381,-26.875571959105994],[-48.72461310631263,-26.875603139068385],[-48.7242295242877,-26.875834939923806],[-48.7241666568462,-26.87588395356546],[-48.72409774642249,-26.875947679041303],[-48.72405369199593,-26.875996858561567],[-48.72386179803677,-26.87622929378982],[-48.72358954308221,-26.876496880073667],[-48.72291261421784,-26.876988692306828],[-48.72286054894958,-26.877017762005163],[-48.72280844841677,-26.877049995106876],[-48.72271495798744,-26.877102956211843],[-48.722634356437005,-26.877160249251936],[-48.72259026565515,-26.877212591661987],[-48.72252965652864,-26.877270060771835],[-48.72248924536774,-26.87730872536934],[-48.722448937915814,-26.8773378996503],[-48.722203280077395,-26.87753927484503],[-48.72217458248257,-26.877582261454176],[-48.722102420376466,-26.877620644937494],[-48.72206210164577,-26.87765087297715],[-48.7219805670235,-26.877686009840104],[-48.72184348320405,-26.877745966972487],[-48.72169190670057,-26.877840598788048],[-48.721645639170944,-26.877877102046686],[-48.72160877731676,-26.877913688417152],[-48.72155318367532,-26.87794272594938],[-48.72120781056962,-26.87812107020301],[-48.72113916437845,-26.87816053867479],[-48.721063716947384,-26.878176745926382],[-48.720990692537555,-26.878186646202682],[-48.72090589486841,-26.87819749536907],[-48.720842161166104,-26.878218024722866],[-48.72075600465396,-26.87824573670901],[-48.720459411506795,-26.87837283269381],[-48.72042031371129,-26.878398852857472],[-48.72035057362223,-26.878430928449895],[-48.72026540434511,-26.878475524645125],[-48.720206375274046,-26.878496095336946],[-48.72014386296475,-26.87851241519513],[-48.720076729493336,-26.878521312688875],[-48.7194279173492,-26.878593607634127],[-48.71910216199869,-26.878657845282422],[-48.719054291223955,-26.878667286169144],[-48.71887424023037,-26.878677290741027],[-48.718692013584835,-26.878671456253993],[-48.718310480000206,-26.87860901323253],[-48.718162414505024,-26.878598208711814],[-48.71802847081668,-26.878586473441654],[-48.717920435347295,-26.878571804939455],[-48.717634337965826,-26.87851593947249],[-48.717405410950384,-26.878471238315925],[-48.717286722325866,-26.878448062165113],[-48.717,-26.878395130452954],[-48.717,-26.880238965954366],[-48.71702057238988,-26.880242982853016]]]},"properties":{"id":94557,"objectid":8277,"categoria":"200 a 600","buffer":"200 meters","sourceLayer":"ima-protegidas-281"}},{"type":"Feature","geometry":{"type":"Polygon","coordinates":[[[-48.722266742636705,-26.8824390067589],[-48.7222864942815,-26.882438745925224],[-48.7223061846309,-26.88243732625687],[-48.72232572897572,-26.882434756314716],[-48.72234504461888,-26.882431044692076],[-48.722364047694434,-26.882426208085615],[-48.722382657264205,-26.882420267751353],[-48.72240079432984,-26.88241324858657],[-48.722418379784465,-26.882405180901458],[-48.72243533947926,-26.88239609869604],[-48.72245160016293,-26.882386041399528],[-48.72246709354229,-26.88237505213094],[-48.72248175125186,-26.882363177617872],[-48.7224955118782,-26.8823504692124],[-48.722508315983966,-26.882336980103332],[-48.722519004492135,-26.882324101227354],[-48.72253854959084,-26.88230814341907],[-48.722544905379436,-26.882302802328855],[-48.72255866599133,-26.882290093916218],[-48.72257147008266,-26.88227660480041],[-48.72258326311991,-26.882262394566474],[-48.72258355656735,-26.882262013952097],[-48.722596482409614,-26.882245263537147],[-48.722606920432874,-26.882230772448256],[-48.722616543764985,-26.882215303502555],[-48.72262501840176,-26.882199302539576],[-48.72263190740133,-26.88218383191749],[-48.72263939017365,-26.882165400003277],[-48.722639790492366,-26.8821644074459],[-48.72264586390359,-26.882147551947597],[-48.72265069481166,-26.882130375898356],[-48.722654261594336,-26.882112953853024],[-48.722656551702,-26.88209535961027],[-48.72265671909442,-26.88209348611542],[-48.722658606212136,-26.882071396587317],[-48.72267934950753,-26.881874275854052],[-48.72268482908239,-26.881840007024742],[-48.722686835892176,-26.88182414362432],[-48.72268766964477,-26.88181182418291],[-48.72269095203189,-26.88173405340943],[-48.72269111911526,-26.88172868201229],[-48.72269116761267,-26.88172380414822],[-48.722691160797375,-26.881567001501953],[-48.72269918032684,-26.881446061689502],[-48.72271143308285,-26.881306781948172],[-48.72271231887759,-26.881290360805608],[-48.72271235288296,-26.881288162984955],[-48.72271287316638,-26.881240834245705],[-48.72271254820555,-26.881225320397643],[-48.72271247119826,-26.88122394111438],[-48.72271093803807,-26.88119781392157],[-48.72271051406759,-26.88119185542584],[-48.722682639934845,-26.88085755893521],[-48.72268156465261,-26.880847293371676],[-48.7226722541533,-26.880773538499817],[-48.72264418565195,-26.88052824212545],[-48.72264383967797,-26.88052537036469],[-48.72264194047325,-26.88051293195227],[-48.722602496960846,-26.880292783941652],[-48.722601710249165,-26.880288604643333],[-48.7225525033567,-26.880038980387894],[-48.72255106752488,-26.88003133875006],[-48.72254409516699,-26.879978551199653],[-48.7225435634568,-26.879974754139493],[-48.72251024143865,-26.87974976479747],[-48.72250807961666,-26.879737375393393],[-48.72250394053934,-26.87972005470389],[-48.72250205709167,-26.879713607009514],[-48.72248031573877,-26.879642730844],[-48.72246565474006,-26.87956515263683],[-48.72246510904392,-26.87956235436346],[-48.72246338397952,-26.879555134920114],[-48.72225360328164,-26.87966346192157],[-48.722225343713845,-26.8796797096504],[-48.72211385579113,-26.879739350514203],[-48.72199661908022,-26.87979313551993],[-48.72191052621023,-26.879826456112927],[-48.72191448691685,-26.879839369079473],[-48.7219448129058,-26.88004413230125],[-48.7219524035346,-26.8801016045316],[-48.72195450127389,-26.880114727501994],[-48.721957367328,-26.880129985426883],[-48.72195778300174,-26.880132140864895],[-48.72200678945097,-26.88038075580104],[-48.722044490467646,-26.88059118531072],[-48.72207184015236,-26.88083020804825],[-48.722072179131224,-26.880833026452294],[-48.72208102031982,-26.880903065608695],[-48.72210821617981,-26.881229243583316],[-48.722109078606195,-26.88124394757487],[-48.722108753558736,-26.881273501182363],[-48.722097088084595,-26.881406093227216],[-48.72209668548869,-26.881411313724847],[-48.72208795970157,-26.88154289821297],[-48.722087476409364,-26.881554098847815],[-48.722087427886656,-26.881558976710153],[-48.722087433683576,-26.881718698726885],[-48.722084965310394,-26.881777189116974],[-48.7220806926621,-26.881803909434872],[-48.7220789708251,-26.881816900408257],[-48.722063174973165,-26.881967004644174],[-48.72205992813045,-26.8819700269244],[-48.72204712401939,-26.881983515992683],[-48.72203533095024,-26.881997726179925],[-48.72202595905907,-26.882010591058556],[-48.722014861298156,-26.882026813189864],[-48.72201350167127,-26.882028819968045],[-48.722003878277974,-26.88204428886883],[-48.72199540356984,-26.882060289790047],[-48.72198811417087,-26.88207675293154],[-48.721982040668784,-26.882093608395746],[-48.72197720966328,-26.882110784415918],[-48.72197364277812,-26.882128206437613],[-48.72197135256438,-26.882145800662492],[-48.721970351609436,-26.882163491487887],[-48.72197064243998,-26.882181203148818],[-48.72197222557066,-26.882198859847794],[-48.721975091455406,-26.882216385625032],[-48.721979230512005,-26.88223370632508],[-48.7219846241217,-26.882250746744145],[-48.7219912485811,-26.88226743430384],[-48.72199907612631,-26.882283698165097],[-48.72200807295699,-26.88229946739147],[-48.72201820115798,-26.8823146754924],[-48.72202941675962,-26.88232925678203],[-48.722041671677346,-26.88234315002049],[-48.722054913802296,-26.882356293902877],[-48.72206908586854,-26.882368633358315],[-48.72208412856165,-26.88238011508778],[-48.722099975434254,-26.882390690189432],[-48.72211655996649,-26.88240031337009],[-48.72213381053567,-26.88240894286412],[-48.722151654404406,-26.882416542302597],[-48.722170013732516,-26.88242307884409],[-48.722188810571176,-26.88242852506023],[-48.722207964887005,-26.882432857098802],[-48.72222739353786,-26.882436055569745],[-48.722247014224784,-26.882438109218675],[-48.722266742636705,-26.8824390067589]]]},"properties":{"id":112410,"objectid":26130,"categoria":"Ate 10","buffer":"30 meters","sourceLayer":"ima-protegidas-281"}},{"type":"Feature","geometry":{"type":"Polygon","coordinates":[[[-48.71703425184122,-26.882697873789855],[-48.717072673981974,-26.882671885275876],[-48.7170891779578,-26.882657709269935],[-48.717118537788444,-26.88263050575944],[-48.71713645640291,-26.882612341231678],[-48.71715514756441,-26.882589187821154],[-48.717184108046425,-26.882549006051313],[-48.71719254378016,-26.882536581225725],[-48.71720022347168,-26.8825237678586],[-48.71720712525028,-26.882510602596902],[-48.71721322719098,-26.882497124794096],[-48.717218513441395,-26.882483372096914],[-48.717222968094774,-26.882469384858524],[-48.71722657828076,-26.88245520257868],[-48.7172352232016,-26.882416448596874],[-48.71725122916749,-26.882341779737455],[-48.71725476195632,-26.882320332400184],[-48.71728783101015,-26.882042992259958],[-48.71734557515111,-26.88161064208466],[-48.71741413045882,-26.881226151934197],[-48.71750606010203,-26.880688286607526],[-48.7175447844231,-26.88051566666413],[-48.71757033803173,-26.880466800506465],[-48.717575219412346,-26.880456961479656],[-48.717622401967596,-26.880356511623155],[-48.71761917126904,-26.88035607316914],[-48.71749225582596,-26.880335087966298],[-48.717412080912716,-26.880319431633446],[-48.71720617240111,-26.880279224376064],[-48.71702057238988,-26.880242982853016],[-48.717,-26.880282322132228],[-48.717,-26.88271740332629],[-48.71703425184122,-26.882697873789855]]]},"properties":{"id":112408,"objectid":26128,"categoria":"Ate 10","buffer":"30 meters","sourceLayer":"ima-protegidas-281"}},{"type":"Feature","geometry":{"type":"Polygon","coordinates":[[[-48.73997452877619,-26.88189371511905],[-48.73994013669753,-26.88149745379086],[-48.73990430368775,-26.881125564598797],[-48.7398725519323,-26.880742032225985],[-48.739845690569155,-26.880431665359122],[-48.73981427274676,-26.88001072876207],[-48.739782839278675,-26.879376304904486],[-48.73976513845864,-26.878999823491654],[-48.73973471942298,-26.878497453375505],[-48.73971608364287,-26.87804587525834],[-48.739715533153046,-26.8780367218531],[-48.73971381060685,-26.878014957710793],[-48.73971189253017,-26.877998164782422],[-48.73970881133122,-26.87798151207431],[-48.73970457881443,-26.87796506384978],[-48.739699211832395,-26.877948883550403],[-48.73969273023775,-26.877933035568205],[-48.739685158985154,-26.87791758076698],[-48.73967652910135,-26.87790257830279],[-48.73966687260109,-26.8778880882499],[-48.73965622864906,-26.877874165382256],[-48.73964705152245,-26.87786294538108],[-48.73963397501881,-26.877848222814475],[-48.739619788691215,-26.877834350650463],[-48.73960456265788,-26.877821395890205],[-48.739588368132786,-26.877809421040034],[-48.739571286461924,-26.877798485158607],[-48.739553397122755,-26.877788640055062],[-48.73953478873672,-26.87777993317261],[-48.73951555001492,-26.87777240744361],[-48.73949577484216,-26.877766098663585],[-48.73947555920502,-26.877761038149536],[-48.73945499925155,-26.877757249098877],[-48.739434196231784,-26.87775475118096],[-48.739413249563164,-26.877753555011264],[-48.739389049056,-26.87775292945925],[-48.73936079554566,-26.87775338606066],[-48.739340668185804,-26.87775516666094],[-48.73897878191525,-26.877798202759966],[-48.73893191601712,-26.877801075935796],[-48.738835092170405,-26.877800023269597],[-48.73882400591502,-26.877800084951758],[-48.73857684160286,-26.87780553983723],[-48.73850986013279,-26.877797064610377],[-48.738497980578465,-26.87779577612538],[-48.738485835216856,-26.87779489851372],[-48.738181225522375,-26.877778445441184],[-48.73800128985065,-26.87776475266275],[-48.73798446050371,-26.877763895659808],[-48.737809002923406,-26.877759362084877],[-48.73776995296214,-26.87775836667856],[-48.73768246428464,-26.877757207334867],[-48.73765985429417,-26.87775767095621],[-48.73730390430907,-26.877776953107876],[-48.73698758587847,-26.877787027115264],[-48.736980205005196,-26.87778734294701],[-48.73696496851579,-26.877788163738796],[-48.736874144442154,-26.87770898187212],[-48.73686552879812,-26.877701820921335],[-48.73653529763679,-26.877438016622907],[-48.73634596837767,-26.87727919352376],[-48.73632090982254,-26.876865971660393],[-48.73629366676204,-26.876376938261007],[-48.736276148512154,-26.87606786599794],[-48.73628324561845,-26.876049565118958],[-48.736294941398874,-26.87600996777843],[-48.73629943235964,-26.875977158765714],[-48.73630172228475,-26.875943550100494],[-48.736302235645546,-26.87593187784015],[-48.73630152408392,-26.875907843060496],[-48.736243651636784,-26.87517794601443],[-48.736227426944076,-26.874982333165413],[-48.736089621247224,-26.87332097012352],[-48.73609276002237,-26.873231275673987],[-48.73609254206167,-26.87321231699228],[-48.736090844641446,-26.873193417627398],[-48.73608767694077,-26.873174672484296],[-48.73608305327656,-26.873156171135474],[-48.736076996965714,-26.873138006005075],[-48.73606953644491,-26.87312026508687],[-48.7360607112167,-26.87310303655199],[-48.73605056187945,-26.873086404076762],[-48.73603913912732,-26.873070449694424],[-48.736026498774194,-26.87305525100791],[-48.736012703711786,-26.873040883928653],[-48.735997820999444,-26.87302741721527],[-48.73598192274437,-26.873014918804767],[-48.73596508926337,-26.873003448643637],[-48.735947400945065,-26.872993063069703],[-48.73592894530975,-26.872983814022835],[-48.73590981305743,-26.872975745371765],[-48.735890097959896,-26.87296889832716],[-48.73586989698661,-26.87296330512637],[-48.735849308184854,-26.87295899441428],[-48.735828434793596,-26.8729559867969],[-48.73580737715968,-26.87295429651676],[-48.735786238755686,-26.8729539324518],[-48.73149793789311,-26.873014692573054],[-48.731490710992716,-26.87301487252831],[-48.73104475990013,-26.873030793691626],[-48.730309722224725,-26.873069096737886],[-48.72924209587488,-26.873082592478298],[-48.72897925322928,-26.873080583721645],[-48.729137983435145,-26.872719510636628],[-48.72942376225632,-26.872054967159677],[-48.72972781296135,-26.87135687449849],[-48.72987787359703,-26.871133615507606],[-48.729884425038385,-26.871123367827714],[-48.72989047219739,-26.871112874698902],[-48.72989600264201,-26.871102153970575],[-48.72990100688601,-26.87109122714924],[-48.72990547544317,-26.871080115741464],[-48.729909398863356,-26.871068839449407],[-48.729912769654284,-26.871057420714088],[-48.73008194732255,-26.870429205342912],[-48.730353433083344,-26.86974766653885],[-48.73035896123298,-26.8697323694024],[-48.73044984529829,-26.86945281591921],[-48.73045483258014,-26.86943532524645],[-48.73045850781968,-26.869417575248946],[-48.73046085635437,-26.869399645107226],[-48.730461867545586,-26.86938161406651],[-48.73046153574845,-26.869363563257085],[-48.730459863401784,-26.869345572134144],[-48.730456856950205,-26.869327721119618],[-48.73045253090401,-26.869310089862566],[-48.73044690383331,-26.869292756272266],[-48.73044000036194,-26.86927579745278],[-48.73043185219137,-26.869259288816927],[-48.73042249608887,-26.869243304053974],[-48.73041197189356,-26.86922791419509],[-48.73040032754613,-26.86921318769428],[-48.73038761405915,-26.869199190347484],[-48.73037388857089,-26.86918598353673],[-48.730359212279396,-26.869173626904427],[-48.730343650514556,-26.869162174744563],[-48.730327271678064,-26.869151678693147],[-48.73031014930941,-26.869142185054034],[-48.73029236003793,-26.86913373657089],[-48.730273981624975,-26.869126369688388],[-48.73025509691562,-26.869120118225574],[-48.730235788899066,-26.869115008784213],[-48.730216144624244,-26.86911106622641],[-48.730196251338334,-26.869108305490492],[-48.730176196306395,-26.86910674061267],[-48.7299744701283,-26.869097064180277],[-48.72994755598693,-26.86938626090985],[-48.72994754059928,-26.869386426714183],[-48.72993228878258,-26.869503722712313],[-48.72990851546525,-26.86961987374211],[-48.72987632216782,-26.8697343805673],[-48.72984919537162,-26.86981237337138],[-48.72983600706499,-26.869847478098087],[-48.7298230480726,-26.869927566628544],[-48.72981575206508,-26.869975135972055],[-48.72979260496332,-26.87012606226881],[-48.729789133086406,-26.87014772945293],[-48.729765359438204,-26.8702638804312],[-48.72973316576563,-26.870378387193583],[-48.7296928291416,-26.870490375195523],[-48.72968640514587,-26.87060403802823],[-48.729671152799796,-26.870721333952318],[-48.729665501886544,-26.87075319272171],[-48.7296070906114,-26.87106453018807],[-48.729588967480844,-26.871148822336508],[-48.72955677331289,-26.87126332901852],[-48.72951629660178,-26.8713757027391],[-48.72946771198721,-26.871485461679214],[-48.729457858862816,-26.871505426238],[-48.72945651732873,-26.871508102111665],[-48.7294556697714,-26.87151093482933],[-48.72944622298574,-26.871541433944326],[-48.72940574604704,-26.871653807616028],[-48.72940481838794,-26.871656116525045],[-48.729384715038776,-26.87170604385031],[-48.72933705779625,-26.871813493815196],[-48.72930457699608,-26.87187701077507],[-48.72915721345395,-26.872151052849393],[-48.72913320792733,-26.872194209463892],[-48.729069063668085,-26.872297342273367],[-48.72899753414477,-26.87239649111678],[-48.72891892767798,-26.872491233176078],[-48.72887262952153,-26.87254001552625],[-48.72886427284997,-26.87256268437646],[-48.728815687024984,-26.87267244300364],[-48.72880516291463,-26.872693744079523],[-48.72880463053973,-26.872694803123025],[-48.72880460127553,-26.87269596501265],[-48.7287981365048,-26.872805013729877],[-48.7287828827752,-26.872922309448075],[-48.728759107308065,-26.873038460113683],[-48.72872691163317,-26.87315296649196],[-48.72868643329945,-26.873265339852978],[-48.72864722691657,-26.873355462001506],[-48.728643140494356,-26.873364159120655],[-48.728633760529775,-26.87338379549798],[-48.728577272787724,-26.873490468712237],[-48.7285131272188,-26.873593601173916],[-48.728496856004476,-26.873616154463026],[-48.72850223768135,-26.87361676351816],[-48.72850763014382,-26.873617286110996],[-48.72851303240391,-26.873617721323185],[-48.72851844244966,-26.873618069122422],[-48.72852385825101,-26.873618330378463],[-48.728529278819984,-26.87361850417298],[-48.72853470214461,-26.873618590473637],[-48.7292403400237,-26.87362398406194],[-48.729247164206285,-26.87362396650946],[-48.730324869408655,-26.873610344117125],[-48.730338133192305,-26.873609914672695],[-48.73107424264893,-26.87357153319795],[-48.731511078737576,-26.873555960216784],[-48.7354990641367,-26.873499460252926],[-48.73562538784029,-26.875022492366067],[-48.735641528855446,-26.875217101265683],[-48.73569609282476,-26.875905334012998],[-48.735689843201364,-26.87591751445207],[-48.73567659269893,-26.875961389720636],[-48.735674278466504,-26.875972933838252],[-48.73566959229887,-26.876015022352703],[-48.73566986366755,-26.87603614326313],[-48.73569072231889,-26.876404184985784],[-48.73571801197634,-26.87689408187383],[-48.73574891518938,-26.877403735463083],[-48.73575174634244,-26.877428813157884],[-48.7357567776701,-26.877452109477606],[-48.73576218307112,-26.87747234073717],[-48.73576549775714,-26.877483661930373],[-48.73576935561416,-26.87749484473006],[-48.73577374904364,-26.87750586645301],[-48.73577866936908,-26.877516708008514],[-48.735784107931934,-26.87752734940373],[-48.73579005409756,-26.87753776880918],[-48.7357964971414,-26.877547948906248],[-48.73580458343045,-26.877560104647245],[-48.73581422863165,-26.8775736706454],[-48.73582475604686,-26.877586699383826],[-48.73583612838209,-26.87759914333685],[-48.73584830421131,-26.8776109603273],[-48.73586124212633,-26.87762210727584],[-48.73587489459285,-26.877632545517212],[-48.735889215046534,-26.877642238206597],[-48.73590815112379,-26.877654279967484],[-48.73591712493173,-26.8776607861172],[-48.73612555643324,-26.877835634915698],[-48.73613098372218,-26.877840078053193],[-48.736459038644,-26.878102144586254],[-48.73663440650021,-26.87825503855036],[-48.73664886111039,-26.878266743087288],[-48.73666412789598,-26.87827758705959],[-48.73668014232718,-26.87828752611511],[-48.736696837844036,-26.878296516771652],[-48.73671414671873,-26.878304523650407],[-48.73673199414509,-26.87831151306416],[-48.73675030826311,-26.878317454982653],[-48.736757956370056,-26.87831968927436],[-48.73677009995466,-26.878323082152797],[-48.73678239157703,-26.878326015344776],[-48.73679480919405,-26.878328483984824],[-48.736807331768574,-26.87833048322353],[-48.736819936233445,-26.878332009081443],[-48.73683260147966,-26.87833306031787],[-48.736845304404085,-26.8783336347577],[-48.73687373958947,-26.87833437011289],[-48.73690053537259,-26.878333996248937],[-48.737012722128995,-26.878327954916738],[-48.73732906321777,-26.8783178803842],[-48.73733654992208,-26.87831755810895],[-48.73768496288003,-26.87829868407885],[-48.73775681745735,-26.8782996255368],[-48.737791611603285,-26.87830052481998],[-48.737958642053485,-26.878304840474154],[-48.73813387692409,-26.878318175602374],[-48.738141251043004,-26.87831865557005],[-48.738437489172945,-26.878334657093532],[-48.73851718149779,-26.87834474009802],[-48.73852906110941,-26.87834602858491],[-48.73856678114813,-26.878347313845914],[-48.73883332864014,-26.87834143111505],[-48.73893673111369,-26.87834255572029],[-48.738960462625776,-26.878341975385872],[-48.73902954109497,-26.878337741292647],[-48.739048632787004,-26.878336022678088],[-48.739123555683534,-26.878327112604453],[-48.73913162455521,-26.878522131793243],[-48.739162113231465,-26.8790258738605],[-48.739179676687506,-26.87939970073634],[-48.73921128756844,-26.880037782358876],[-48.73921166406578,-26.8800438438687],[-48.73924353172046,-26.88047073578589],[-48.73927055363773,-26.880783065395267],[-48.73930250646898,-26.881168932071198],[-48.73933842754946,-26.881541808215303],[-48.73937300333488,-26.881940059740547],[-48.7394143665284,-26.882334967991415],[-48.739460910053275,-26.882814049119936],[-48.73952544775235,-26.883379670490278],[-48.73958764503206,-26.88390731690698],[-48.73964061317138,-26.88441967777704],[-48.73968306603095,-26.88482441756897],[-48.73972810590107,-26.88519031010464],[-48.73973055654082,-26.885215136188094],[-48.73973218763123,-26.885228096295272],[-48.73973451284247,-26.88524097094875],[-48.73973752673076,-26.885253730280365],[-48.73974122184006,-26.885266344389663],[-48.739745591684596,-26.885278785196654],[-48.739750623795736,-26.885291021818244],[-48.73975630764526,-26.885303027012174],[-48.73976826610692,-26.885326684066875],[-48.73977520197469,-26.88533949714225],[-48.739778570572774,-26.885344852082234],[-48.73977641876475,-26.885355372771578],[-48.739774131184625,-26.88537296744692],[-48.73977336952684,-26.885383726974137],[-48.73977173235457,-26.885417488731854],[-48.739769829632124,-26.885443102474788],[-48.73976921041437,-26.88545626210759],[-48.739769284953695,-26.885468798416913],[-48.739771848873104,-26.88554951903328],[-48.73977130049714,-26.885638300211767],[-48.739771637251856,-26.885652679923126],[-48.73977322317425,-26.885670336591065],[-48.739774206765674,-26.885677298538063],[-48.73978475304902,-26.88574490426492],[-48.73978663816731,-26.885755467903497],[-48.7397893560874,-26.88576742292115],[-48.73979345362116,-26.88578358470788],[-48.73975064203513,-26.88579891090308],[-48.73974284170558,-26.885801818313215],[-48.73972452840965,-26.885808912717273],[-48.73963669538292,-26.885831106155255],[-48.739608542369304,-26.885835715618875],[-48.73954220314507,-26.885843877796667],[-48.739529637510365,-26.8858456656807],[-48.73951032165597,-26.885849379652537],[-48.739491318546605,-26.88585421857558],[-48.739472709119376,-26.88586016118409],[-48.739454572371166,-26.885867182571438],[-48.73943698740654,-26.885875252418092],[-48.73942002837155,-26.885884336715275],[-48.739403768513874,-26.885894396025215],[-48.739388276122675,-26.885905387220884],[-48.73937361955894,-26.885917263566643],[-48.739359860230856,-26.885929973703323],[-48.73934705757037,-26.885943464435183],[-48.73933526610471,-26.885957676170786],[-48.73932453633678,-26.885972549254262],[-48.739314914834914,-26.885988019454516],[-48.73930857144981,-26.886],[-48.74,-26.886],[-48.74,-26.882136798005494],[-48.73997452877619,-26.88189371511905]]]},"properties":{"id":112427,"objectid":26147,"categoria":"Ate 10","buffer":"30 meters","sourceLayer":"ima-protegidas-281"}},{"type":"Feature","geometry":{"type":"Polygon","coordinates":[[[-48.72047821954902,-26.869335081471892],[-48.72226613212941,-26.86926644630664],[-48.722146005717306,-26.869546670938053],[-48.72108627753593,-26.869599839638248],[-48.72106545318279,-26.86960161817451],[-48.721044817313675,-26.869604685740626],[-48.72102446682495,-26.86960902765555],[-48.7210045007516,-26.86961462295561],[-48.72098501521934,-26.86962144521559],[-48.72096610245681,-26.869629461630293],[-48.7209478548013,-26.869638633981605],[-48.7209303596871,-26.869648917655194],[-48.72091370063332,-26.86966026255896],[-48.72089795718966,-26.86967261582939],[-48.72088320605097,-26.86968591643488],[-48.720869517894535,-26.869700102344364],[-48.72085695750684,-26.869715104212137],[-48.72084558671089,-26.869730849937287],[-48.72083545833055,-26.869747264566417],[-48.720826622262344,-26.869764268586643],[-48.72081912139747,-26.869781780567134],[-48.72081298962791,-26.869799716224477],[-48.72080825885189,-26.869817990340685],[-48.72080495098058,-26.86983651392673],[-48.7208030808654,-26.869855198782215],[-48.72080265836424,-26.869873954821117],[-48.72080368528741,-26.869892691827644],[-48.720806157391344,-26.869911320390703],[-48.72081006240297,-26.869929750067143],[-48.720815380935136,-26.869947893908897],[-48.72082208760105,-26.869965663066044],[-48.72083015088773,-26.86998297310217],[-48.72083953220419,-26.86999974127144],[-48.72085018489364,-26.87001588560039],[-48.72086206016065,-26.87003133039813],[-48.720875099150085,-26.870045999811538],[-48.720889238856245,-26.870059824237604],[-48.720904413201175,-26.87007273673114],[-48.72092054895648,-26.870084675646318],[-48.72093756674942,-26.870095584652873],[-48.720955387170896,-26.870105409224916],[-48.72097392258312,-26.870114103728284],[-48.7209930862818,-26.8701216261538],[-48.72101278340627,-26.870127939775323],[-48.72103292196899,-26.870133015132843],[-48.72105340385604,-26.870136827179742],[-48.72107413080874,-26.870139358086735],[-48.72112131850392,-26.87014030605624],[-48.72227149578064,-26.870082599711267],[-48.7223465474083,-26.86988274171521],[-48.72240369115107,-26.86973057018921],[-48.72240731736171,-26.869721002198276],[-48.72254595589337,-26.869358534821554],[-48.722549416125275,-26.869349565182556],[-48.722586539139634,-26.869254144558262],[-48.72259600680936,-26.869229811857597],[-48.72265886993085,-26.869068228660726],[-48.72266526628037,-26.86905203709744],[-48.722672827606274,-26.869033499888687],[-48.72267328543846,-26.869032396350512],[-48.72267323355084,-26.8690312196197],[-48.72267198954982,-26.86892754668342],[-48.7226786619909,-26.868809608148556],[-48.72269185014338,-26.86870823264621],[-48.722691860860216,-26.868708149793395],[-48.722689711400534,-26.868708303759416],[-48.720452407472244,-26.86879419445539],[-48.72043142958193,-26.86879565817944],[-48.72041061767512,-26.868798428619826],[-48.72039007062325,-26.868802492932698],[-48.72036988844847,-26.868807831073166],[-48.720350171299664,-26.868814416681325],[-48.720331013380616,-26.868822218789102],[-48.720312508034056,-26.86883119919505],[-48.72029474468757,-26.868841314219793],[-48.72027781088368,-26.868852513836504],[-48.72026178820174,-26.868864744312315],[-48.720246754306025,-26.86887794643652],[-48.7202327819398,-26.868892055504322],[-48.720219940901,-26.86890700315362],[-48.72020829100066,-26.868922717251316],[-48.72019789113444,-26.868939121137352],[-48.720188790211104,-26.868956134380667],[-48.720181033133755,-26.868973675583074],[-48.720174657854564,-26.86899165872201],[-48.720169694314365,-26.869009995840617],[-48.72016616843029,-26.86902859891717],[-48.7201640951084,-26.869047377044772],[-48.720163486237,-26.869066239267898],[-48.72016434366299,-26.869085093566387],[-48.72016666418552,-26.86910384874112],[-48.720170436574186,-26.869122412560834],[-48.7201756404727,-26.86914069625682],[-48.720182252524936,-26.869158610109448],[-48.72019024024882,-26.869176067861577],[-48.72019956510841,-26.869192984060824],[-48.720210181471735,-26.869209275847574],[-48.72022203758057,-26.869224864775635],[-48.720235075568496,-26.86923967591],[-48.72024923149707,-26.869253636022563],[-48.720264439307286,-26.869266677265742],[-48.720280621765916,-26.8692787370263],[-48.72029770257326,-26.86928975631592],[-48.720315598279186,-26.869299681445572],[-48.72033422027704,-26.869308464960245],[-48.720353479887685,-26.869316063013585],[-48.720373283239205,-26.869322439797497],[-48.72039353437535,-26.86932756308017],[-48.72041413313499,-26.86933140958646],[-48.72043498131453,-26.86933395878018],[-48.72047821954902,-26.869335081471892]]]},"properties":{"id":112429,"objectid":26149,"categoria":"Ate 10","buffer":"30 meters","sourceLayer":"ima-protegidas-281"}},{"type":"Feature","geometry":{"type":"Polygon","coordinates":[[[-48.73957637906965,-26.86778324429381],[-48.73956637080781,-26.867781013936344],[-48.73947055535057,-26.867761211622092],[-48.73946693117466,-26.867760483111237],[-48.73944750433233,-26.867757287134094],[-48.73942788566436,-26.8677552360117],[-48.739408159472404,-26.86775434101981],[-48.73938841023758,-26.867754604412493],[-48.739368722476925,-26.867756026639533],[-48.73934918088689,-26.867758599129054],[-48.73932986815207,-26.86776231327705],[-48.739310868124555,-26.86776715237608],[-48.73929226172836,-26.86777309515966],[-48.739274127947446,-26.86778011672043],[-48.7392565458735,-26.867788186738053],[-48.739239589640334,-26.867797271203074],[-48.739223332483576,-26.867807330676964],[-48.73920784268098,-26.867818322032058],[-48.73919318858218,-26.867830198531976],[-48.73917943158498,-26.867842908816886],[-48.73916663111131,-26.867856399690446],[-48.739154841679046,-26.867870611560587],[-48.73914411378237,-26.8678854847709],[-48.73913449398154,-26.867900955089695],[-48.739126022819086,-26.867916957286567],[-48.739118736903606,-26.867933421555822],[-48.73911266680803,-26.867950277995202],[-48.73910783911753,-26.86796745483364],[-48.73910427544135,-26.8679848775131],[-48.73910198831729,-26.868002472232785],[-48.739100990319116,-26.86802016338754],[-48.73910128396109,-26.868037875211193],[-48.73910286974559,-26.86805553190534],[-48.739105738115484,-26.868073057510585],[-48.73910987947771,-26.868090377871823],[-48.739115275203595,-26.868107417786884],[-48.73912190158082,-26.86812410467957],[-48.7391297308373,-26.868140367713625],[-48.7391387291652,-26.86815613595617],[-48.73914885864305,-26.86817134292074],[-48.73916007529565,-26.868185922926514],[-48.739172331034204,-26.868199814739047],[-48.73918557374596,-26.86821295705952],[-48.739199746162726,-26.868225294823823],[-48.73921478896838,-26.868236774739973],[-48.73923063571533,-26.868247347914195],[-48.73924721988407,-26.86825696906137],[-48.7392644698535,-26.86826559642463],[-48.73928231288869,-26.868273193644058],[-48.73930067115322,-26.868279727887916],[-48.73931946670278,-26.868285171737558],[-48.739334995318,-26.868288772835665],[-48.739425785386004,-26.86830753644443],[-48.74,-26.868444894338758],[-48.74,-26.86788457817546],[-48.73957637906965,-26.86778324429381]]]},"properties":{"id":112440,"objectid":26160,"categoria":"Ate 10","buffer":"30 meters","sourceLayer":"ima-protegidas-281"}}]}