{"type":"FeatureCollection","features":[{"type":"Feature","geometry":{"type":"MultiPolygon","coordinates":[[[[-48.72779922427569,-26.865400667570206],[-48.72781006326987,-26.865946109920007],[-48.72779545227703,-26.866639656173067],[-48.727765632795986,-26.86752264902451],[-48.72768793333615,-26.869770147525138],[-48.72700841756491,-26.87163823230057],[-48.726885275918555,-26.87197508414039],[-48.72676709463756,-26.87229684270493],[-48.72665601392718,-26.87259773968221],[-48.72655417101697,-26.872872006720762],[-48.72646370415724,-26.873113876394505],[-48.7263867516373,-26.873317580379847],[-48.72632545275923,-26.87347735037103],[-48.726281943779185,-26.873587418914042],[-48.72625836496651,-26.873642017711703],[-48.72623122091968,-26.873681775143798],[-48.72617691961163,-26.87374952811421],[-48.72609830103969,-26.873842096033936],[-48.725998202130505,-26.873956300061195],[-48.72587945883662,-26.87408895953082],[-48.72574491112298,-26.87423689474631],[-48.72559739496432,-26.874396925050174],[-48.72543974835244,-26.874565870728848],[-48.725274809308274,-26.874740552080794],[-48.72511094918615,-26.87491464774951],[-48.72495641742179,-26.87508144640385],[-48.72481385088897,-26.87523792221263],[-48.72468588745603,-26.87538105117489],[-48.72457516603374,-26.875507808410603],[-48.72448432252535,-26.875615168994372],[-48.72441599484756,-26.87570010803246],[-48.72437282193187,-26.87575959973961],[-48.72435743963427,-26.875790620075495],[-48.724342075732196,-26.875817054447033],[-48.7242984328178,-26.875863784208388],[-48.724229206677975,-26.875928555119913],[-48.7241370952058,-26.87600910755079],[-48.72402479316231,-26.876103187229152],[-48.72389499638901,-26.876208536289916],[-48.72375040170591,-26.87632289869185],[-48.72359370395337,-26.876444017465875],[-48.723427601008495,-26.876569635701227],[-48.7232488529725,-26.876703239651828],[-48.723056232174855,-26.876847382363575],[-48.72285462438041,-26.876998395561245],[-48.722648914430856,-26.877152609177745],[-48.72244398718271,-26.87730635498152],[-48.72224472959269,-26.877455963001005],[-48.722056026619406,-26.87759776506706],[-48.721882765296535,-26.877728092168297],[-48.7217298286703,-26.877843275250875],[-48.720960095939745,-26.87842370895283],[-48.71965958965831,-26.878542277813864],[-48.719414210939995,-26.878564277827913],[-48.71915880596246,-26.87858672195516],[-48.718899320026885,-26.87860912136788],[-48.71864169948244,-26.87863098549369],[-48.718391890683904,-26.878651823804],[-48.71815583894903,-26.87867114760004],[-48.717939491648195,-26.878688466448313],[-48.71774879414307,-26.87870328991285],[-48.71758969278506,-26.878715128496317],[-48.717,-26.8787567385383],[-48.717,-26.886],[-48.72281966966074,-26.886],[-48.72290755034529,-26.88582115495712],[-48.72299646567271,-26.885637968113777],[-48.72305241416666,-26.885519590665584],[-48.72307194715499,-26.885472993537114],[-48.72309724239136,-26.885399417612582],[-48.723169784954756,-26.885203767329465],[-48.72328510217405,-26.88489777091744],[-48.72343872122719,-26.884493154760698],[-48.72362617217751,-26.884001647074825],[-48.72384298005984,-26.883434975088186],[-48.724084675011646,-26.88280486521931],[-48.724346783224455,-26.882123045650598],[-48.724624835096726,-26.881401243762525],[-48.72490289344055,-26.880678875365614],[-48.72516501623195,-26.87999589152003],[-48.725406730191764,-26.87936408123419],[-48.72562356526131,-26.878795231796243],[-48.725811049431634,-26.878301133192977],[-48.72596471078575,-26.877893573618277],[-48.72608007940434,-26.877584341294554],[-48.72615268424891,-26.87738522530875],[-48.726178051077405,-26.87730801465825],[-48.726190035997234,-26.87726908628933],[-48.7262058124823,-26.87724093376561],[-48.72621969754415,-26.877220899935153],[-48.72623568790546,-26.877200512840176],[-48.72625345003682,-26.87718024631314],[-48.72627264430102,-26.87716057769818],[-48.72629293819389,-26.87714197994209],[-48.72644147094646,-26.87689268856199],[-48.726747644157804,-26.87630014857252],[-48.72716786847082,-26.8754551271846],[-48.72765855230481,-26.87444838725899],[-48.728176109387235,-26.87337069502646],[-48.72867695368611,-26.87231281659845],[-48.72911750658718,-26.87136551900985],[-48.729454188255765,-26.870619569927662],[-48.72964342131615,-26.87016573828342],[-48.72969586661544,-26.87001496246213],[-48.729747239584086,-26.869854137700386],[-48.729797072439325,-26.869685120049617],[-48.72984489842972,-26.869509764676387],[-48.729890251799155,-26.869329927666715],[-48.729932664787036,-26.869147465075375],[-48.72997167066381,-26.868964232072095],[-48.73000680369457,-26.868782084745735],[-48.7300375961386,-26.868602879153528],[-48.730175232693085,-26.86774459827191],[-48.729853902875234,-26.86626661008377],[-48.729761930286294,-26.865850287515073],[-48.72967805627819,-26.865490796246025],[-48.72959534680277,-26.86516616832301],[-48.72954818271824,-26.865],[-48.72775672507249,-26.865],[-48.72779922427569,-26.865400667570206]]],[[[-48.72996155866348,-26.86527799500996],[-48.73009071184609,-26.865794053962755],[-48.730648995131425,-26.868052281077805],[-48.73047894527432,-26.86892185590364],[-48.73043241328796,-26.86914977776056],[-48.73038592641256,-26.869355428638823],[-48.73033688404511,-26.869546637970505],[-48.73028268247642,-26.86973123783922],[-48.73022072001141,-26.86991705854949],[-48.73014839488151,-26.87011193220163],[-48.73006310331521,-26.87032368814651],[-48.72996224444832,-26.87056015847625],[-48.72984321535056,-26.87082917433109],[-48.72973714418325,-26.871069206601153],[-48.729593306722876,-26.871400920382516],[-48.72941707246918,-26.871811645632413],[-48.72921381590267,-26.87228871509754],[-48.72898890761202,-26.872819458772387],[-48.72874772031792,-26.873391207618585],[-48.728495625902156,-26.87399129352716],[-48.72823799851405,-26.874607046668235],[-48.727980209471404,-26.875225799925904],[-48.72771542588075,-26.875861833895375],[-48.72743814525072,-26.876527853164667],[-48.727154925475254,-26.877208064648514],[-48.726872326718045,-26.877886678978367],[-48.72659690854695,-26.878547903238267],[-48.726335230801716,-26.87917594729363],[-48.726093853652856,-26.87975501927308],[-48.72587933747816,-26.88026932916544],[-48.725698243851824,-26.880703086113225],[-48.725539195247606,-26.881085347402806],[-48.72538769857834,-26.88145081632592],[-48.725246444791644,-26.881792924898498],[-48.725118125900195,-26.8821051051659],[-48.72500543500389,-26.882380787395494],[-48.72491106217586,-26.882613403616322],[-48.72483770152025,-26.882796385923516],[-48.72478804415976,-26.8829231636528],[-48.72476478208784,-26.88298717065621],[-48.72475475090777,-26.88302913546225],[-48.72475096851652,-26.883070443778536],[-48.72475389753234,-26.883112317757515],[-48.724764003700955,-26.883155974186387],[-48.72478174763084,-26.88320263518317],[-48.72480759401156,-26.8832535202229],[-48.72484200552395,-26.883309848746723],[-48.72488544688367,-26.88337283932435],[-48.72493837972155,-26.883443714083544],[-48.724982135957546,-26.88349797488523],[-48.72503008679754,-26.883552995422214],[-48.72508096805269,-26.883607577628776],[-48.725133513463206,-26.883660526114507],[-48.725186457843094,-26.88371064189816],[-48.72523853591133,-26.88375673051081],[-48.72528848346117,-26.883797593892837],[-48.725335033246,-26.883832034839592],[-48.725376920998706,-26.883858858000742],[-48.72543695081423,-26.883896204424335],[-48.72548711646273,-26.883935631844654],[-48.72552982958174,-26.883982552304435],[-48.72556750381232,-26.884042378776986],[-48.725602550809484,-26.884120523298144],[-48.72563738525547,-26.88422239794999],[-48.72567441780207,-26.884353415649883],[-48.72571606414852,-26.884518989394273],[-48.72576473500611,-26.884724531194177],[-48.725795486442934,-26.884860993282786],[-48.725824361364694,-26.88499663189372],[-48.7258508657965,-26.885128673963273],[-48.72587450980232,-26.885254345590614],[-48.72589480040692,-26.885370873728583],[-48.725911245639345,-26.885475485346216],[-48.72592335354596,-26.885565406510413],[-48.72593063316178,-26.885637864206252],[-48.72593259253595,-26.885690084500265],[-48.72593781593169,-26.88579928306114],[-48.72596116558161,-26.885892422893193],[-48.72600590174851,-26.885971392974977],[-48.726035666333274,-26.886],[-48.737010153366754,-26.886],[-48.737070398654275,-26.8859859163826],[-48.73708363784137,-26.886],[-48.73930387487239,-26.886],[-48.73986966683709,-26.88574660256378],[-48.74,-26.88573901322921],[-48.74,-26.865],[-48.729889752106594,-26.865],[-48.72996155866348,-26.86527799500996]]]]},"properties":{"objectid":1,"sourceLayer":"cheias-3"}}]}