{"type":"FeatureCollection","features":[{"type":"Feature","geometry":{"type":"Polygon","coordinates":[[[-48.73893150215293,-26.885343690693603],[-48.74,-26.885156196141214],[-48.74,-26.865],[-48.72750271569746,-26.865],[-48.72756645570689,-26.865125811732987],[-48.72759372611859,-26.865151161646477],[-48.72759917414589,-26.865225985077185],[-48.727646398721156,-26.865295252535546],[-48.727655255979165,-26.865373244258297],[-48.72769938266356,-26.86542377747668],[-48.727755900376785,-26.865549245763972],[-48.72775421992513,-26.865633296756656],[-48.727847113736104,-26.865849654941286],[-48.72792471114761,-26.865752126471723],[-48.72792364163193,-26.86580562388783],[-48.72796295194312,-26.865874365106507],[-48.727961201840266,-26.8659619065795],[-48.72798927640945,-26.866049927635682],[-48.72796690504017,-26.866083622902135],[-48.7280061658316,-26.866154796331635],[-48.72801855598076,-26.866213375306668],[-48.72800576654652,-26.86631046862188],[-48.7280328689519,-26.866447123522676],[-48.7280282425995,-26.86654288883],[-48.72806610450521,-26.866590675223367],[-48.72808974804441,-26.866685979110812],[-48.72809904347639,-26.866951260496936],[-48.728072064671565,-26.86702283798948],[-48.72806167836705,-26.867130688384197],[-48.728105867849465,-26.86715758454195],[-48.7281125671796,-26.86720290249401],[-48.7280877739459,-26.86733241205208],[-48.72811668576874,-26.867529270747962],[-48.72805556156132,-26.867665764071],[-48.7280838340652,-26.867712043493004],[-48.72808552006868,-26.86781026749951],[-48.72803421628962,-26.86787209447028],[-48.72797972882241,-26.867990231163475],[-48.72797855122163,-26.868049130720518],[-48.72807331655093,-26.868055563949593],[-48.728036161777545,-26.868271000364423],[-48.72797336432814,-26.868338152854903],[-48.72796115788726,-26.86840606654316],[-48.7279845877604,-26.868455092792296],[-48.72794724389049,-26.86855933210171],[-48.727993297451334,-26.868589451172756],[-48.727962603107045,-26.868664242058436],[-48.72796546658174,-26.86870356740016],[-48.72790485995573,-26.868780007028835],[-48.727955225310744,-26.868850698475924],[-48.727958088800555,-26.868890022914805],[-48.727896174290784,-26.86893841129306],[-48.727941793406266,-26.868974864940675],[-48.72793727899781,-26.86920064578385],[-48.72785209221412,-26.869248627384795],[-48.727850925252596,-26.869306988334582],[-48.72782540345238,-26.86936252548633],[-48.72779780149952,-26.869522138916345],[-48.72782898420164,-26.86968825235989],[-48.727817318623515,-26.869724070833687],[-48.727822130460474,-26.86984853067129],[-48.72774397499185,-26.869908037686724],[-48.727783091435526,-26.869975559358068],[-48.7276438704681,-26.87016670330385],[-48.72766363610119,-26.87039001021339],[-48.72761842469178,-26.870510820015934],[-48.727594284336526,-26.87064795929008],[-48.727564930911406,-26.870689065874586],[-48.72754824043576,-26.870810334395365],[-48.72756320581306,-26.870855476674482],[-48.727516010464264,-26.870863742963817],[-48.72752089867405,-26.87089057842746],[-48.72749005140362,-26.87094116469656],[-48.72744711379021,-26.871077218230923],[-48.72738509858722,-26.871166137466258],[-48.72727314634533,-26.871445151031523],[-48.727212417603596,-26.871532170446933],[-48.72713192228245,-26.87175952904375],[-48.727121835069404,-26.871852243604938],[-48.72697178110816,-26.872172184643606],[-48.726988839472,-26.872210839525252],[-48.726919503717,-26.872245267929227],[-48.726885239074186,-26.87239787367497],[-48.726833471227835,-26.872489792087976],[-48.72674729338462,-26.872559242513137],[-48.726737204677356,-26.872651959703234],[-48.72661603763869,-26.872662202016276],[-48.726377638875846,-26.873213670626455],[-48.72546644761845,-26.874589268031105],[-48.724990937020074,-26.875109911569833],[-48.72488078160155,-26.875191553800583],[-48.72493363268218,-26.875261918152344],[-48.724648963085016,-26.87554233729407],[-48.72424016926013,-26.875827707709306],[-48.724108993262796,-26.875797788895007],[-48.72401888123889,-26.87603963340091],[-48.72393211037983,-26.876114700000524],[-48.72375537684298,-26.876387895788387],[-48.723477510407065,-26.876654953706893],[-48.723292899096464,-26.87680132314024],[-48.72304802120137,-26.876933144381326],[-48.72284773020082,-26.877106413368896],[-48.72272801117073,-26.877036600080807],[-48.722543127207395,-26.877196540523542],[-48.722495001283264,-26.877331531955658],[-48.72205037259668,-26.877609475230177],[-48.72156115255286,-26.877845967433892],[-48.72143789435701,-26.87795259266515],[-48.72088922122674,-26.878133816591884],[-48.720628930830294,-26.87827896111284],[-48.71986754675719,-26.878497477541227],[-48.719564027039304,-26.878533307843504],[-48.719381316412246,-26.8785846654876],[-48.718277819506895,-26.878498959923448],[-48.71776431869127,-26.878436357266295],[-48.71731054000178,-26.878415448144192],[-48.717,-26.878380524904202],[-48.717,-26.886],[-48.72274739969332,-26.886],[-48.723221862191735,-26.88550191276315],[-48.723628914522806,-26.885754838971366],[-48.723532282692545,-26.886],[-48.73823611692081,-26.886],[-48.73893150215293,-26.885343690693603]]]},"properties":{"objectid":1,"sourceLayer":"cheias-1"}}]}