{"type":"FeatureCollection","features":[{"type":"Feature","geometry":{"type":"Polygon","coordinates":[[[-48.71929294131939,-26.87878513810962],[-48.71977415024815,-26.879171655415767],[-48.72019723270749,-26.879582192067797],[-48.720409258563286,-26.879602915034937],[-48.720647725269025,-26.879589462654618],[-48.72081092705268,-26.879476750529196],[-48.720929776220906,-26.879328720821203],[-48.72117100264031,-26.87919880486447],[-48.72169448104285,-26.87909767225123],[-48.72178828010473,-26.87891463322847],[-48.72191013082969,-26.878616701675668],[-48.722257224707576,-26.87768078442609],[-48.72245814945152,-26.877291851728103],[-48.72223036404574,-26.877415057904464],[-48.72137621532469,-26.877954937655172],[-48.72031750883726,-26.87842230253932],[-48.719065312098394,-26.87858663898193],[-48.71874129898974,-26.87859594025936],[-48.71929294131939,-26.87878513810962]]]},"properties":{"objectid":4,"sourceLayer":"cheias-4"}},{"type":"Feature","geometry":{"type":"Polygon","coordinates":[[[-48.727523839556646,-26.865080210317156],[-48.727809750497556,-26.865577080674317],[-48.72802042597832,-26.86668065357571],[-48.72847789053303,-26.866700631512582],[-48.72852566892092,-26.86677713447348],[-48.72851459304367,-26.86697891388705],[-48.72838250668938,-26.867596236489604],[-48.72820371982077,-26.869844553367045],[-48.72790051461519,-26.871268578859905],[-48.727410725370795,-26.87110292044283],[-48.72732306601656,-26.871259290699374],[-48.72774357024305,-26.871367032871483],[-48.72782706558278,-26.871418865333414],[-48.727687389468976,-26.871708299798115],[-48.72753471202301,-26.87194566818668],[-48.72744341645043,-26.871931577899748],[-48.72724812998275,-26.871833768107138],[-48.72710125718431,-26.87178091565908],[-48.727042017611986,-26.871925120309882],[-48.72737148069236,-26.872006154560548],[-48.727496724633504,-26.87208390314555],[-48.72688266902399,-26.87319297172182],[-48.72687322970283,-26.873312733239654],[-48.7270270210174,-26.873372008173465],[-48.72711983126691,-26.87331038931081],[-48.72818000918879,-26.87138629002347],[-48.72832276552058,-26.87094049127205],[-48.72838070443653,-26.870516545061456],[-48.72837629107592,-26.86968706057035],[-48.728483435139374,-26.86961304935919],[-48.728477274291336,-26.8695687715865],[-48.7284223260748,-26.86949846506348],[-48.72844059367801,-26.86893706345153],[-48.72858487798166,-26.868062127636314],[-48.728689126411616,-26.867785064409738],[-48.728818205522266,-26.86731920433708],[-48.72875739239708,-26.866837455192805],[-48.728846054626445,-26.866630611130063],[-48.7294427325116,-26.866381442034488],[-48.72963758818018,-26.866259046294758],[-48.72970568600854,-26.865936578063177],[-48.729589333937085,-26.86535679916552],[-48.729413522885295,-26.865],[-48.72749395173239,-26.865],[-48.727523839556646,-26.865080210317156]]]},"properties":{"objectid":21,"sourceLayer":"cheias-4"}},{"type":"Feature","geometry":{"type":"Polygon","coordinates":[[[-48.74,-26.885672076781315],[-48.74,-26.865],[-48.729989804027184,-26.865],[-48.73012944894503,-26.86537756619692],[-48.730541587112945,-26.867072039572264],[-48.73048609422159,-26.868554937966294],[-48.730087807185605,-26.870356908225713],[-48.72922198217874,-26.872244099097262],[-48.72728200422509,-26.876938854705976],[-48.72859990295222,-26.886],[-48.73909118632546,-26.886],[-48.74,-26.885672076781315]]]},"properties":{"objectid":29,"sourceLayer":"cheias-4"}},{"type":"Feature","geometry":{"type":"Polygon","coordinates":[[[-48.724549719140676,-26.875668066477605],[-48.72411524473423,-26.8758275694375],[-48.72381684676473,-26.876281084003917],[-48.72305197615325,-26.87680682620155],[-48.723525113514555,-26.876983659878253],[-48.72444194056342,-26.877236130185622],[-48.724697220381465,-26.877288587674492],[-48.72483811534036,-26.877214310292832],[-48.72490460127746,-26.87703811530787],[-48.72488879757646,-26.876929084668642],[-48.72480491418293,-26.876851185834653],[-48.72469799072845,-26.876801119249073],[-48.724569311995765,-26.876714441639763],[-48.72446119597027,-26.87650167165232],[-48.72450552732542,-26.876309003974505],[-48.725066242419736,-26.87570566230039],[-48.72520169696442,-26.875698471726423],[-48.72565757901408,-26.87583876161714],[-48.72580778476263,-26.87574851796188],[-48.725850353276584,-26.875643978276326],[-48.725591006366564,-26.875345702704138],[-48.7256199135767,-26.875249476713527],[-48.72586470426283,-26.874927087469086],[-48.72582047562902,-26.87489011761844],[-48.72569002722567,-26.87489204511198],[-48.72556221703917,-26.87498667873795],[-48.72526438668814,-26.875038285436606],[-48.72512623684816,-26.87497562895348],[-48.72509993695139,-26.874946509253917],[-48.724549719140676,-26.875668066477605]]]},"properties":{"objectid":24,"sourceLayer":"cheias-4"}},{"type":"Feature","geometry":{"type":"Polygon","coordinates":[[[-48.726917520642836,-26.87347403105719],[-48.726843921823715,-26.873481073543577],[-48.726560076105926,-26.87389372861196],[-48.72635280846637,-26.874156379853755],[-48.72637569640975,-26.874236270534762],[-48.72642967552796,-26.874291982245055],[-48.726542995137365,-26.874288321812188],[-48.72673020486181,-26.874110352226047],[-48.726878400795194,-26.87389336605935],[-48.727024634797544,-26.87362150518268],[-48.727045540412746,-26.87353044204022],[-48.72702422844989,-26.873494942282615],[-48.726917520642836,-26.87347403105719]]]},"properties":{"objectid":25,"sourceLayer":"cheias-4"}}]}