{"type":"FeatureCollection","features":[{"type":"Feature","geometry":{"type":"Polygon","coordinates":[[[-48.72780602197998,-26.865026580681647],[-48.7278532466134,-26.86509584807535],[-48.72786210400965,-26.865173839795112],[-48.727906230702565,-26.86522437385324],[-48.72796274856878,-26.86534984206912],[-48.727961068284515,-26.86543389307626],[-48.72805396136087,-26.86565025112878],[-48.72808433535526,-26.865602759652294],[-48.72828602737014,-26.86680456072367],[-48.72826852606486,-26.86693128798999],[-48.72831170646124,-26.866957569531078],[-48.72831941493533,-26.86700350202978],[-48.72821678947087,-26.86772040828792],[-48.728186577314446,-26.867790831905168],[-48.72818539983098,-26.867849731472333],[-48.72819815303141,-26.867850597131245],[-48.72790542935578,-26.86989539097752],[-48.72785071865509,-26.86996730931051],[-48.72786837792273,-26.870154212562955],[-48.72785863131762,-26.870222286704788],[-48.72782527260676,-26.870311425192718],[-48.727801132559804,-26.870448564524178],[-48.72777177924535,-26.870489672062863],[-48.72775508905273,-26.870610939724806],[-48.72777005447586,-26.870656082888875],[-48.72772285923877,-26.870664348351568],[-48.7277277474931,-26.870691183811296],[-48.72769690037242,-26.87074177013611],[-48.727653961084116,-26.87087782372487],[-48.72759194615713,-26.87096674307043],[-48.72754297536545,-26.871086371509964],[-48.72621061153996,-26.87333247318575],[-48.72436630755898,-26.87560991345621],[-48.72431584215429,-26.87559840280907],[-48.72425558626353,-26.875746631671664],[-48.723691910610334,-26.876442659887996],[-48.72074660050644,-26.8770820697688],[-48.71843199381668,-26.877897508907424],[-48.71709089603383,-26.87759156901164],[-48.717,-26.877581930754566],[-48.717,-26.886],[-48.722608228933574,-26.886],[-48.72297163301172,-26.88491339945494],[-48.72351196911489,-26.88540605565725],[-48.72350006030372,-26.886],[-48.73772400615095,-26.886],[-48.73825441850834,-26.88535867699586],[-48.74,-26.88457724355239],[-48.74,-26.865],[-48.72780408654435,-26.865],[-48.72780602197998,-26.865026580681647]]]},"properties":{"objectid":1,"sourceLayer":"cheias-0"}}]}