{"type":"FeatureCollection","features":[{"type":"Feature","geometry":{"type":"LineString","coordinates":[[-48.72648003794315,-26.878720966986815],[-48.72636850732696,-26.878658861795703]]},"properties":{"objectid":35,"nome":"Trecho_Drenagem_Geom_Aprox_Sim","geometriaaproximada":1,"regime":null,"sourceLayer":"drenagem-0"}},{"type":"Feature","geometry":{"type":"LineString","coordinates":[[-48.726562034668746,-26.878567287030886],[-48.72655568296113,-26.878581444442744]]},"properties":{"objectid":36,"nome":"Trecho_Drenagem_Geom_Aprox_Sim","geometriaaproximada":1,"regime":null,"sourceLayer":"drenagem-0"}},{"type":"Feature","geometry":{"type":"LineString","coordinates":[[-48.73345175577811,-26.866293333316214],[-48.73339842063287,-26.866363045272962]]},"properties":{"objectid":56,"nome":"Trecho_Drenagem_Geom_Aprox_Sim","geometriaaproximada":1,"regime":null,"sourceLayer":"drenagem-0"}},{"type":"Feature","geometry":{"type":"LineString","coordinates":[[-48.73034529761459,-26.86608190251864],[-48.73022022340697,-26.866086404565447]]},"properties":{"objectid":57,"nome":"Trecho_Drenagem_Geom_Aprox_Sim","geometriaaproximada":1,"regime":null,"sourceLayer":"drenagem-0"}},{"type":"Feature","geometry":{"type":"LineString","coordinates":[[-48.73037887821924,-26.86778073893699],[-48.730319205622166,-26.868225716544888]]},"properties":{"objectid":58,"nome":"Trecho_Drenagem_Geom_Aprox_Sim","geometriaaproximada":1,"regime":null,"sourceLayer":"drenagem-0"}},{"type":"Feature","geometry":{"type":"LineString","coordinates":[[-48.72998670850033,-26.8672705405624],[-48.72983553459946,-26.86700368528677]]},"properties":{"objectid":59,"nome":"Trecho_Drenagem_Geom_Aprox_Sim","geometriaaproximada":1,"regime":null,"sourceLayer":"drenagem-0"}},{"type":"Feature","geometry":{"type":"LineString","coordinates":[[-48.73342467229157,-26.865396152749884],[-48.733425474679265,-26.86539053158841],[-48.73342783100776,-26.865388679643935],[-48.733428616115255,-26.865388062323724],[-48.733430884670106,-26.86538753377659],[-48.733435684128104,-26.865388155848933],[-48.7334804302481,-26.86539136439988],[-48.733494211929454,-26.865388985493134],[-48.73350217685183,-26.86538502513039],[-48.733505338573586,-26.865381185358583],[-48.7335040367728,-26.865374662281177],[-48.73349964736776,-26.865360542436754],[-48.73349324756425,-26.865342684859527],[-48.733474073604334,-26.865312156749244],[-48.73347155238132,-26.865300933974098],[-48.73347367232457,-26.865292568821616],[-48.733478120669496,-26.865285467456278],[-48.73348248574183,-26.86527653728154],[-48.7334832595471,-26.86526578971077],[-48.73348086508968,-26.86525224694978],[-48.73347587522002,-26.86523892156118],[-48.733468169355255,-26.865224644734777],[-48.733465695153775,-26.865215908077708],[-48.73346527376544,-26.86520676395098],[-48.73346520167254,-26.865197966555638],[-48.73346446636083,-26.86518781205727],[-48.733461950371,-26.865173097763535],[-48.733459783676985,-26.865158730201145],[-48.7334574247037,-26.86514451838666],[-48.733452348731156,-26.865129355118196],[-48.73344699318499,-26.865112518723762],[-48.73344559374081,-26.865101002595296],[-48.73344849865053,-26.86509515525246],[-48.733457448916354,-26.865063178607528],[-48.733462257559154,-26.865042803380913],[-48.73346345072735,-26.865004164913024],[-48.733462918233656,-26.865]]},"properties":{"objectid":60,"nome":"Trecho_Drenagem_Rio_Permanente","geometriaaproximada":null,"regime":2,"sourceLayer":"drenagem-0"}},{"type":"Feature","geometry":{"type":"LineString","coordinates":[[-48.733418426784226,-26.865432114705424],[-48.733424035087744,-26.865450808799963],[-48.73342443284997,-26.86545720186159],[-48.73342759419607,-26.86546347230021],[-48.73343559406468,-26.865468961216383],[-48.733442900357595,-26.865470275976914],[-48.73345415228838,-26.865470271466755],[-48.73346385968964,-26.86547152547235],[-48.73347272216,-26.865474731472986],[-48.733482203548704,-26.865483433431127],[-48.73348780600051,-26.865495609892477],[-48.73348876325205,-26.865508410341825],[-48.73348541392057,-26.865519033572717],[-48.73348553326691,-26.865530305357687],[-48.73348800470901,-26.865539029335828],[-48.73349545546939,-26.865564534939473],[-48.7334988609059,-26.86557975804587],[-48.73349998592468,-26.865596205303536],[-48.7334974089286,-26.865606195667347],[-48.733495291207134,-26.865614550025867],[-48.73349486006418,-26.865629105139924],[-48.733496716348924,-26.865638956344846],[-48.73349899359117,-26.865647831527685],[-48.733500758572085,-26.865659334567358],[-48.733500786776524,-26.865672250067494],[-48.73349741515098,-26.865676573797852],[-48.733492645295655,-26.865679512390773],[-48.733472033111944,-26.865695668720207],[-48.73346653904973,-26.865701720900187],[-48.73346434396596,-26.86570477118568],[-48.73346263754489,-26.86570900069765],[-48.733461684698085,-26.865712932755365],[-48.733461466787446,-26.865716896456302],[-48.73346240674677,-26.86571991761512],[-48.733466603465494,-26.865724072158155],[-48.73347780519043,-26.86572820099276],[-48.73348691487422,-26.865736873524963],[-48.73348992119443,-26.865749252907623],[-48.733487592604035,-26.865758089404512],[-48.733490851058,-26.86577593990992],[-48.7334927908316,-26.865787609097946],[-48.7335023264217,-26.86579182852385],[-48.73350746806616,-26.865795526238752],[-48.73351612247201,-26.865802354968398],[-48.733523353073394,-26.86581160380709],[-48.73352129047296,-26.865818960031103],[-48.73351445417951,-26.865822635272224],[-48.73350542384215,-26.865829359010778],[-48.733500886472505,-26.86585828033301],[-48.7334981950571,-26.865870122505417],[-48.7334967544192,-26.865876464418218],[-48.73349870897148,-26.865897887587288],[-48.73350076171214,-26.865914185479017],[-48.73350133181692,-26.865927275723216],[-48.73349947438034,-26.8659376142448],[-48.733496658253536,-26.86594526521593],[-48.73349569277051,-26.86595613785982],[-48.73349535918319,-26.86596554873423],[-48.733495377070604,-26.8660020903653],[-48.7334891444764,-26.866021661220582],[-48.73349049775872,-26.866037258415865],[-48.733494790812934,-26.866052981281722],[-48.73349843238142,-26.8660704922917],[-48.733499486748784,-26.86610491263039],[-48.7334954727504,-26.86611763062778],[-48.73349648264927,-26.86612940582851],[-48.73349956405557,-26.86614705224579],[-48.733498133773715,-26.866163016309585],[-48.73349622938419,-26.866170865103978],[-48.733494728267615,-26.86617806969655],[-48.73349581317054,-26.866205206802814],[-48.73349677430683,-26.86622457358302],[-48.73349692187003,-26.866238618164346],[-48.73349477539217,-26.86625421607411],[-48.73349295552985,-26.866263881063098],[-48.733491069848014,-26.86627139715109],[-48.73348917230392,-26.866275774307066],[-48.73348773193653,-26.866278519936692],[-48.73348632884574,-26.866280607371444],[-48.73348473246729,-26.866282850537843],[-48.73348332939439,-26.866284937070393],[-48.733477325334086,-26.8662869931154],[-48.733468750474735,-26.866288939334577],[-48.73346388462784,-26.866290382820694],[-48.73345644697599,-26.866291716464733],[-48.73345175577811,-26.866293333316214],[-48.73345003965896,-26.86629441580799]]},"properties":{"objectid":61,"nome":"Trecho_Drenagem_Rio_Permanente","geometriaaproximada":null,"regime":2,"sourceLayer":"drenagem-0"}},{"type":"Feature","geometry":{"type":"LineString","coordinates":[[-48.73339842063287,-26.866363045272962],[-48.73339688730785,-26.866367273047732],[-48.733399411350106,-26.866374974485925],[-48.73340473481878,-26.866381968183692],[-48.73341093160666,-26.86638982510182],[-48.73341580264726,-26.866394983165854],[-48.73342418464999,-26.866403262291612],[-48.73343145802138,-26.866414959282253],[-48.73343425116496,-26.86642778557146],[-48.733435454687566,-26.866439387899156],[-48.733438265500574,-26.866451883270425],[-48.7334406072394,-26.866462873040202],[-48.73344352591488,-26.866473391055905],[-48.73344670373296,-26.866485900436466],[-48.73344951461997,-26.86649839219891],[-48.733449459254295,-26.866509442785514],[-48.733448472390776,-26.866514020455163],[-48.73344360185731,-26.86651892749057],[-48.73343878621521,-26.866522848119608],[-48.7334343857797,-26.86652925987009],[-48.73343085299858,-26.86653999747317],[-48.73342819826762,-26.866548132039508],[-48.73342730489084,-26.866550292626883],[-48.73342565235019,-26.866554291972967],[-48.733419223731104,-26.86656078309183],[-48.73341281376794,-26.866566944210795],[-48.73340355048695,-26.86657479949183],[-48.73339160857271,-26.866584520495817],[-48.73338061823997,-26.866590322958945],[-48.73337176387933,-26.866594072306288],[-48.733363499391146,-26.86660048523852],[-48.7333587998624,-26.866609027398635],[-48.733358392922064,-26.866610208502312],[-48.73335564144826,-26.866628591608286]]},"properties":{"objectid":62,"nome":"Trecho_Drenagem_Rio_Permanente","geometriaaproximada":null,"regime":2,"sourceLayer":"drenagem-0"}},{"type":"Feature","geometry":{"type":"LineString","coordinates":[[-48.733356731427094,-26.866663897824452],[-48.73335967705855,-26.86666756482927],[-48.73336242519194,-26.8666710436623],[-48.73336809606018,-26.86667535181149],[-48.73337324413485,-26.86667630707244],[-48.7333887671135,-26.86668067309667],[-48.73340613645626,-26.866688677659386],[-48.733417665099815,-26.86669311948448],[-48.733429549751136,-26.866694443619913],[-48.733445615187435,-26.86669330613968],[-48.73346057869473,-26.866692122102407],[-48.73347092753531,-26.86669123945935],[-48.733480361137644,-26.8666936135364],[-48.733486977692245,-26.866697023565827],[-48.73349552564143,-26.866705459670275],[-48.73349930192503,-26.8667136937895],[-48.7334999192265,-26.866729210591153],[-48.73350100467041,-26.86674622936929],[-48.73349884886848,-26.86675866131297],[-48.73349713255868,-26.86676979355051],[-48.73349741380831,-26.86677804289896],[-48.733496113950544,-26.86678161382192],[-48.73349207161438,-26.866784903406028],[-48.73348857091461,-26.866788381267295],[-48.73348888841669,-26.866795973306935],[-48.73349301312239,-26.866804547826654],[-48.73349569957347,-26.86681586259466],[-48.73349489855518,-26.866823735404616],[-48.733490290332234,-26.866830625734455],[-48.7334871137846,-26.866838233921182],[-48.73348452616126,-26.866848502970296],[-48.73348397233432,-26.86685523272403],[-48.73348790378874,-26.866863961171216],[-48.733493164722304,-26.866871922198555],[-48.73349737861762,-26.866878850264534],[-48.733502884879066,-26.866890555004026],[-48.733505171501484,-26.86690097895136],[-48.73350346909446,-26.86690984985735],[-48.73349910733815,-26.866919568827733],[-48.73349524667149,-26.866930146851974],[-48.7334908632212,-26.866940196675312],[-48.73348850681509,-26.866950527190507],[-48.73348658640667,-26.866959884632607],[-48.733485907888415,-26.86697014189082],[-48.7334859069846,-26.866975787640104],[-48.733486014593886,-26.86698260200549],[-48.73348378745473,-26.866996592247652],[-48.73348332787196,-26.867003541004895],[-48.73348212660264,-26.867016093847088],[-48.73347552062672,-26.867020376519957],[-48.733467933137675,-26.867022611116926],[-48.733454830569784,-26.867023875543072],[-48.73343954600393,-26.867024354121565],[-48.73340616057481,-26.867025653248017],[-48.73339641273083,-26.867023948258282],[-48.73338971686571,-26.867023908526548],[-48.733378745867576,-26.867026620386294],[-48.733373968620526,-26.86702851380954],[-48.733363673295706,-26.867029436108087],[-48.73335529554674,-26.867032293350125],[-48.73334861844491,-26.867040394068646],[-48.733345846627024,-26.867048545705323],[-48.73334547477676,-26.86705417286894],[-48.73334669503302,-26.86706105110884],[-48.733346878572554,-26.867063402243225],[-48.73335103513329,-26.8670748696486]]},"properties":{"objectid":63,"nome":"Trecho_Drenagem_Rio_Permanente","geometriaaproximada":null,"regime":2,"sourceLayer":"drenagem-0"}},{"type":"Feature","geometry":{"type":"LineString","coordinates":[[-48.73336548063507,-26.867118579001538],[-48.73337666932166,-26.867142337858887],[-48.733376190968684,-26.86714689751374],[-48.73337765191407,-26.86715013369326],[-48.733386852515736,-26.867165755701073],[-48.73339524524631,-26.86718232857115],[-48.73339912501339,-26.86719400180721],[-48.73340206668451,-26.8672057890453],[-48.73340276317367,-26.86721213816548],[-48.733402958554045,-26.867217629133453],[-48.733401146542256,-26.867225335013472],[-48.7333983974392,-26.867233154911634],[-48.733394623401345,-26.867239590244548],[-48.73338984519382,-26.8672499568098],[-48.73338733576427,-26.86725696022026],[-48.73338619947401,-26.867265699422457],[-48.73338569643127,-26.867270487904968],[-48.733385234038025,-26.867294377516064],[-48.73338752073871,-26.867307622542675],[-48.73339004816887,-26.86732287398048],[-48.73339246605136,-26.867334133001414],[-48.73339294359997,-26.867343790621934],[-48.73339115428362,-26.867351165664388],[-48.733388230543504,-26.867358811293904],[-48.7333845649945,-26.86736641614441],[-48.73338214142249,-26.867377741890092],[-48.733381202425434,-26.86738632632735],[-48.73337954326483,-26.867391716249966],[-48.733375398279655,-26.86739813299668],[-48.733372627393436,-26.86740346266902],[-48.73336782648829,-26.867416984756556],[-48.733365642617954,-26.867430317798956],[-48.73336657788751,-26.867441495278197],[-48.73336939036735,-26.86744961918122],[-48.73337453484023,-26.867461855985244],[-48.73337738970097,-26.867469318165508],[-48.73337972276543,-26.867476253062826],[-48.73338181412464,-26.867484005317294],[-48.73338288153578,-26.86749037392471],[-48.73338141872858,-26.867498431046577],[-48.73338067603757,-26.86750685980065],[-48.7333827674447,-26.867517434937476],[-48.73338416138698,-26.867524484722562],[-48.733384856935196,-26.86753365580668],[-48.73338723148814,-26.86754557382765],[-48.7333935746321,-26.86756218962439],[-48.73339810756118,-26.867575220705234],[-48.73340141924597,-26.867587022903688],[-48.733403227516725,-26.867593429567272],[-48.73340582104933,-26.86760203728342],[-48.733408849608004,-26.86761249569542],[-48.73341039649281,-26.867620050601698],[-48.733409870815386,-26.867627991901333],[-48.73340836557983,-26.86763388786366],[-48.73340662060241,-26.86763777833309],[-48.73340459147343,-26.86764032590219],[-48.73340084100578,-26.867643611139478],[-48.733399313022986,-26.867647015056434],[-48.73339822301801,-26.867649447737545],[-48.733394057252816,-26.867653374275477],[-48.73338286610288,-26.867673527972535],[-48.733375863321356,-26.867683778529642],[-48.7333665048297,-26.867693072594705],[-48.733359241552904,-26.86769882654723],[-48.73334872783388,-26.867703077204673],[-48.73333980621915,-26.86770575425155],[-48.73332833063889,-26.867710452436206],[-48.73332259237303,-26.867715625304452],[-48.73331903524591,-26.86772440237664],[-48.73331663334164,-26.86773822285523],[-48.73331643417892,-26.867749670920468],[-48.733314360707986,-26.867758527746908],[-48.73331115178496,-26.86776765604551],[-48.73330811649764,-26.867779783282565],[-48.733306086411886,-26.867787978402358],[-48.733304926482646,-26.86780551977637],[-48.73330481514212,-26.867818467326803],[-48.73330572970958,-26.867827150988607],[-48.73330906607402,-26.867835798599632],[-48.73331297065007,-26.8678414862472],[-48.73331877218993,-26.86784661141428],[-48.73332849992801,-26.867851446708713],[-48.73334538066915,-26.86786064822572],[-48.73336068994691,-26.86786826959912],[-48.73337462406141,-26.867876980735204],[-48.73338072947463,-26.867883116110498],[-48.733381085842254,-26.867883310440813],[-48.73339832439816,-26.867892684646414],[-48.73340824258331,-26.867903006311845],[-48.73341336358824,-26.867915563110262],[-48.73341405833564,-26.867930374529386],[-48.733408671333734,-26.86793872155778],[-48.73340193192898,-26.867950649493274],[-48.733399531040696,-26.867961644400626],[-48.733400138883795,-26.867972135272527],[-48.733399896413054,-26.8679842414358],[-48.733396470575954,-26.867996677366264],[-48.73339328537416,-26.86800547394333],[-48.733392235992255,-26.868018532789222],[-48.733393978282876,-26.86802875217219],[-48.733394281368945,-26.86804105209089],[-48.73338876309441,-26.868048564045537],[-48.73338442267202,-26.868055141902538],[-48.73338241431437,-26.86806300436561],[-48.73338129983264,-26.868077056673048],[-48.73337911690484,-26.86808756684781],[-48.73337839497585,-26.868098485809416],[-48.73338061675671,-26.86810989058942],[-48.73338833146821,-26.868131046985916],[-48.733391532930284,-26.86814731637683],[-48.73339475700973,-26.868160433852804],[-48.73339809066213,-26.8681747172544],[-48.73339913459166,-26.8681870561316],[-48.733398783559615,-26.86819517079639],[-48.733395469051196,-26.868200309450653],[-48.733393613595645,-26.86820867883934],[-48.73339485479338,-26.86821803916767],[-48.73339857999478,-26.86822918920737],[-48.733401696523615,-26.86823831520128],[-48.73340426650591,-26.868247246521243],[-48.73340777380725,-26.86826170327253],[-48.73340478582989,-26.868267523104603],[-48.73340232163572,-26.86827104646762],[-48.733392291101055,-26.868279321707323],[-48.73338552974239,-26.868285941946546],[-48.733375912493045,-26.868293575851975],[-48.73336790817894,-26.868302123649126],[-48.7333625200401,-26.86831047607089],[-48.73335922625904,-26.8683181067366],[-48.733356607236225,-26.868326768904634],[-48.733354490367596,-26.868336287436943],[-48.73334929671246,-26.868352950082386],[-48.733345520608545,-26.868367861241502],[-48.73334497330648,-26.868378954470476],[-48.733343880426645,-26.868389854845702],[-48.73334377062382,-26.868390668001588],[-48.73334305142193,-26.86840044088745]]},"properties":{"objectid":64,"nome":"Trecho_Drenagem_Rio_Permanente","geometriaaproximada":null,"regime":2,"sourceLayer":"drenagem-0"}},{"type":"Feature","geometry":{"type":"LineString","coordinates":[[-48.73334398393929,-26.868485411216486],[-48.73334818990636,-26.8685044934332],[-48.73335275346801,-26.868514476511855],[-48.7333576577077,-26.868527509038728],[-48.733361820015375,-26.868537681512706],[-48.73336942554305,-26.868560478627963],[-48.73337404384732,-26.868580632356828],[-48.73337785608179,-26.868596096628796],[-48.73337717413994,-26.868628923341475],[-48.73337871930755,-26.868642114055582],[-48.73338028526203,-26.868657794075762],[-48.733380805475534,-26.868672425812434],[-48.73338045460021,-26.86868618263163],[-48.73337857651448,-26.86869770393365],[-48.73337770269581,-26.868708115082356],[-48.733380860959194,-26.86872503715791],[-48.73338441178039,-26.86873882588806],[-48.73338761335102,-26.86875226517958],[-48.733390662098245,-26.86876801862288],[-48.733392033612105,-26.868778211300683],[-48.73339069764905,-26.868809672934606],[-48.73339121781794,-26.8688214817892],[-48.73339095465873,-26.868831093231915],[-48.73338859808306,-26.86884142915287],[-48.73338554302174,-26.86885106529436],[-48.733381028872856,-26.868860297191414],[-48.73337810588459,-26.868865128070514],[-48.73337653541077,-26.868869198218945],[-48.733375728538604,-26.86887297378291],[-48.7333750527253,-26.868877847030532],[-48.73337633738354,-26.868886542043544],[-48.73337969378385,-26.86889484252953],[-48.73338126247026,-26.868899236483504],[-48.73338707951565,-26.868918116224354],[-48.73339010751504,-26.868931378557253],[-48.733391434654685,-26.86894223202303],[-48.73339234848605,-26.86895372772368],[-48.733390056969654,-26.868963071986965],[-48.73338613074151,-26.868971836819295],[-48.733382161125604,-26.868981263357806],[-48.73337982620253,-26.86899127022933],[-48.73337893060558,-26.868999191153236],[-48.733380037969766,-26.86901899435501],[-48.73338045061243,-26.869029635511676],[-48.7333783120165,-26.86903948579811],[-48.73337569384586,-26.869045329609932],[-48.73337231309586,-26.869051467120002],[-48.73336788565723,-26.869059378309668],[-48.733364831458864,-26.869066196095194],[-48.733361165672235,-26.869076634647577],[-48.733358918525326,-26.86908531812188],[-48.73335732448311,-26.869095362147576],[-48.73335599021884,-26.869118363285665],[-48.73335603183327,-26.869126164779225],[-48.7333562462918,-26.869142604643038],[-48.73335894600183,-26.869163648096134],[-48.733360120393264,-26.86917963679082],[-48.73336317014173,-26.869192565564433],[-48.73336933450961,-26.869203618466262],[-48.73338141214739,-26.8692121807],[-48.73341123768379,-26.869210998672784],[-48.73343713376888,-26.869212941073354],[-48.733462372724446,-26.86921352285363],[-48.7334833803521,-26.869216219788985],[-48.733494491116,-26.869225228559802],[-48.733499870103735,-26.869236609083025],[-48.733506970718715,-26.86925006399413],[-48.73351263190605,-26.86926278467835],[-48.73352851258312,-26.86926986922247],[-48.73354637591987,-26.8692694220901],[-48.73358394744135,-26.86927143714895],[-48.73360424268703,-26.86927625062952],[-48.73361249423769,-26.869280637172864],[-48.73362562056973,-26.869292724957035],[-48.73364283817525,-26.869307500003135],[-48.7336627096379,-26.869324228116902],[-48.73367920419373,-26.869341452556995],[-48.733691476266344,-26.869355151955034],[-48.73370627195186,-26.869369968462706],[-48.73372202340851,-26.86938151536162],[-48.7337328161626,-26.869383867013184],[-48.73375910100734,-26.869379185250736],[-48.733780661358075,-26.86937576514018],[-48.733811483230674,-26.869375285780503]]},"properties":{"objectid":90,"nome":"Trecho_Drenagem_Rio_Permanente","geometriaaproximada":null,"regime":2,"sourceLayer":"drenagem-0"}},{"type":"Feature","geometry":{"type":"LineString","coordinates":[[-48.72873388415941,-26.875559678748722],[-48.72778417543771,-26.875248034612895]]},"properties":{"objectid":95,"nome":"Trecho_Drenagem_Geom_Aprox_Sim","geometriaaproximada":1,"regime":null,"sourceLayer":"drenagem-0"}},{"type":"Feature","geometry":{"type":"LineString","coordinates":[[-48.72926437663747,-26.865901276678947],[-48.72805871668254,-26.86563380095176]]},"properties":{"objectid":97,"nome":"Trecho_Drenagem_Geom_Aprox_Sim","geometriaaproximada":1,"regime":null,"sourceLayer":"drenagem-0"}},{"type":"Feature","geometry":{"type":"LineString","coordinates":[[-48.72983553459946,-26.86700368528677],[-48.72926437663747,-26.865901276678947]]},"properties":{"objectid":98,"nome":"Trecho_Drenagem_Geom_Aprox_Sim","geometriaaproximada":1,"regime":null,"sourceLayer":"drenagem-0"}},{"type":"Feature","geometry":{"type":"LineString","coordinates":[[-48.73029379482043,-26.868241712249294],[-48.72811519885812,-26.868222644473178]]},"properties":{"objectid":99,"nome":"Trecho_Drenagem_Geom_Aprox_Sim","geometriaaproximada":1,"regime":null,"sourceLayer":"drenagem-0"}},{"type":"Feature","geometry":{"type":"LineString","coordinates":[[-48.739805104995426,-26.883197285402673],[-48.73980056913894,-26.8831578927869]]},"properties":{"objectid":104,"nome":"Trecho_Drenagem_Geom_Aprox_Sim","geometriaaproximada":1,"regime":null,"sourceLayer":"drenagem-0"}},{"type":"Feature","geometry":{"type":"LineString","coordinates":[[-48.739891933547646,-26.883274156377745],[-48.73985439187849,-26.883278135570777]]},"properties":{"objectid":105,"nome":"Trecho_Drenagem_Geom_Aprox_Sim","geometriaaproximada":1,"regime":null,"sourceLayer":"drenagem-0"}},{"type":"Feature","geometry":{"type":"LineString","coordinates":[[-48.73997908714507,-26.884052495658704],[-48.7399458545928,-26.884057288346597]]},"properties":{"objectid":106,"nome":"Trecho_Drenagem_Geom_Aprox_Sim","geometriaaproximada":1,"regime":null,"sourceLayer":"drenagem-0"}},{"type":"Feature","geometry":{"type":"LineString","coordinates":[[-48.73973255576553,-26.883161710084426],[-48.73980056913894,-26.8831578927869]]},"properties":{"objectid":109,"nome":"Trecho_Drenagem_Geom_Aprox_Sim","geometriaaproximada":1,"regime":null,"sourceLayer":"drenagem-0"}},{"type":"Feature","geometry":{"type":"LineString","coordinates":[[-48.73993076589785,-26.884944427697896],[-48.73998341083944,-26.884931227048483]]},"properties":{"objectid":110,"nome":"Trecho_Drenagem_Geom_Aprox_Sim","geometriaaproximada":1,"regime":null,"sourceLayer":"drenagem-0"}},{"type":"Feature","geometry":{"type":"LineString","coordinates":[[-48.739508255276135,-26.885250394602185],[-48.73950012485224,-26.885267408423072]]},"properties":{"objectid":111,"nome":"Trecho_Drenagem_Geom_Aprox_Sim","geometriaaproximada":1,"regime":null,"sourceLayer":"drenagem-0"}},{"type":"Feature","geometry":{"type":"LineString","coordinates":[[-48.73983768170324,-26.88410474744106],[-48.739889243803546,-26.884098805984436]]},"properties":{"objectid":112,"nome":"Trecho_Drenagem_Geom_Aprox_Sim","geometriaaproximada":1,"regime":null,"sourceLayer":"drenagem-0"}},{"type":"Feature","geometry":{"type":"LineString","coordinates":[[-48.73947233345008,-26.87928482367195],[-48.739468352475434,-26.879247342298886]]},"properties":{"objectid":116,"nome":"Trecho_Drenagem_Geom_Aprox_Sim","geometriaaproximada":1,"regime":null,"sourceLayer":"drenagem-0"}},{"type":"Feature","geometry":{"type":"LineString","coordinates":[[-48.73964015453861,-26.881579687077167],[-48.73963699115668,-26.8815425860972]]},"properties":{"objectid":117,"nome":"Trecho_Drenagem_Geom_Aprox_Sim","geometriaaproximada":1,"regime":null,"sourceLayer":"drenagem-0"}},{"type":"Feature","geometry":{"type":"LineString","coordinates":[[-48.73984918461466,-26.877875793693267],[-48.74,-26.877857067852275]]},"properties":{"objectid":119,"nome":"Trecho_Drenagem_Geom_Aprox_Sim","geometriaaproximada":1,"regime":null,"sourceLayer":"drenagem-0"}},{"type":"Feature","geometry":{"type":"LineString","coordinates":[[-48.738298033230585,-26.885343300043754],[-48.73829511733236,-26.885306326665756]]},"properties":{"objectid":180,"nome":"Trecho_Drenagem_Geom_Aprox_Sim","geometriaaproximada":1,"regime":null,"sourceLayer":"drenagem-0"}},{"type":"Feature","geometry":{"type":"LineString","coordinates":[[-48.73816501992735,-26.88388279780508],[-48.73816266514066,-26.88384812384066]]},"properties":{"objectid":181,"nome":"Trecho_Drenagem_Geom_Aprox_Sim","geometriaaproximada":1,"regime":null,"sourceLayer":"drenagem-0"}},{"type":"Feature","geometry":{"type":"LineString","coordinates":[[-48.738030326058755,-26.881614065918598],[-48.73802991650975,-26.88157828781046]]},"properties":{"objectid":182,"nome":"Trecho_Drenagem_Geom_Aprox_Sim","geometriaaproximada":1,"regime":null,"sourceLayer":"drenagem-0"}},{"type":"Feature","geometry":{"type":"LineString","coordinates":[[-48.73701852070215,-26.878050133799768],[-48.736979800893465,-26.87805322256052]]},"properties":{"objectid":183,"nome":"Trecho_Drenagem_Geom_Aprox_Sim","geometriaaproximada":1,"regime":null,"sourceLayer":"drenagem-0"}},{"type":"Feature","geometry":{"type":"LineString","coordinates":[[-48.72866432202593,-26.885221691625315],[-48.72870077787127,-26.88521271917056]]},"properties":{"objectid":184,"nome":"Trecho_Drenagem_Geom_Aprox_Sim","geometriaaproximada":1,"regime":null,"sourceLayer":"drenagem-0"}},{"type":"Feature","geometry":{"type":"LineString","coordinates":[[-48.7271492218028,-26.88201424972819],[-48.72715139299974,-26.882046060901043]]},"properties":{"objectid":185,"nome":"Trecho_Drenagem_Geom_Aprox_Sim","geometriaaproximada":1,"regime":null,"sourceLayer":"drenagem-0"}},{"type":"Feature","geometry":{"type":"LineString","coordinates":[[-48.72802569426641,-26.882022039001058],[-48.72808694660439,-26.8820177431612]]},"properties":{"objectid":186,"nome":"Trecho_Drenagem_Geom_Aprox_Sim","geometriaaproximada":1,"regime":null,"sourceLayer":"drenagem-0"}},{"type":"Feature","geometry":{"type":"LineString","coordinates":[[-48.72998724395668,-26.882121619000834],[-48.729978121659364,-26.88207833603605]]},"properties":{"objectid":187,"nome":"Trecho_Drenagem_Geom_Aprox_Sim","geometriaaproximada":1,"regime":null,"sourceLayer":"drenagem-0"}},{"type":"Feature","geometry":{"type":"LineString","coordinates":[[-48.73274466193955,-26.87751317170061],[-48.73272435147276,-26.877496597003574]]},"properties":{"objectid":198,"nome":"Trecho_Drenagem_Geom_Aprox_Sim","geometriaaproximada":1,"regime":null,"sourceLayer":"drenagem-0"}},{"type":"Feature","geometry":{"type":"LineString","coordinates":[[-48.73169237131233,-26.876981008661094],[-48.731729911881914,-26.87699976706397]]},"properties":{"objectid":199,"nome":"Trecho_Drenagem_Geom_Aprox_Sim","geometriaaproximada":1,"regime":null,"sourceLayer":"drenagem-0"}},{"type":"Feature","geometry":{"type":"LineString","coordinates":[[-48.7320397071001,-26.877193007803523],[-48.73203464998374,-26.877171747811634]]},"properties":{"objectid":227,"nome":"Trecho_Drenagem_Geom_Aprox_Sim","geometriaaproximada":1,"regime":null,"sourceLayer":"drenagem-0"}},{"type":"Feature","geometry":{"type":"LineString","coordinates":[[-48.72955012227963,-26.86511393494306],[-48.72938127396104,-26.865]]},"properties":{"objectid":406,"nome":"Trecho_Drenagem_Geom_Aprox_Sim","geometriaaproximada":1,"regime":null,"sourceLayer":"drenagem-0"}},{"type":"Feature","geometry":{"type":"LineString","coordinates":[[-48.73719220150122,-26.86818599678782],[-48.73723749710968,-26.868182645821932]]},"properties":{"objectid":414,"nome":"Trecho_Drenagem_Geom_Aprox_Sim","geometriaaproximada":1,"regime":null,"sourceLayer":"drenagem-0"}},{"type":"Feature","geometry":{"type":"LineString","coordinates":[[-48.73679062843244,-26.868530549198777],[-48.73680516950032,-26.868458630696374]]},"properties":{"objectid":415,"nome":"Trecho_Drenagem_Geom_Aprox_Sim","geometriaaproximada":1,"regime":null,"sourceLayer":"drenagem-0"}},{"type":"Feature","geometry":{"type":"LineString","coordinates":[[-48.727765295330634,-26.87571595592416],[-48.72778417543771,-26.875248034612895]]},"properties":{"objectid":417,"nome":"Trecho_Drenagem_Geom_Aprox_Sim","geometriaaproximada":1,"regime":null,"sourceLayer":"drenagem-0"}},{"type":"Feature","geometry":{"type":"LineString","coordinates":[[-48.73445520613069,-26.86918459937616],[-48.73505218761994,-26.86901031089351]]},"properties":{"objectid":421,"nome":"Trecho_Drenagem_Geom_Aprox_Sim","geometriaaproximada":1,"regime":null,"sourceLayer":"drenagem-0"}},{"type":"Feature","geometry":{"type":"LineString","coordinates":[[-48.7318649393811,-26.87473069607812],[-48.73186222678747,-26.874707537057155]]},"properties":{"objectid":422,"nome":"Trecho_Drenagem_Geom_Aprox_Sim","geometriaaproximada":1,"regime":null,"sourceLayer":"drenagem-0"}},{"type":"Feature","geometry":{"type":"LineString","coordinates":[[-48.7319148205147,-26.875299192221874],[-48.7319097211075,-26.87525586022023]]},"properties":{"objectid":423,"nome":"Trecho_Drenagem_Geom_Aprox_Sim","geometriaaproximada":1,"regime":null,"sourceLayer":"drenagem-0"}},{"type":"Feature","geometry":{"type":"LineString","coordinates":[[-48.73055982168807,-26.873559792868654],[-48.730564660572156,-26.87352253788534]]},"properties":{"objectid":424,"nome":"Trecho_Drenagem_Geom_Aprox_Sim","geometriaaproximada":1,"regime":null,"sourceLayer":"drenagem-0"}},{"type":"Feature","geometry":{"type":"LineString","coordinates":[[-48.73055958423497,-26.873514854061792],[-48.73027030243053,-26.873389992407155],[-48.72858778263259,-26.873356132444076]]},"properties":{"objectid":425,"nome":"Trecho_Drenagem_Geom_Aprox_Sim","geometriaaproximada":1,"regime":null,"sourceLayer":"drenagem-0"}},{"type":"Feature","geometry":{"type":"LineString","coordinates":[[-48.71849918228917,-26.8827555448927],[-48.71850274817146,-26.88276354855604],[-48.71850769931225,-26.88277017670405],[-48.71851524836542,-26.88277758592407],[-48.71852313347296,-26.882782594644443],[-48.71853437887525,-26.88278625343628],[-48.71854322326999,-26.88278809652054],[-48.71856300120395,-26.882786428816768],[-48.71858405803324,-26.882785574118763],[-48.71859382062233,-26.882785094690103],[-48.71860949032749,-26.88278052783134],[-48.71861570337296,-26.882779246543954],[-48.71862431943997,-26.882779780994195],[-48.71862901146624,-26.88278037118133],[-48.71864675146079,-26.88278241029348],[-48.71866746529249,-26.882779592631405],[-48.71869194530762,-26.882777713883105],[-48.71872681218441,-26.882774588767898],[-48.71875589430298,-26.882773017175676],[-48.71880055052907,-26.882770585314475],[-48.718836782922516,-26.88276977264244],[-48.71885165720156,-26.88276818001388],[-48.71887595002501,-26.882764146772182],[-48.718906865827925,-26.882761120237095],[-48.71894702798866,-26.882757862199625],[-48.7189792504589,-26.88275682138333],[-48.71901062066442,-26.88275587328411],[-48.71904032043648,-26.882754916248867],[-48.71906977279118,-26.882755304372466],[-48.7190875088563,-26.8827537814005],[-48.719132948610095,-26.88274921696645],[-48.71917260260411,-26.882746206050488],[-48.71920715094592,-26.88274430841635],[-48.71922539994841,-26.882744555290486],[-48.71923479178835,-26.882746149974498],[-48.71924162108358,-26.882749311439586],[-48.71924446447635,-26.88275139959887],[-48.71924674649505,-26.882754580582606],[-48.71925334575896,-26.88277135087089],[-48.71925755013664,-26.88279126181177],[-48.719261821426585,-26.88282643243822],[-48.7192644080187,-26.882856491461972],[-48.71926869094645,-26.88289489123806],[-48.71927042764366,-26.882919212303896],[-48.71927066168594,-26.88293416785576],[-48.71926994024479,-26.882987178684303],[-48.71927192366913,-26.883013696684923],[-48.71927723188178,-26.88304729755056],[-48.71928305092147,-26.883074254714906],[-48.719283232020494,-26.883083678302732],[-48.71928416925533,-26.883113079878996],[-48.71928751004056,-26.883151588075194],[-48.71928914351487,-26.8831785435265],[-48.71929274764561,-26.883219473635517],[-48.719295172847374,-26.88325726855044],[-48.71929807109642,-26.883289148332764],[-48.71930064541104,-26.88330974678602],[-48.719304859374716,-26.883329933127214],[-48.719309362561596,-26.883362277416992],[-48.719312123825524,-26.8833923591137],[-48.71931599043653,-26.883432798016074],[-48.719317205641985,-26.883454322092472],[-48.719317057866014,-26.883493701669195],[-48.719317194335545,-26.883530353220998],[-48.71931994092566,-26.88355404985508],[-48.719324782116544,-26.883597827311426],[-48.71932919777385,-26.8836360839337],[-48.71933323498034,-26.88367118580054],[-48.7193364509898,-26.88369962155367],[-48.71933863030947,-26.883721246931223],[-48.71934068761606,-26.883747494485917],[-48.719339589828216,-26.883804962745117],[-48.71933926032502,-26.883824376316756],[-48.71934246731615,-26.883835822423347],[-48.71934706613188,-26.88384757076497],[-48.719349002725075,-26.883859383506863],[-48.71934946859447,-26.883883191311355],[-48.71935165970744,-26.883913400069144],[-48.71935336221434,-26.88393772058044],[-48.71935347244443,-26.883978685412156],[-48.7193551841398,-26.884011568505468],[-48.719360417044435,-26.884053932733497],[-48.71936841113484,-26.884106338877647],[-48.71937597372118,-26.88415687900881],[-48.71937918093573,-26.88419492389267],[-48.71938180271113,-26.884227592459755],[-48.719383535474954,-26.884258524798373],[-48.71938343195675,-26.88428031636128],[-48.71938476062,-26.88430155348452],[-48.719388552664235,-26.884331174428542],[-48.7193890364278,-26.88436371281],[-48.719391794177355,-26.884400385029995],[-48.71939368847662,-26.88443119182894],[-48.719398577406885,-26.884480812505213],[-48.719400146949994,-26.884514109330297],[-48.71940034501164,-26.88454298366802],[-48.71940060703774,-26.884556195236268],[-48.7194014843195,-26.884570692802434],[-48.71940712372531,-26.88461466634121],[-48.71941209619788,-26.88463041134362],[-48.71941680828257,-26.88465451152341],[-48.71941939852103,-26.884679630596324],[-48.71942236197536,-26.88472074347725],[-48.71942304791899,-26.88475238538116],[-48.71942281575544,-26.88477572166279],[-48.719424503606724,-26.884811897403896],[-48.71942695172021,-26.88485125933396],[-48.719429414072515,-26.884899283196308],[-48.71943445129008,-26.884949889933914],[-48.71943783495124,-26.884995586819162],[-48.71944002372503,-26.885027115818342],[-48.71944158551574,-26.88505944599401],[-48.7194452392064,-26.88509164750963],[-48.719447975752935,-26.885131631371262],[-48.71944937038501,-26.885160909473225],[-48.719453336157216,-26.88520017227422],[-48.719455828836615,-26.885228145117942],[-48.719458522054936,-26.88526577649816],[-48.71946121692388,-26.885303425953865],[-48.71946438527538,-26.885340500976017],[-48.719468693277015,-26.885369939832042],[-48.719471804371416,-26.885406708901687],[-48.71947250140464,-26.885433238611096],[-48.71947253547229,-26.88547764504918],[-48.71947338371398,-26.885522302881046],[-48.71947500836138,-26.88556809048181],[-48.71947764857549,-26.885594730985467],[-48.71948168953418,-26.885634610468916],[-48.71948565960467,-26.88567085374442],[-48.71949052556855,-26.885698068049283],[-48.71949654689217,-26.885720923232796],[-48.71949830122613,-26.88573289276246],[-48.71949924371485,-26.885750057213198],[-48.71949998407103,-26.88577262587194],[-48.71950130295628,-26.885822162720405],[-48.7195029209393,-26.88585395052703],[-48.71950447909729,-26.88588540977861],[-48.71950606011672,-26.885912673915698],[-48.71950692529791,-26.885944612006313],[-48.7195081337467,-26.88595354500555],[-48.71951473396542,-26.885988317345902],[-48.71951604890995,-26.886]]},"properties":{"objectid":943,"nome":"Trecho_Drenagem_Geom_Aprox_Sim","geometriaaproximada":1,"regime":null,"sourceLayer":"drenagem-0"}},{"type":"Feature","geometry":{"type":"LineString","coordinates":[[-48.71885115127483,-26.882775981633383],[-48.71885165720156,-26.88276818001388]]},"properties":{"objectid":953,"nome":"Trecho_Drenagem_Geom_Aprox_Sim","geometriaaproximada":1,"regime":null,"sourceLayer":"drenagem-0"}},{"type":"Feature","geometry":{"type":"LineString","coordinates":[[-48.72215653491723,-26.880503990890787],[-48.72188060541079,-26.88000780910532]]},"properties":{"objectid":957,"nome":"Trecho_Drenagem_Geom_Aprox_Sim","geometriaaproximada":1,"regime":null,"sourceLayer":"drenagem-0"}},{"type":"Feature","geometry":{"type":"LineString","coordinates":[[-48.72183152308505,-26.878948768283873],[-48.72171823520476,-26.877839427016077]]},"properties":{"objectid":958,"nome":"Trecho_Drenagem_Geom_Aprox_Sim","geometriaaproximada":1,"regime":null,"sourceLayer":"drenagem-0"}},{"type":"Feature","geometry":{"type":"LineString","coordinates":[[-48.721860455168176,-26.87894108038459],[-48.72183152308505,-26.878948768283873]]},"properties":{"objectid":959,"nome":"Trecho_Drenagem_Geom_Aprox_Sim","geometriaaproximada":1,"regime":null,"sourceLayer":"drenagem-0"}},{"type":"Feature","geometry":{"type":"LineString","coordinates":[[-48.71919574742682,-26.878938687993084],[-48.71913723392651,-26.878641387822846]]},"properties":{"objectid":960,"nome":"Trecho_Drenagem_Geom_Aprox_Sim","geometriaaproximada":1,"regime":null,"sourceLayer":"drenagem-0"}},{"type":"Feature","geometry":{"type":"LineString","coordinates":[[-48.71820378833131,-26.879215354356692],[-48.718200059630036,-26.878605654711826]]},"properties":{"objectid":961,"nome":"Trecho_Drenagem_Geom_Aprox_Sim","geometriaaproximada":1,"regime":null,"sourceLayer":"drenagem-0"}},{"type":"Feature","geometry":{"type":"LineString","coordinates":[[-48.739399104116124,-26.886],[-48.739331096861946,-26.885844419792726],[-48.73918696062466,-26.885394455468344]]},"properties":{"objectid":1026,"nome":"Trecho_Drenagem_Geom_Aprox_Sim","geometriaaproximada":1,"regime":null,"sourceLayer":"drenagem-0"}},{"type":"Feature","geometry":{"type":"LineString","coordinates":[[-48.733356731427094,-26.866663897824452],[-48.73335564144826,-26.866628591608286]]},"properties":{"objectid":1055,"nome":"Trecho_Drenagem_Canal","geometriaaproximada":null,"regime":null,"sourceLayer":"drenagem-0"}},{"type":"Feature","geometry":{"type":"LineString","coordinates":[[-48.73336548063507,-26.867118579001538],[-48.73335103513329,-26.8670748696486]]},"properties":{"objectid":1056,"nome":"Trecho_Drenagem_Canal","geometriaaproximada":null,"regime":null,"sourceLayer":"drenagem-0"}},{"type":"Feature","geometry":{"type":"LineString","coordinates":[[-48.73334398393929,-26.868485411216486],[-48.73334305142193,-26.86840044088745]]},"properties":{"objectid":1057,"nome":"Trecho_Drenagem_Canal","geometriaaproximada":null,"regime":null,"sourceLayer":"drenagem-0"}},{"type":"Feature","geometry":{"type":"LineString","coordinates":[[-48.73012997994214,-26.86609330435646],[-48.72926437663747,-26.865901276678947]]},"properties":{"objectid":5917,"nome":"Trecho_Drenagem_Geom_Aprox_Sim","geometriaaproximada":1,"regime":null,"sourceLayer":"drenagem-0"}},{"type":"Feature","geometry":{"type":"LineString","coordinates":[[-48.717,-26.877527659412387],[-48.71828870326986,-26.877670030579548],[-48.71927776530638,-26.877651131507697],[-48.720014013062695,-26.87746164299135],[-48.720677965932914,-26.87714942122757],[-48.72148191531315,-26.876633414204765],[-48.722712523000055,-26.87567031326833],[-48.723509696686556,-26.875003379412505],[-48.724677181771646,-26.872984609940715],[-48.72545658593011,-26.871355576928742],[-48.72601573694731,-26.869817287010708],[-48.726409665517814,-26.868393353583226],[-48.72650428992398,-26.867445452232104],[-48.72641012964356,-26.866351864873845],[-48.72612925721081,-26.86527920494406],[-48.725993011191875,-26.865]]},"properties":{"objectid":5921,"nome":"Trecho_Drenagem_Geom_Aprox_Sim","geometriaaproximada":1,"regime":null,"sourceLayer":"drenagem-0"}}]}