{"type":"FeatureCollection","metadata":{"protocolVersion":"areas-exploratory-proposal-1.0.0","role":"exploratory_product_sketch","authority":"working_assumption","legalEnvelopeAdopted":false,"adoptionAllowed":false,"investmentAreaAllowed":false,"usableAreaM2":null,"approvedHeightM":null,"floorHeightM":3,"defaultFloors":1,"exclusionSourceIds":["vegetacao","massas-agua","app-hidrografia-ima","valas","drenagem"],"displayMarginM":3,"displayMarginRole":"implantation_hypothesis_not_legal_setback","hydrographicLegalBufferM":null,"metricCRS":"EPSG:31982","outputCRS":"EPSG:4326","gridStepM":2,"examinedPositions":536,"admissibility":"conditional_pending_diligence","unresolved":["APP municipal indicada, com delimitação legal ainda pendente.","Cheias históricas e alta suscetibilidade à inundação incidem sobre toda a parcela; cota de projeto e admissibilidade da ocupação não definidas.","Limites municipais e registrais com divergência de área; nenhuma adoção registral.","Dimensões efetivas de vala/drenagem e faixas incidentes não levantadas.","Acesso, manobra, afastamentos do meio-fio, atividade/CNAE, licenciamento e esgoto precisam de compatibilização.","Altura gráfica padronizada em 3 m por pavimento; pé-direito operacional do galpão ainda não dimensionado."],"containmentVerified":true,"observedExclusionsIntersection":false,"conclusion":"O encaixe é geométrico e experimental. APP, cota de inundação, drenagem, acesso, zoneamento e limite registral permanecem condicionantes; não determina área edificável ou retorno.","asOf":"2026-09-30","slug":"salseiros-itajai-matricula-77931","sources":[{"id":"parcel","file":"parcela-municipal.geojson","sha256":"7b2bfea1b6eaf478f9f69f1cce275d3f05c319b75614f93d3314d742c8509d7c"},{"id":"vegetacao","file":"vegetacao.geojson","sha256":"a2132d387dad3e121e36b4b2400fa54b64b95c992a53672bf44e0cff8da2a5a3"},{"id":"massas-agua","file":"massas-agua.geojson","sha256":"06bdbebee768433da5187a4918c1e3ec87f110e4e00f2d61b7429fb8d6cbf19b"},{"id":"app-hidrografia-ima","file":"app-hidrografia-ima.geojson","sha256":"f3023fcd69cfe1b1898b2eb71de5f3f429ef6fd1969beb4661d5e859dbbe1be6"},{"id":"valas","file":"valas.geojson","sha256":"c19282e66c6aafd45cfa4834b5e7083317dac2a6e8074607a80115734a1f4ebe"},{"id":"drenagem","file":"drenagem.geojson","sha256":"520a52d4a022038757056e41ba21aa486d1cde4e653b7766317cbf5da99d9822"}],"configurationSha256":"18326bac5b5a7d2999034fad1fc0ebf4b2e7576f3b69a5563ca74f7a9bd87d34"},"features":[{"type":"Feature","id":"galpao-exploratorio-a","geometry":{"type":"Polygon","coordinates":[[[-48.728529382590885,-26.87621620042445],[-48.728730188600544,-26.876204416696293],[-48.72876960981254,-26.87674464608332],[-48.72856880284254,-26.87675642980694],[-48.728529382590885,-26.87621620042445]]]},"properties":{"label":"Galpão operacional · ensaio exploratório","authority":"working_assumption","role":"exploratory_product_sketch","area_cartografica_m2":1199.999999998601,"widthM":20,"lengthM":60,"height_m":3,"defaultFloors":1,"heightRole":"standardized_display_height_not_industrial_design","investmentAreaAllowed":false,"legalEnvelopeAdopted":false}}]}