{"type":"FeatureCollection","features":[{"type":"Feature","id":"420820305000131","properties":{"code":"420820305000131","population":1103,"areaKm2":1.3998245,"densityHabKm2":787.96,"households":400,"situation":"Urbana","district":"Itajaí","neighborhood":"Salseiros","containsReferencePoint":false,"fullyWithinRadius":false,"centroidDistanceM":1126,"statisticalYear":2022,"tabularRevision":"2026-05-20","geometryRelease":"2024-11-13"},"geometry":{"type":"Polygon","coordinates":[[[-48.71410519999995,-26.888324099999977],[-48.714112899999975,-26.88912769999996],[-48.71410869999994,-26.890258699999947],[-48.71404689999997,-26.89124369999996],[-48.714526399999954,-26.891347199999927],[-48.71482489999994,-26.891411699999935],[-48.71505689999998,-26.891460699999982],[-48.71529089999996,-26.89146869999996],[-48.71573989999996,-26.891455699999938],[-48.71600589999997,-26.89141969999997],[-48.71633289999994,-26.891359699999953],[-48.71670789999996,-26.89127869999993],[-48.71682789999994,-26.891245699999956],[-48.71791189999993,-26.891024699999946],[-48.718869799999936,-26.89083439999996],[-48.71967369999993,-26.89066029999998],[-48.72030629999995,-26.89051319999993],[-48.720719299999985,-26.890434099999936],[-48.72105449999998,-26.89042349999994],[-48.72119999999995,-26.890377299999955],[-48.72131209999998,-26.890378099999964],[-48.72144059999994,-26.89004189999997],[-48.721568899999966,-26.889730499999928],[-48.721878199999935,-26.888977799999964],[-48.722006499999964,-26.888666399999977],[-48.72231429999994,-26.887932999999975],[-48.72256629999998,-26.88737079999993],[-48.72262569999998,-26.88721479999998],[-48.72284719999993,-26.88664129999995],[-48.72325589999997,-26.885666999999955],[-48.72376859999997,-26.884446399999945],[-48.724075099999936,-26.88371479999995],[-48.72437619999994,-26.882983099999933],[-48.72474839999995,-26.882096399999966],[-48.72514609999996,-26.881133099999943],[-48.72554569999994,-26.880182499999933],[-48.72581569999994,-26.879531199999974],[-48.726129499999956,-26.878772199999958],[-48.726538199999936,-26.87780879999997],[-48.72700349999997,-26.876688599999966],[-48.72742859999994,-26.875666799999976],[-48.727917599999955,-26.874495499999966],[-48.72836479999995,-26.87340009999997],[-48.72878419999995,-26.872424699999954],[-48.72886889999995,-26.87221299999993],[-48.72905879999996,-26.87176059999996],[-48.72950579999997,-26.870658599999956],[-48.72989199999995,-26.86968109999998],[-48.72998199999995,-26.86928469999998],[-48.73012789999996,-26.86856949999998],[-48.73019179999994,-26.867872499999976],[-48.73018239999993,-26.86737379999994],[-48.73010009999996,-26.867354399999954],[-48.730076699999984,-26.867349799999943],[-48.72985649999998,-26.86732139999998],[-48.728576799999985,-26.86734219999994],[-48.72850319999998,-26.86779329999996],[-48.72842859999997,-26.86845079999995],[-48.72836279999996,-26.868984199999943],[-48.72833989999998,-26.869598999999937],[-48.72823439999996,-26.87028209999994],[-48.72811249999995,-26.87081409999996],[-48.727991799999984,-26.87133259999996],[-48.72757399999995,-26.872184199999936],[-48.727311199999974,-26.872703899999976],[-48.72694519999993,-26.873423199999934],[-48.726495599999964,-26.87418839999998],[-48.72548589999997,-26.875357599999973],[-48.724371599999984,-26.876544899999942],[-48.72400419999997,-26.876925899999947],[-48.72333869999994,-26.877382999999952],[-48.72288919999994,-26.877669699999956],[-48.72227849999996,-26.877969999999948],[-48.72169809999997,-26.878168399999936],[-48.72136969999997,-26.878280399999937],[-48.72045429999997,-26.87854159999995],[-48.719701499999985,-26.878764399999966],[-48.718191299999944,-26.879152399999953],[-48.718065699999954,-26.87918609999997],[-48.71795629999997,-26.879270899999938],[-48.71781149999998,-26.879473399999938],[-48.71740829999993,-26.880337899999972],[-48.71732689999993,-26.88060969999998],[-48.71704459999995,-26.88229869999998],[-48.71703039999994,-26.882392799999934],[-48.71698459999993,-26.882494099999974],[-48.71691699999997,-26.88255639999994],[-48.71682599999997,-26.882599699999957],[-48.71402729999994,-26.882682599999953],[-48.71407899999997,-26.88607829999995],[-48.71409959999994,-26.88728839999993],[-48.71410519999995,-26.888324099999977]]]}},{"type":"Feature","id":"420820305000272","properties":{"code":"420820305000272","population":519,"areaKm2":2.2941435,"densityHabKm2":226.23,"households":195,"situation":"Urbana","district":"Itajaí","neighborhood":"Salseiros","containsReferencePoint":false,"fullyWithinRadius":false,"centroidDistanceM":1398,"statisticalYear":2022,"tabularRevision":"2026-05-20","geometryRelease":"2024-11-13"},"geometry":{"type":"Polygon","coordinates":[[[-48.71103329999994,-26.87500319999998],[-48.70999329999995,-26.875922499999945],[-48.709946499999944,-26.87597299999993],[-48.709518199999934,-26.87641519999994],[-48.70916729999993,-26.87681939999993],[-48.70913049999996,-26.87685349999998],[-48.70897009999993,-26.877049599999964],[-48.709374099999934,-26.877335699999946],[-48.70969219999995,-26.87754149999995],[-48.709757399999944,-26.877585299999964],[-48.709847399999944,-26.87765959999996],[-48.70988719999997,-26.877686299999937],[-48.709956199999965,-26.877748999999937],[-48.709978199999966,-26.877769199999932],[-48.71003919999998,-26.877837399999976],[-48.71020749999997,-26.87804179999995],[-48.71028159999997,-26.878142399999945],[-48.71032539999993,-26.87820739999995],[-48.710347799999965,-26.87824939999996],[-48.71035789999996,-26.878272099999947],[-48.71037679999995,-26.878324499999962],[-48.71039609999997,-26.878390599999932],[-48.71044049999995,-26.87857539999993],[-48.710551599999974,-26.879076699999928],[-48.710649099999955,-26.87956749999995],[-48.71077459999998,-26.880147299999976],[-48.710906499999965,-26.880726399999958],[-48.71105799999998,-26.881465599999956],[-48.71109289999998,-26.88163929999996],[-48.71118939999997,-26.882093899999973],[-48.711257099999955,-26.88243099999994],[-48.71127789999997,-26.882547699999975],[-48.71129079999997,-26.882656099999963],[-48.71129899999994,-26.882779699999958],[-48.711306699999966,-26.88296189999994],[-48.71132189999997,-26.88344239999998],[-48.71132719999997,-26.88352489999994],[-48.711347599999954,-26.883754599999975],[-48.71135869999995,-26.883924999999977],[-48.711367999999936,-26.884126099999946],[-48.71138339999993,-26.884530799999936],[-48.71139219999998,-26.884699099999978],[-48.71140049999997,-26.884807699999953],[-48.71141099999994,-26.88490539999998],[-48.71141989999995,-26.88496809999998],[-48.711436799999944,-26.885063299999956],[-48.71149409999998,-26.885329599999977],[-48.711541899999986,-26.88553509999997],[-48.711585999999954,-26.88570059999995],[-48.71160299999997,-26.885756199999946],[-48.71162709999993,-26.885828699999934],[-48.71164249999998,-26.88586779999997],[-48.71166779999999,-26.885924199999977],[-48.71171099999998,-26.886012799999946],[-48.71176319999995,-26.88611489999994],[-48.711834099999976,-26.88624379999993],[-48.71190029999997,-26.886352299999942],[-48.71215369999993,-26.886736999999982],[-48.71218559999994,-26.886781999999982],[-48.71222019999993,-26.886826999999982],[-48.71225849999996,-26.88687299999998],[-48.71232539999994,-26.886946499999965],[-48.71240569999998,-26.88702829999994],[-48.71252489999995,-26.887144099999944],[-48.712689799999964,-26.887301399999956],[-48.71276299999994,-26.88736899999998],[-48.712859299999934,-26.88745209999996],[-48.71293949999995,-26.887514799999963],[-48.713035899999966,-26.88758409999997],[-48.71314939999996,-26.887660899999958],[-48.71352579999996,-26.887903799999947],[-48.71362209999995,-26.88796949999994],[-48.71372869999993,-26.888045399999953],[-48.71405539999995,-26.888292999999976],[-48.71410519999995,-26.888324099999977],[-48.71409959999994,-26.88728839999993],[-48.71407899999997,-26.88607829999995],[-48.71402729999994,-26.882682599999953],[-48.71682599999997,-26.882599699999957],[-48.71691699999997,-26.88255639999994],[-48.71698459999993,-26.882494099999974],[-48.71703039999994,-26.882392799999934],[-48.71704459999995,-26.88229869999998],[-48.71732689999993,-26.88060969999998],[-48.71740829999993,-26.880337899999972],[-48.71781149999998,-26.879473399999938],[-48.71795629999997,-26.879270899999938],[-48.718065699999954,-26.87918609999997],[-48.718191299999944,-26.879152399999953],[-48.719701499999985,-26.878764399999966],[-48.72045429999997,-26.87854159999995],[-48.72136969999997,-26.878280399999937],[-48.72169809999997,-26.878168399999936],[-48.72227849999996,-26.877969999999948],[-48.72288919999994,-26.877669699999956],[-48.72333869999994,-26.877382999999952],[-48.72400419999997,-26.876925899999947],[-48.724371599999984,-26.876544899999942],[-48.72548589999997,-26.875357599999973],[-48.726495599999964,-26.87418839999998],[-48.72694519999993,-26.873423199999934],[-48.727311199999974,-26.872703899999976],[-48.72757399999995,-26.872184199999936],[-48.727991799999984,-26.87133259999996],[-48.72811249999995,-26.87081409999996],[-48.72823439999996,-26.87028209999994],[-48.72833989999998,-26.869598999999937],[-48.72836279999996,-26.868984199999943],[-48.72842859999997,-26.86845079999995],[-48.72850319999998,-26.86779329999996],[-48.728576799999985,-26.86734219999994],[-48.72985649999998,-26.86732139999998],[-48.730076699999984,-26.867349799999943],[-48.73010009999996,-26.867354399999954],[-48.73018239999993,-26.86737379999994],[-48.73017719999996,-26.86709529999996],[-48.730102399999964,-26.866478599999937],[-48.72996009999997,-26.86580719999995],[-48.72976669999997,-26.865186799999947],[-48.72947659999994,-26.86433299999993],[-48.729191999999955,-26.863502799999935],[-48.728839799999946,-26.86247009999994],[-48.728425699999946,-26.86123859999998],[-48.728133799999966,-26.86039379999994],[-48.72789659999995,-26.859636699999953],[-48.72779259999993,-26.85909659999993],[-48.72757729999995,-26.85782949999998],[-48.72749339999996,-26.85738429999998],[-48.72732549999995,-26.856324299999983],[-48.72730359999997,-26.85541379999995],[-48.727203299999985,-26.854629299999942],[-48.72709379999998,-26.854014399999983],[-48.72686569999996,-26.853090399999928],[-48.72669259999998,-26.85250489999993],[-48.72653709999997,-26.852103299999953],[-48.72640629999995,-26.851867599999935],[-48.726167799999985,-26.85125069999998],[-48.72604849999993,-26.850964399999953],[-48.72582609999995,-26.85051999999996],[-48.72560539999995,-26.850125999999932],[-48.72533269999997,-26.849747699999966],[-48.72475879999996,-26.849050199999965],[-48.72439889999998,-26.848680899999977],[-48.723689999999976,-26.848019699999952],[-48.723352999999975,-26.84772449999997],[-48.722568699999954,-26.847048299999983],[-48.72127399999994,-26.845932999999945],[-48.720547899999985,-26.845345599999973],[-48.72026129999995,-26.845109099999945],[-48.71979269999997,-26.84469219999994],[-48.71953629999996,-26.844538099999966],[-48.719438999999966,-26.84470959999993],[-48.71934509999994,-26.844877199999928],[-48.719254999999976,-26.845039799999938],[-48.71916919999995,-26.84519649999993],[-48.719088399999976,-26.84534649999995],[-48.71901289999994,-26.845488599999953],[-48.718943399999944,-26.845621999999935],[-48.71888009999998,-26.845745999999963],[-48.718822699999976,-26.845861499999955],[-48.71877079999996,-26.845969699999955],[-48.718723799999964,-26.84607189999997],[-48.718681199999935,-26.84616909999994],[-48.71864249999993,-26.846262599999932],[-48.718607299999974,-26.846353699999952],[-48.71857509999995,-26.84644339999994],[-48.71854529999996,-26.846532899999943],[-48.71851789999994,-26.846622999999965],[-48.718492899999944,-26.846713999999963],[-48.718470099999934,-26.84680659999998],[-48.718449599999985,-26.84690139999998],[-48.71843119999994,-26.846998799999938],[-48.71841489999997,-26.84709959999998],[-48.71840069999996,-26.847204099999942],[-48.718388499999946,-26.847313199999974],[-48.71837849999997,-26.847427799999934],[-48.718370999999934,-26.847549199999946],[-48.718366199999934,-26.84767869999996],[-48.71836429999996,-26.847817299999974],[-48.71836559999997,-26.84796639999996],[-48.71837029999995,-26.848126999999977],[-48.71837869999996,-26.84830059999996],[-48.71839079999995,-26.84848779999993],[-48.71840649999996,-26.848688299999935],[-48.71842529999998,-26.848901299999966],[-48.71844699999997,-26.849125999999956],[-48.71847109999993,-26.849361599999952],[-48.71849739999993,-26.849607399999968],[-48.718525399999976,-26.849862599999938],[-48.71858549999996,-26.850397699999974],[-48.71861719999998,-26.85067429999998],[-48.718650099999934,-26.850953799999957],[-48.718683899999974,-26.85123049999993],[-48.71868429999995,-26.851233599999944],[-48.718719799999974,-26.851511099999982],[-48.71875659999995,-26.851783999999952],[-48.718794799999955,-26.85204959999993],[-48.71883449999996,-26.852305599999966],[-48.71887579999998,-26.85254989999993],[-48.71891929999998,-26.852783699999975],[-48.71896549999997,-26.85300849999993],[-48.719014999999956,-26.85322579999996],[-48.71906839999997,-26.85343739999996],[-48.719126399999936,-26.85364469999996],[-48.71918939999995,-26.853849499999967],[-48.719258199999956,-26.854053299999975],[-48.71933319999994,-26.85425749999996],[-48.719413799999984,-26.854461899999933],[-48.71949939999996,-26.854666399999928],[-48.719589499999984,-26.85487059999997],[-48.71968339999995,-26.855074099999968],[-48.719780399999934,-26.855276799999956],[-48.71987999999993,-26.855478199999936],[-48.71998139999994,-26.855678099999977],[-48.720084199999974,-26.855875999999967],[-48.72018769999994,-26.85607109999995],[-48.72029159999994,-26.856262699999945],[-48.72039539999997,-26.856449699999928],[-48.72049869999995,-26.856631299999947],[-48.72060099999993,-26.85680659999997],[-48.72070189999994,-26.856974799999932],[-48.72080089999997,-26.85713489999995],[-48.72089799999998,-26.857286899999963],[-48.72099479999997,-26.857433899999933],[-48.72109329999995,-26.857580199999973],[-48.72119559999993,-26.85772959999997],[-48.721419399999945,-26.858054299999935],[-48.72154489999997,-26.85823769999996],[-48.72168229999994,-26.858440499999972],[-48.72183289999998,-26.858665599999938],[-48.72217139999998,-26.85917429999995],[-48.722357099999954,-26.859451899999954],[-48.722552399999984,-26.85974109999995],[-48.72275609999997,-26.860038799999984],[-48.72296729999994,-26.86034209999997],[-48.72318489999998,-26.860647899999947],[-48.72340759999997,-26.860953799999947],[-48.72363309999997,-26.86125839999994],[-48.724083399999984,-26.861860499999977],[-48.72430319999995,-26.86215629999998],[-48.72451639999997,-26.862447499999973],[-48.72472039999997,-26.86273319999998],[-48.72491299999996,-26.863012599999934],[-48.72509199999996,-26.86328489999994],[-48.72525749999994,-26.863549199999966],[-48.72540969999994,-26.86380459999998],[-48.72554889999998,-26.86405039999994],[-48.72567529999998,-26.86428559999996],[-48.72578939999994,-26.864509599999963],[-48.72589149999993,-26.86472129999993],[-48.72598169999998,-26.86492009999995],[-48.72606069999995,-26.86510549999997],[-48.72612929999997,-26.865279199999975],[-48.72618849999998,-26.86544349999997],[-48.726239599999985,-26.86560039999995],[-48.72628359999993,-26.86575229999994],[-48.72632159999995,-26.865901299999962],[-48.726354699999945,-26.866049499999974],[-48.72638389999997,-26.86619909999996],[-48.72641009999995,-26.866351899999984],[-48.726433499999985,-26.866507299999967],[-48.726453799999945,-26.86666459999998],[-48.72647089999998,-26.866822699999943],[-48.72648469999996,-26.866980799999965],[-48.72649489999998,-26.867137899999932],[-48.72650149999998,-26.867293099999983],[-48.72650429999993,-26.867445499999974],[-48.72650299999998,-26.86759479999995],[-48.72649699999994,-26.867743399999938],[-48.72648549999997,-26.867894499999977],[-48.72646759999998,-26.868051199999968],[-48.726442599999984,-26.868216399999937],[-48.72640969999998,-26.868393399999945],[-48.726368099999945,-26.86858509999996],[-48.72631689999997,-26.868794699999967],[-48.72625579999993,-26.869024399999944],[-48.72618479999994,-26.86927289999994],[-48.726104599999985,-26.869537899999955],[-48.72601569999995,-26.869817299999966],[-48.72591859999994,-26.87010879999997],[-48.72581379999997,-26.870410299999946],[-48.72570179999997,-26.870719599999973],[-48.72558319999996,-26.871034399999928],[-48.72545659999997,-26.87135559999996],[-48.72531329999998,-26.871695599999953],[-48.72514259999997,-26.872070099999974],[-48.724934099999984,-26.872494599999982],[-48.724677199999974,-26.87298459999994],[-48.724361199999976,-26.87355569999994],[-48.72397549999994,-26.87422349999997],[-48.723509699999966,-26.87500339999997],[-48.723236499999985,-26.87522809999996],[-48.72297419999995,-26.875451099999964],[-48.72271249999994,-26.875670299999967],[-48.72245339999995,-26.87588349999993],[-48.722198799999944,-26.87608849999998],[-48.72195069999998,-26.876283299999955],[-48.721711099999936,-26.87646559999996],[-48.72148189999996,-26.876633399999946],[-48.721264599999984,-26.876784999999984],[-48.72105879999998,-26.87692089999996],[-48.720797999999945,-26.877079899999956],[-48.720677999999964,-26.87714939999995],[-48.72050109999998,-26.877244099999928],[-48.72033209999995,-26.87732699999998],[-48.72017009999996,-26.877399199999957],[-48.720013999999935,-26.877461599999947],[-48.719862999999975,-26.877515199999948],[-48.719715399999984,-26.87756049999996],[-48.71956979999993,-26.877597899999955],[-48.71942439999998,-26.87762799999996],[-48.719277799999986,-26.87765109999998],[-48.71912819999994,-26.877667799999983],[-48.71897409999997,-26.877678499999945],[-48.718813799999964,-26.877683699999977],[-48.71868039999998,-26.877683699999977],[-48.718470999999965,-26.877679099999966],[-48.71828869999996,-26.877669999999966],[-48.71809949999994,-26.877656899999977],[-48.71790359999994,-26.87763999999993],[-48.71770129999993,-26.877619599999946],[-48.71749299999993,-26.87759619999997],[-48.717278799999974,-26.877569999999935],[-48.717116799999985,-26.877548799999943],[-48.71683419999994,-26.87750929999993],[-48.71660439999994,-26.87747369999994],[-48.71637029999994,-26.87743379999995],[-48.71613189999994,-26.87738879999995],[-48.71588989999998,-26.87733819999994],[-48.715644399999974,-26.87728119999997],[-48.71539599999994,-26.87721739999995],[-48.715144899999984,-26.877146099999948],[-48.71489239999994,-26.87706799999995],[-48.71463929999993,-26.87698359999996],[-48.71438699999993,-26.876893699999982],[-48.71413649999994,-26.87679879999996],[-48.71388889999997,-26.87669969999996],[-48.71364539999996,-26.876596999999947],[-48.71334589999998,-26.876462799999956],[-48.71322769999995,-26.876407599999936],[-48.712940199999935,-26.876264499999934],[-48.712699999999984,-26.876131199999975],[-48.71244679999995,-26.875975899999958],[-48.71217399999995,-26.875792099999956],[-48.71179799999993,-26.87552489999996],[-48.71140239999994,-26.87527799999998],[-48.71103329999994,-26.87500319999998]]]}},{"type":"Feature","id":"420820305000369","properties":{"code":"420820305000369","population":1910,"areaKm2":0.1369871,"densityHabKm2":13942.92,"households":628,"situation":"Urbana","district":"Itajaí","neighborhood":null,"containsReferencePoint":false,"fullyWithinRadius":false,"centroidDistanceM":708,"statisticalYear":2022,"tabularRevision":"2026-05-20","geometryRelease":"2024-11-13"},"geometry":{"type":"Polygon","coordinates":[[[-48.734150599999964,-26.87330959999997],[-48.734416399999986,-26.876296799999977],[-48.73468679999996,-26.87944349999998],[-48.73498039999998,-26.88259809999994],[-48.73550309999996,-26.882559699999945],[-48.73603039999995,-26.88251859999997],[-48.736079099999984,-26.882510399999944],[-48.73630319999995,-26.882488299999977],[-48.736013499999956,-26.87930369999998],[-48.735739699999954,-26.876165399999934],[-48.735526799999946,-26.873253399999953],[-48.735244499999965,-26.87326969999998],[-48.735194699999965,-26.87327259999995],[-48.73467069999998,-26.873288199999934],[-48.734150599999964,-26.87330959999997]]]}},{"type":"Feature","id":"420820305000370","properties":{"code":"420820305000370","population":1829,"areaKm2":0.3102057,"densityHabKm2":5896.09,"households":668,"situation":"Urbana","district":"Itajaí","neighborhood":null,"containsReferencePoint":false,"fullyWithinRadius":false,"centroidDistanceM":593,"statisticalYear":2022,"tabularRevision":"2026-05-20","geometryRelease":"2024-11-13"},"geometry":{"type":"Polygon","coordinates":[[[-48.733519899999976,-26.873329099999978],[-48.73245479999997,-26.87609459999993],[-48.72949859999994,-26.88303929999995],[-48.73153309999998,-26.882868599999938],[-48.733416499999976,-26.882699199999934],[-48.73393569999996,-26.882663799999932],[-48.73445479999998,-26.882632799999953],[-48.73498039999998,-26.88259809999994],[-48.73468679999996,-26.87944349999998],[-48.734416399999986,-26.876296799999977],[-48.734150599999964,-26.87330959999997],[-48.73360739999998,-26.873330899999928],[-48.73355539999994,-26.87333289999998],[-48.733519899999976,-26.873329099999978]]]}},{"type":"Feature","id":"420820305000372","properties":{"code":"420820305000372","population":1105,"areaKm2":3.0921534,"densityHabKm2":357.36,"households":445,"situation":"Urbana","district":"Itajaí","neighborhood":"Salseiros","containsReferencePoint":true,"fullyWithinRadius":false,"centroidDistanceM":616,"statisticalYear":2022,"tabularRevision":"2026-05-20","geometryRelease":"2024-11-13"},"geometry":{"type":"Polygon","coordinates":[[[-48.72016219999995,-26.843486299999938],[-48.71953629999996,-26.844538099999966],[-48.71979269999997,-26.84469219999994],[-48.72026129999995,-26.845109099999945],[-48.720547899999985,-26.845345599999973],[-48.72127399999994,-26.845932999999945],[-48.722568699999954,-26.847048299999983],[-48.723352999999975,-26.84772449999997],[-48.723689999999976,-26.848019699999952],[-48.72439889999998,-26.848680899999977],[-48.72475879999996,-26.849050199999965],[-48.72533269999997,-26.849747699999966],[-48.72560539999995,-26.850125999999932],[-48.72582609999995,-26.85051999999996],[-48.72604849999993,-26.850964399999953],[-48.726167799999985,-26.85125069999998],[-48.72640629999995,-26.851867599999935],[-48.72653709999997,-26.852103299999953],[-48.72669259999998,-26.85250489999993],[-48.72686569999996,-26.853090399999928],[-48.72709379999998,-26.854014399999983],[-48.727203299999985,-26.854629299999942],[-48.72730359999997,-26.85541379999995],[-48.72732549999995,-26.856324299999983],[-48.72749339999996,-26.85738429999998],[-48.72757729999995,-26.85782949999998],[-48.72779259999993,-26.85909659999993],[-48.72789659999995,-26.859636699999953],[-48.728133799999966,-26.86039379999994],[-48.728425699999946,-26.86123859999998],[-48.728839799999946,-26.86247009999994],[-48.729191999999955,-26.863502799999935],[-48.72947659999994,-26.86433299999993],[-48.72976669999997,-26.865186799999947],[-48.72996009999997,-26.86580719999995],[-48.730102399999964,-26.866478599999937],[-48.73017719999996,-26.86709529999996],[-48.73018239999993,-26.86737379999994],[-48.73019179999994,-26.867872499999976],[-48.73012789999996,-26.86856949999998],[-48.72998199999995,-26.86928469999998],[-48.72989199999995,-26.86968109999998],[-48.72950579999997,-26.870658599999956],[-48.72905879999996,-26.87176059999996],[-48.72886889999995,-26.87221299999993],[-48.72878419999995,-26.872424699999954],[-48.72836479999995,-26.87340009999997],[-48.727917599999955,-26.874495499999966],[-48.72742859999994,-26.875666799999976],[-48.72700349999997,-26.876688599999966],[-48.726538199999936,-26.87780879999997],[-48.726129499999956,-26.878772199999958],[-48.72581569999994,-26.879531199999974],[-48.72554569999994,-26.880182499999933],[-48.72514609999996,-26.881133099999943],[-48.72474839999995,-26.882096399999966],[-48.72437619999994,-26.882983099999933],[-48.724075099999936,-26.88371479999995],[-48.72376859999997,-26.884446399999945],[-48.72325589999997,-26.885666999999955],[-48.72284719999993,-26.88664129999995],[-48.72262569999998,-26.88721479999998],[-48.72256629999998,-26.88737079999993],[-48.72231429999994,-26.887932999999975],[-48.722006499999964,-26.888666399999977],[-48.721878199999935,-26.888977799999964],[-48.721568899999966,-26.889730499999928],[-48.72144059999994,-26.89004189999997],[-48.72131209999998,-26.890378099999964],[-48.721528999999975,-26.89041659999998],[-48.721730399999956,-26.89039239999994],[-48.72173219999996,-26.89039189999994],[-48.72197939999995,-26.890322999999967],[-48.72217569999998,-26.890233999999964],[-48.722544899999946,-26.890038999999945],[-48.72417779999995,-26.889685699999973],[-48.72635779999996,-26.889229499999942],[-48.72800529999995,-26.888878399999953],[-48.72978169999993,-26.888492499999984],[-48.73157999999995,-26.888102199999935],[-48.73378509999998,-26.887638699999968],[-48.73464249999995,-26.887466899999936],[-48.73504479999997,-26.88737649999996],[-48.73549299999996,-26.887272699999983],[-48.73601979999995,-26.887130299999967],[-48.736814599999946,-26.88696649999997],[-48.737059399999964,-26.886912499999937],[-48.73741019999994,-26.88683489999994],[-48.737884399999984,-26.886737899999957],[-48.73793639999997,-26.88672719999994],[-48.73750639999997,-26.882362799999953],[-48.73630319999995,-26.882488299999977],[-48.736079099999984,-26.882510399999944],[-48.73603039999995,-26.88251859999997],[-48.73550309999996,-26.882559699999945],[-48.73498039999998,-26.88259809999994],[-48.73445479999998,-26.882632799999953],[-48.73393569999996,-26.882663799999932],[-48.733416499999976,-26.882699199999934],[-48.73153309999998,-26.882868599999938],[-48.72949859999994,-26.88303929999995],[-48.73245479999997,-26.87609459999993],[-48.733519899999976,-26.873329099999978],[-48.734042199999976,-26.872166599999957],[-48.73405279999997,-26.87214309999996],[-48.734069199999965,-26.87210659999994],[-48.734082099999966,-26.872055899999964],[-48.734289899999965,-26.87117449999994],[-48.73429289999996,-26.87116169999996],[-48.73447089999996,-26.87045269999993],[-48.73492889999994,-26.868082699999945],[-48.73514389999997,-26.86695069999996],[-48.735103899999956,-26.865912699999967],[-48.734533899999974,-26.86418969999994],[-48.73441329999997,-26.86380779999996],[-48.73379749999998,-26.86185869999997],[-48.73327889999996,-26.85984229999997],[-48.73317129999998,-26.858746199999928],[-48.73299389999994,-26.85681919999996],[-48.73283059999994,-26.85615219999994],[-48.73272949999995,-26.855895999999973],[-48.73245049999997,-26.855293699999947],[-48.73219719999997,-26.85461799999996],[-48.73127219999998,-26.85281599999996],[-48.73075789999996,-26.851224999999943],[-48.72936089999996,-26.84828269999997],[-48.72888789999996,-26.847280699999942],[-48.72844589999994,-26.846775699999966],[-48.72751489999996,-26.84590529999997],[-48.72749289999996,-26.845884699999942],[-48.72708689999996,-26.84597329999997],[-48.72690959999994,-26.846019099999978],[-48.72671479999997,-26.846097199999974],[-48.72613659999996,-26.84639919999995],[-48.72537659999995,-26.846802999999966],[-48.72496129999996,-26.847038699999928],[-48.724770999999976,-26.846867999999972],[-48.72466159999993,-26.846757399999944],[-48.72426029999997,-26.846188599999948],[-48.72362229999993,-26.845401299999935],[-48.72350289999997,-26.845207399999936],[-48.72343479999995,-26.845047199999954],[-48.723384899999985,-26.844873999999948],[-48.72335529999998,-26.844601799999964],[-48.723328599999945,-26.844434399999955],[-48.72325699999993,-26.844278999999972],[-48.72303079999995,-26.84400899999997],[-48.72285739999995,-26.843798499999934],[-48.722717399999965,-26.84359589999997],[-48.72157949999996,-26.842226599999947],[-48.72228239999998,-26.841095799999948],[-48.722150899999974,-26.84120759999996],[-48.72201599999994,-26.84132479999994],[-48.72187939999998,-26.84144619999995],[-48.72185349999995,-26.841469699999948],[-48.72174279999996,-26.841570599999955],[-48.721607699999936,-26.841696799999966],[-48.72147589999997,-26.841823699999964],[-48.721348999999975,-26.841949799999952],[-48.72122809999996,-26.842074599999933],[-48.72111279999996,-26.84219879999995],[-48.72100199999994,-26.84232359999993],[-48.720894699999974,-26.84245039999996],[-48.72078979999998,-26.842580399999974],[-48.72068639999998,-26.842714799999953],[-48.72058339999995,-26.842854899999963],[-48.72047989999993,-26.843001999999956],[-48.72037489999997,-26.84315689999994],[-48.72026889999995,-26.843318799999963],[-48.72016219999995,-26.843486299999938]]]}},{"type":"Feature","id":"420820305000474","properties":{"code":"420820305000474","population":1057,"areaKm2":1.0587069,"densityHabKm2":998.39,"households":345,"situation":"Urbana","district":"Itajaí","neighborhood":null,"containsReferencePoint":false,"fullyWithinRadius":false,"centroidDistanceM":1115,"statisticalYear":2022,"tabularRevision":"2026-05-20","geometryRelease":"2024-11-13"},"geometry":{"type":"Polygon","coordinates":[[[-48.74360109999998,-26.870751199999972],[-48.741999299999975,-26.87086729999993],[-48.734289899999965,-26.87117449999994],[-48.734082099999966,-26.872055899999964],[-48.734069199999965,-26.87210659999994],[-48.73405279999997,-26.87214309999996],[-48.734042199999976,-26.872166599999957],[-48.733519899999976,-26.873329099999978],[-48.73355539999994,-26.87333289999998],[-48.73360739999998,-26.873330899999928],[-48.734150599999964,-26.87330959999997],[-48.73467069999998,-26.873288199999934],[-48.735194699999965,-26.87327259999995],[-48.735244499999965,-26.87326969999998],[-48.735526799999946,-26.873253399999953],[-48.735739699999954,-26.876165399999934],[-48.736013499999956,-26.87930369999998],[-48.73630319999995,-26.882488299999977],[-48.73750639999997,-26.882362799999953],[-48.73870969999996,-26.88223839999995],[-48.742691899999954,-26.88193579999995],[-48.742723299999966,-26.881933999999944],[-48.742801499999985,-26.881929299999967],[-48.74304879999994,-26.88191459999996],[-48.74360089999993,-26.88185999999996],[-48.74410759999995,-26.88182249999994],[-48.74415299999998,-26.88181919999994],[-48.744180599999936,-26.881816899999933],[-48.74465059999994,-26.88177829999995],[-48.744316599999934,-26.87873129999997],[-48.74404199999998,-26.87566899999996],[-48.74360109999998,-26.870751199999972]]]}},{"type":"Feature","id":"420820305000476","properties":{"code":"420820305000476","population":1424,"areaKm2":0.6807645,"densityHabKm2":2091.77,"households":453,"situation":"Urbana","district":"Itajaí","neighborhood":null,"containsReferencePoint":false,"fullyWithinRadius":false,"centroidDistanceM":1377,"statisticalYear":2022,"tabularRevision":"2026-05-20","geometryRelease":"2024-11-13"},"geometry":{"type":"Polygon","coordinates":[[[-48.74295549999994,-26.86355149999997],[-48.74260779999997,-26.863567399999965],[-48.74236079999997,-26.863590699999975],[-48.74156179999994,-26.863640799999928],[-48.73441329999997,-26.86380779999996],[-48.734533899999974,-26.86418969999994],[-48.735103899999956,-26.865912699999967],[-48.73514389999997,-26.86695069999996],[-48.73492889999994,-26.868082699999945],[-48.73447089999996,-26.87045269999993],[-48.73429289999996,-26.87116169999996],[-48.734289899999965,-26.87117449999994],[-48.741999299999975,-26.87086729999993],[-48.74360109999998,-26.870751199999972],[-48.74295549999994,-26.86355149999997]]]}}]}