{"type":"FeatureCollection","metadata":{"protocolVersion":"areas-land-occupancy-1.0.0","role":"exploratory_product_sketch","authority":"working_assumption","adoptionAllowed":false,"investmentAreaAllowed":false,"legalEnvelopeAdopted":false,"usableAreaM2":null,"approvedHeightM":null,"admissibility":"conditional_pending_diligence","unresolved":["APP municipal possui polígono cartográfico incidente; enquadramento e área jurídica adotada continuam pendentes.","Cheias históricas e suscetibilidade alta atingem o lote inteiro; cotas, drenagem, solo e admissibilidade da ocupação exigem resolução.","Limites cadastral e registral divergem; área GIS não foi adotada como área de registro.","Valas e drenagem têm largura, natureza e faixas jurídicas ainda não qualificadas. Sensibilidades são geométricas.","Testada, entrada pública, meio-fio, veículo de projeto, manobra, acesso de emergência, CNAE, licenciamento e esgoto ainda exigem compatibilização.","Altura de 3m por pavimento é gráfica; pé-direito industrial deve ser dimensionado para a operação."],"slug":"salseiros-itajai-matricula-77931","asOf":"2026-09-30","metricCRS":"EPSG:31982","outputCRS":"EPSG:4326","floorHeightM":3,"defaultFloors":1,"displayMarginM":3,"displayMarginRole":"implantation_hypothesis_not_legal_setback","hydrographicLegalBufferM":null,"containmentVerified":true,"observedExclusionsIntersection":false,"accessVerified":false,"sweptPathVerified":false,"variantId":"galpao-integrado","metrics":{"footprintM2":2879.9999999517786,"footprintRatio":0.27171017437852424,"operationalAreaM2":1802.000356778627,"accessCorridorM2":1350.0003566669652,"operationalAreaIncludesAccessCorridor":true,"operationalAreaExcludingAccessM2":452.00000011166185,"yardAndModuleSpaceM2":271.9999999951701,"occupiedByProgramM2":4682.000356730404,"unoccupiedParcelM2":5917.529110795534,"freeSearchDomainM2":1620.8229530749313,"largestFreeFragmentM2":1620.8229531711686,"legalBuildableAreaM2":null,"permeabilityCompliance":null,"continuousAccessGeometry":true,"accessAdmittedByAuthority":false,"vehicleSweptPathVerified":false,"ledgerAreaM2":10599.529456936005,"outputValidation":{"WGS84Valid":true,"UTMRoundtripValid":true,"maximumCategoryOverlapM2":0.000003210892685344283,"parcelSymmetricDifferenceM2":0.000016542425012622188,"numericContainmentToleranceM":0.000001,"maximumAreaToleranceM2":0.001,"derivedNormalizedFeatureCount":8}},"configurationSha256":"7090711cc2e6d76a5262410fba45ce2ac1ac7a236ec1a6216decababc4b34396","sources":[{"id":"parcel","file":"parcela-municipal.geojson","sha256":"7b2bfea1b6eaf478f9f69f1cce275d3f05c319b75614f93d3314d742c8509d7c"},{"id":"app-municipal-ocupacao-contexto","file":"app-municipal-ocupacao-contexto.geojson","sha256":"4cc547ea5ea5a03030b3bbc760cb35bdb7e6b90a65b45c43aaca517c80986b09"},{"id":"vegetacao","file":"vegetacao.geojson","sha256":"a2132d387dad3e121e36b4b2400fa54b64b95c992a53672bf44e0cff8da2a5a3"},{"id":"massas-agua","file":"massas-agua.geojson","sha256":"06bdbebee768433da5187a4918c1e3ec87f110e4e00f2d61b7429fb8d6cbf19b"},{"id":"app-hidrografia-ima","file":"app-hidrografia-ima.geojson","sha256":"f3023fcd69cfe1b1898b2eb71de5f3f429ef6fd1969beb4661d5e859dbbe1be6"},{"id":"valas","file":"valas.geojson","sha256":"c19282e66c6aafd45cfa4834b5e7083317dac2a6e8074607a80115734a1f4ebe"},{"id":"drenagem","file":"drenagem.geojson","sha256":"520a52d4a022038757056e41ba21aa486d1cde4e653b7766317cbf5da99d9822"}]},"features":[{"type":"Feature","id":"galpao-integrado-1","geometry":{"type":"Polygon","coordinates":[[[-48.72852984136026,-26.876498858742316],[-48.7286904865714,-26.876489431807812],[-48.72880875014257,-26.878110119848568],[-48.7286481026265,-26.878119546772183],[-48.72852984136026,-26.876498858742316]]]},"properties":{"label":"Galpão longitudinal integrado · módulo 1","area_cartografica_m2":2879.9999999388074,"geometryRole":"building_footprint","role":"exploratory_product_sketch","authority":"working_assumption","investmentAreaAllowed":false,"legalEnvelopeAdopted":false,"widthM":16,"lengthM":180,"height_m":3,"heightRole":"standardized_display_height_not_industrial_design","defaultFloors":1,"stage":1}}]}