{"type":"FeatureCollection","metadata":{"protocolVersion":"areas-land-occupancy-1.0.0","role":"exploratory_land_use_layout","authority":"working_assumption","adoptionAllowed":false,"investmentAreaAllowed":false,"legalEnvelopeAdopted":false,"usableAreaM2":null,"approvedHeightM":null,"admissibility":"conditional_pending_diligence","unresolved":["APP municipal possui polígono cartográfico incidente; enquadramento e área jurídica adotada continuam pendentes.","Cheias históricas e suscetibilidade alta atingem o lote inteiro; cotas, drenagem, solo e admissibilidade da ocupação exigem resolução.","Limites cadastral e registral divergem; área GIS não foi adotada como área de registro.","Valas e drenagem têm largura, natureza e faixas jurídicas ainda não qualificadas. Sensibilidades são geométricas.","Testada, entrada pública, meio-fio, veículo de projeto, manobra, acesso de emergência, CNAE, licenciamento e esgoto ainda exigem compatibilização.","Altura de 3m por pavimento é gráfica; pé-direito industrial deve ser dimensionado para a operação."],"slug":"salseiros-itajai-matricula-77931","asOf":"2026-09-30","metricCRS":"EPSG:31982","outputCRS":"EPSG:4326","floorHeightM":3,"defaultFloors":1,"displayMarginM":3,"displayMarginRole":"implantation_hypothesis_not_legal_setback","hydrographicLegalBufferM":null,"containmentVerified":true,"observedExclusionsIntersection":false,"accessVerified":false,"sweptPathVerified":false,"variantId":"patio-operacional","areaRole":"mutually_exclusive_experimental_soil_ledger","configurationSha256":"7090711cc2e6d76a5262410fba45ce2ac1ac7a236ec1a6216decababc4b34396","sources":[{"id":"parcel","file":"parcela-municipal.geojson","sha256":"7b2bfea1b6eaf478f9f69f1cce275d3f05c319b75614f93d3314d742c8509d7c"},{"id":"app-municipal-ocupacao-contexto","file":"app-municipal-ocupacao-contexto.geojson","sha256":"4cc547ea5ea5a03030b3bbc760cb35bdb7e6b90a65b45c43aaca517c80986b09"},{"id":"vegetacao","file":"vegetacao.geojson","sha256":"a2132d387dad3e121e36b4b2400fa54b64b95c992a53672bf44e0cff8da2a5a3"},{"id":"massas-agua","file":"massas-agua.geojson","sha256":"06bdbebee768433da5187a4918c1e3ec87f110e4e00f2d61b7429fb8d6cbf19b"},{"id":"app-hidrografia-ima","file":"app-hidrografia-ima.geojson","sha256":"f3023fcd69cfe1b1898b2eb71de5f3f429ef6fd1969beb4661d5e859dbbe1be6"},{"id":"valas","file":"valas.geojson","sha256":"c19282e66c6aafd45cfa4834b5e7083317dac2a6e8074607a80115734a1f4ebe"},{"id":"drenagem","file":"drenagem.geojson","sha256":"520a52d4a022038757056e41ba21aa486d1cde4e653b7766317cbf5da99d9822"}]},"features":[{"type":"Feature","id":"patio-operacional-projecao","geometry":{"type":"Polygon","coordinates":[[[-48.728795609667856,-26.877930043410732],[-48.72863496240796,-26.877939470335466],[-48.72864810262665,-26.878119546772282],[-48.728808750142655,-26.87811011984876],[-48.728795609667856,-26.877930043410732]]]},"properties":{"label":"Projeção experimental dos edifícios","area_cartografica_m2":320.00000052064985,"geometryRole":"projecao","role":"exploratory_land_use_layout","authority":"working_assumption","investmentAreaAllowed":false,"legalEnvelopeAdopted":false,"useRole":"covered","color":"#454C55","derivedGeometryNormalization":{"method":"metric_set_precision_on_derived_overlay_valid_output","outputGridM":1e-7,"sourceGeometryChanged":false,"sourceBytesChanged":false,"areaDeltaM2":5.279331958263356e-7,"maximumAllowedAreaDeltaM2":0.001,"makeValidAfterTransformApplied":false}}},{"type":"Feature","id":"patio-operacional-corredor","geometry":{"type":"Polygon","coordinates":[[[-48.72889611621894,-26.87834009487704],[-48.72889414512548,-26.878313083411484],[-48.72874762843567,-26.876305231002636],[-48.7286873865808,-26.876308766155287],[-48.72883390219977,-26.878316618559975],[-48.72883390160331,-26.87831661859461],[-48.72883784376087,-26.87837064152459],[-48.728898087311855,-26.87836710634161],[-48.72889611621894,-26.87834009487704]]]},"properties":{"label":"Acesso contínuo · hipótese de 6 m","area_cartografica_m2":1374.0003621911846,"geometryRole":"corredor","role":"exploratory_land_use_layout","authority":"working_assumption","investmentAreaAllowed":false,"legalEnvelopeAdopted":false,"useRole":"access","color":"#8B949E","derivedGeometryNormalization":{"method":"metric_set_precision_on_derived_overlay_valid_output","outputGridM":1e-7,"sourceGeometryChanged":false,"sourceBytesChanged":false,"areaDeltaM2":0.0000055300231451838044,"maximumAllowedAreaDeltaM2":0.001,"makeValidAfterTransformApplied":false}}},{"type":"Feature","id":"patio-operacional-patio","geometry":{"type":"Polygon","coordinates":[[[-48.72880565012105,-26.87792945422197],[-48.7286873865808,-26.876308766155287],[-48.72851670131668,-26.876318782280357],[-48.72863496240796,-26.877939470335466],[-48.728795609667856,-26.877930043410732],[-48.72880565012105,-26.87792945422197]]]},"properties":{"label":"Pátio operacional e intervalos entre módulos","area_cartografica_m2":3059.9999954839764,"geometryRole":"patio","role":"exploratory_land_use_layout","authority":"working_assumption","investmentAreaAllowed":false,"legalEnvelopeAdopted":false,"useRole":"yard","color":"#B0B5BB","derivedGeometryNormalization":{"method":"metric_set_precision_on_derived_overlay_valid_output","outputGridM":1e-7,"sourceGeometryChanged":false,"sourceBytesChanged":false,"areaDeltaM2":-0.000004524983069131849,"maximumAllowedAreaDeltaM2":0.001,"makeValidAfterTransformApplied":false}}},{"type":"Feature","id":"patio-operacional-servico","geometry":{"type":"Polygon","coordinates":[[[-48.72880565012105,-26.87792945422197],[-48.728795609667856,-26.877930043410732],[-48.728808750142655,-26.87811011984876],[-48.72881879061186,-26.878109530660076],[-48.72880565012105,-26.87792945422197]]]},"properties":{"label":"Faixa de serviço dos edifícios","area_cartografica_m2":19.999999748997823,"geometryRole":"servico","role":"exploratory_land_use_layout","authority":"working_assumption","investmentAreaAllowed":false,"legalEnvelopeAdopted":false,"useRole":"access","color":"#8B949E","derivedGeometryNormalization":{"method":"metric_set_precision_on_derived_overlay_valid_output","outputGridM":1e-7,"sourceGeometryChanged":false,"sourceBytesChanged":false,"areaDeltaM2":-2.5586341223515774e-7,"maximumAllowedAreaDeltaM2":0.001,"makeValidAfterTransformApplied":false}}},{"type":"Feature","id":"patio-operacional-observacao-app-municipal-ocupacao-contexto","geometry":{"type":"Polygon","coordinates":[[[-48.72861417479431,-26.876213693587758],[-48.728643810215786,-26.87621926331267],[-48.72874532702911,-26.876222679986768],[-48.72879887554977,-26.87620779178832],[-48.728748525929426,-26.875558332712984],[-48.72844364821301,-26.87543652844],[-48.728432730183805,-26.875476778317566],[-48.72847653410594,-26.876183388743737],[-48.72860372559091,-26.87621155576175],[-48.72861417479431,-26.876213693587758]]]},"properties":{"label":"Reserva por observação · app-municipal-ocupacao-contexto","area_cartografica_m2":2481.7303187374155,"geometryRole":"observacao-app-municipal-ocupacao-contexto","role":"exploratory_land_use_layout","authority":"working_assumption","investmentAreaAllowed":false,"legalEnvelopeAdopted":false,"useRole":"app_municipal","color":"#647F79","derivedGeometryNormalization":{"method":"metric_set_precision_on_derived_overlay_valid_output","outputGridM":1e-7,"sourceGeometryChanged":false,"sourceBytesChanged":false,"areaDeltaM2":8.395563781959936e-7,"maximumAllowedAreaDeltaM2":0.001,"makeValidAfterTransformApplied":false}}},{"type":"Feature","id":"patio-operacional-observacao-vegetacao","geometry":{"type":"MultiPolygon","coordinates":[[[[-48.72883996833955,-26.87837732307168],[-48.72882020113471,-26.878365359980574],[-48.728812300970766,-26.878363761954027],[-48.72880102077716,-26.878368740802305],[-48.72879170268541,-26.878378213828494],[-48.72878918258804,-26.87838909388909],[-48.72879239931689,-26.878401807025956],[-48.7287997706132,-26.8784154605399],[-48.72880848239594,-26.878424214721576],[-48.72885403280694,-26.878424948056267],[-48.728861614070475,-26.87841708664541],[-48.72886630442448,-26.87840235371145],[-48.72886304075202,-26.87839264228189],[-48.728853262426824,-26.878384163538843],[-48.72883996833955,-26.87837732307168]]],[[[-48.728728154636066,-26.878121060535968],[-48.7287246235275,-26.87812935505558],[-48.72871924356873,-26.878137557576707],[-48.728705365914465,-26.878145459209325],[-48.72867039483295,-26.878152213058826],[-48.72864903875445,-26.87816238863864],[-48.728632982805216,-26.87818073451843],[-48.72862191587066,-26.878200967332667],[-48.728623385507916,-26.878221432424237],[-48.72863600433598,-26.87824291608113],[-48.72865579429164,-26.878255802771434],[-48.72869118159832,-26.87825969012448],[-48.72871456830883,-26.878254658684405],[-48.728729832089456,-26.878235717072936],[-48.728737086353064,-26.87822442130058],[-48.728742825732674,-26.878212587673275],[-48.72875350604232,-26.87820197599918],[-48.72877106065158,-26.878190112155444],[-48.72878651353201,-26.87817575442836],[-48.72878867707526,-26.878161567461483],[-48.72878142366044,-26.87815253820657],[-48.72877356143877,-26.8781515598713],[-48.728759721935475,-26.878150155126175],[-48.72875662826521,-26.87814543067547],[-48.72875603012127,-26.878133218992108],[-48.72875161332955,-26.878119624715573],[-48.72873898289983,-26.878115430074136],[-48.728728154636066,-26.878121060535968]]],[[[-48.728907292285065,-26.877999747136606],[-48.72890751754966,-26.878022405035093],[-48.72890726887003,-26.87804410412783],[-48.72891084704295,-26.878060131466665],[-48.72891997583962,-26.878069335260747],[-48.728922581792155,-26.87807977973536],[-48.72892171852177,-26.878099199277333],[-48.728918039961115,-26.878116530400465],[-48.728914719011,-26.878137165738764],[-48.72891305153369,-26.878155987560568],[-48.72891873637911,-26.87817783529945],[-48.72893020645991,-26.878188172315195],[-48.72894060772887,-26.878188596748863],[-48.72894314045279,-26.87818515198433],[-48.72892513927768,-26.877936997809126],[-48.728921295012334,-26.877934147358033],[-48.72891257442757,-26.877935582828634],[-48.728905960562024,-26.877942835992396],[-48.72890171803985,-26.877965220809067],[-48.728907292285065,-26.877999747136606]]],[[[-48.72881665072827,-26.876892144990226],[-48.72880943640179,-26.87691780666244],[-48.728808461628475,-26.876949900268432],[-48.728809049408866,-26.87698618652619],[-48.72881903904892,-26.877023954168937],[-48.72882411039251,-26.877053833805764],[-48.72882505037588,-26.87707587689536],[-48.728824802738814,-26.87709757420162],[-48.728828099434715,-26.87712128591642],[-48.72883135214458,-26.877148002994907],[-48.728834344858775,-26.877175744689417],[-48.72883438149787,-26.87720008533888],[-48.728834820774516,-26.87722472305201],[-48.72884052920612,-26.877250220692815],[-48.72885025793115,-26.8772786915799],[-48.72885516308552,-26.87730359602743],[-48.728857734431266,-26.87733771580146],[-48.72885453634796,-26.877366350654864],[-48.728852544148076,-26.877395877568944],[-48.72885848717468,-26.877416688932776],[-48.72886242670225,-26.877446351830518],[-48.72887010117452,-26.877476348223603],[-48.72887806654903,-26.877519327470196],[-48.72887560600438,-26.87755823597493],[-48.728883571330215,-26.877601217927744],[-48.728883420248046,-26.877627246755107],[-48.72888544824256,-26.877659752327954],[-48.72889125513862,-26.877689587836684],[-48.728889100569056,-26.877724467295664],[-48.728884720937444,-26.8777558744379],[-48.728889231942205,-26.87779082948277],[-48.72889007834515,-26.87782611005134],[-48.72889087412236,-26.877854057375433],[-48.72889842644009,-26.877876071411507],[-48.728907413658085,-26.87788394993345],[-48.72891445749466,-26.87788066003645],[-48.728917810469,-26.87787402586756],[-48.728919484271586,-26.87785904094341],[-48.72884882579065,-26.876884976942257],[-48.728848776524956,-26.876884885086312],[-48.728841472741685,-26.876878881854402],[-48.72883341636,-26.876879615967894],[-48.72882260023067,-26.87688560220514],[-48.72881665072827,-26.876892144990226]]],[[[-48.72879382423884,-26.87643625666623],[-48.72878954048012,-26.876435187871436],[-48.72878433847612,-26.876435249525336],[-48.728778559504306,-26.87643839821869],[-48.7287756459582,-26.876445152259066],[-48.728776744614066,-26.87645568530728],[-48.72878421561105,-26.87648135929235],[-48.728792494013454,-26.87650525579216],[-48.728796020240786,-26.876538173512817],[-48.72879330940517,-26.87657163259419],[-48.72878743195754,-26.87659551085603],[-48.72878055634291,-26.876622201356046],[-48.72878417263722,-26.87664074895976],[-48.72879230927004,-26.87665532805971],[-48.72879761016772,-26.876674983888094],[-48.72879767032877,-26.876692359784155],[-48.72879105685962,-26.87672269950706],[-48.72879218677273,-26.87674193721725],[-48.728797260003944,-26.876760296169834],[-48.72880332607367,-26.876782199677198],[-48.728813744668,-26.876808075373837],[-48.72882203121145,-26.876832018930838],[-48.72883059563027,-26.87684689639962],[-48.72884131431121,-26.876852780364707],[-48.728846310042684,-26.87685029589657],[-48.72882513643502,-26.876558405062273],[-48.72882246181161,-26.87653007317943],[-48.72881770683561,-26.876498665360693],[-48.728813373972024,-26.87646753686956],[-48.72880486586814,-26.876442344364715],[-48.72879382423884,-26.87643625666623]]],[[[-48.72877259549908,-26.876319683891985],[-48.728772888837256,-26.876331990848982],[-48.72877432895035,-26.876344471466517],[-48.728773781876306,-26.87635623065854],[-48.72877078546021,-26.876371005272],[-48.72877646432772,-26.876388567169997],[-48.72878390989365,-26.876399204975353],[-48.72880207300588,-26.876402996725172],[-48.72881338300551,-26.876396376722184],[-48.728811743071546,-26.876373769185875],[-48.728805256760076,-26.87629010267453],[-48.72880459071567,-26.876289803708527],[-48.72879146866339,-26.876295661722935],[-48.728778876590134,-26.876308785785177],[-48.72877259549908,-26.876319683891985]]],[[[-48.72853753991109,-26.876202756560893],[-48.72858557497967,-26.87620791579484],[-48.72858625995072,-26.876207687939747],[-48.72852570372614,-26.876194277550333],[-48.72853753991109,-26.876202756560893]]],[[[-48.72879186023324,-26.876246883209024],[-48.72880046488799,-26.876244998258905],[-48.728801670092544,-26.876243838450883],[-48.72879887554977,-26.87620779178832],[-48.72875842486455,-26.876219038372717],[-48.72876710338833,-26.876233035895247],[-48.728781617744595,-26.876243660111165],[-48.72879186023324,-26.876246883209024]]]]},"properties":{"label":"Reserva por observação · vegetacao","area_cartografica_m2":790.6148381143867,"geometryRole":"observacao-vegetacao","role":"exploratory_land_use_layout","authority":"working_assumption","investmentAreaAllowed":false,"legalEnvelopeAdopted":false,"useRole":"observed_environment","color":"#7C957E","derivedGeometryNormalization":{"method":"metric_set_precision_on_derived_overlay_valid_output","outputGridM":1e-7,"sourceGeometryChanged":false,"sourceBytesChanged":false,"areaDeltaM2":-0.000007326011541408661,"maximumAllowedAreaDeltaM2":0.001,"makeValidAfterTransformApplied":false}}},{"type":"Feature","id":"patio-operacional-folga","geometry":{"type":"MultiPolygon","coordinates":[[[[-48.72885516308552,-26.87730359602743],[-48.72885025793115,-26.8772786915799],[-48.7288462950662,-26.877267094349985],[-48.72885403456125,-26.87737378776552],[-48.72885453634796,-26.877366350654864],[-48.728857734431266,-26.87733771580146],[-48.72885516308552,-26.87730359602743]]],[[[-48.728813744668,-26.876808075373837],[-48.728812834044106,-26.87680581374421],[-48.7288189157642,-26.876889654086348],[-48.72882260023067,-26.87688560220514],[-48.72883341636,-26.876879615967894],[-48.728841472741685,-26.876878881854402],[-48.728848776524956,-26.876884885086312],[-48.72884882579065,-26.876884976942257],[-48.728846310042684,-26.87685029589657],[-48.72884131431121,-26.876852780364707],[-48.72883059563027,-26.87684689639962],[-48.72882203121145,-26.876832018930838],[-48.728813744668,-26.876808075373837]]],[[[-48.72891445749466,-26.87788066003645],[-48.728907413658085,-26.87788394993345],[-48.72889842644009,-26.877876071411507],[-48.72889087412236,-26.877854057375433],[-48.72889007834515,-26.87782611005134],[-48.728889231942205,-26.87779082948277],[-48.728884720937444,-26.8777558744379],[-48.728889100569056,-26.877724467295664],[-48.72889125513862,-26.877689587836684],[-48.72888544824256,-26.877659752327954],[-48.728883420248046,-26.877627246755107],[-48.728883571330215,-26.877601217927744],[-48.72887560600438,-26.87755823597493],[-48.72887806654903,-26.877519327470196],[-48.72887010117452,-26.877476348223603],[-48.72886242670225,-26.877446351830518],[-48.72885848717468,-26.877416688932776],[-48.728856690103484,-26.877410395928134],[-48.728919884157044,-26.87828155871187],[-48.72891989516915,-26.87828170444916],[-48.72892911942695,-26.87839908327502],[-48.72886485767053,-26.87839804872991],[-48.72886630442448,-26.87840235371145],[-48.728861614070475,-26.87841708664541],[-48.72885403280694,-26.878424948056267],[-48.72896154882272,-26.87842667894139],[-48.728950006369885,-26.87827980155467],[-48.72894314045279,-26.87818515198433],[-48.72894060772887,-26.878188596748863],[-48.72893020645991,-26.878188172315195],[-48.72891873637911,-26.87817783529945],[-48.72891305153369,-26.878155987560568],[-48.728914719011,-26.878137165738764],[-48.728918039961115,-26.878116530400465],[-48.72892171852177,-26.878099199277333],[-48.728922581792155,-26.87807977973536],[-48.72891997583962,-26.878069335260747],[-48.72891084704295,-26.878060131466665],[-48.72890726887003,-26.87804410412783],[-48.72890751754966,-26.878022405035093],[-48.728907292285065,-26.877999747136606],[-48.72890171803985,-26.877965220809067],[-48.728905960562024,-26.877942835992396],[-48.72891257442757,-26.877935582828634],[-48.728921295012334,-26.877934147358033],[-48.72892513927768,-26.877936997809126],[-48.728919484271586,-26.87785904094341],[-48.728917810469,-26.87787402586756],[-48.72891445749466,-26.87788066003645]]],[[[-48.7287997706132,-26.8784154605399],[-48.72879239931689,-26.878401807025956],[-48.72879114811838,-26.878396862048845],[-48.72864972148206,-26.878394585055407],[-48.72863807193263,-26.87824426244567],[-48.72863600433598,-26.87824291608113],[-48.728623385507916,-26.878221432424237],[-48.72862191587066,-26.878200967332667],[-48.728632982805216,-26.87818073451843],[-48.72863313521833,-26.87818056036739],[-48.728620340796034,-26.87801546429539],[-48.72850718683894,-26.87619017691418],[-48.72847653410594,-26.876183388743737],[-48.728590213132854,-26.87801715396559],[-48.7286215257083,-26.878421204676325],[-48.72880848239594,-26.878424214721576],[-48.7287997706132,-26.8784154605399]]],[[[-48.72879464813076,-26.87655510908322],[-48.728796020240786,-26.876538173512817],[-48.728792494013454,-26.87650525579216],[-48.72879064455662,-26.876499917136993],[-48.72879464813076,-26.87655510908322]]],[[[-48.728783272982675,-26.876398294992573],[-48.72878595224082,-26.876435230399444],[-48.72878954048012,-26.876435187871436],[-48.72879382423884,-26.87643625666623],[-48.72880486586814,-26.876442344364715],[-48.728813373972024,-26.87646753686956],[-48.72881770683561,-26.876498665360693],[-48.72882246181161,-26.87653007317943],[-48.72882513643502,-26.876558405062273],[-48.72881338300551,-26.876396376722184],[-48.72880207300588,-26.876402996725172],[-48.72878390989365,-26.876399204975353],[-48.728783272982675,-26.876398294992573]]],[[[-48.728781617744595,-26.876243660111165],[-48.72877078324651,-26.87623572947736],[-48.72877673503533,-26.876312501524605],[-48.728778876590134,-26.876308785785177],[-48.72879146866339,-26.876295661722935],[-48.72880459071567,-26.876289803708527],[-48.728805256760076,-26.87629010267453],[-48.728801670092544,-26.876243838450883],[-48.72880046488799,-26.876244998258905],[-48.72879186023324,-26.876246883209024],[-48.728781617744595,-26.876243660111165]]],[[[-48.72842989439745,-26.875431033515756],[-48.728432730183805,-26.875476778317566],[-48.72844364821301,-26.87543652844],[-48.72842989439745,-26.875431033515756]]]]},"properties":{"label":"Folga visual de implantação · sem valor de recuo legal","area_cartografica_m2":1024.3609927234315,"geometryRole":"folga","role":"exploratory_land_use_layout","authority":"working_assumption","investmentAreaAllowed":false,"legalEnvelopeAdopted":false,"useRole":"boundary_margin","color":"#D6D9DD","derivedGeometryNormalization":{"method":"metric_set_precision_on_derived_overlay_valid_output","outputGridM":1e-7,"sourceGeometryChanged":false,"sourceBytesChanged":false,"areaDeltaM2":-0.0000016598280581092695,"maximumAllowedAreaDeltaM2":0.001,"makeValidAfterTransformApplied":false}}},{"type":"Feature","id":"patio-operacional-reserva","geometry":{"type":"Polygon","coordinates":[[[-48.72886485767053,-26.87839804872991],[-48.72892911942695,-26.87839908327502],[-48.72891989516915,-26.87828170444916],[-48.728919884157044,-26.87828155871187],[-48.728856690103484,-26.877410395928134],[-48.728852544148076,-26.877395877568944],[-48.72885403456125,-26.87737378776552],[-48.7288462950662,-26.877267094349985],[-48.72884052920612,-26.877250220692815],[-48.728834820774516,-26.87722472305201],[-48.72883438149787,-26.87720008533888],[-48.728834344858775,-26.877175744689417],[-48.72883135214458,-26.877148002994907],[-48.728828099434715,-26.87712128591642],[-48.728824802738814,-26.87709757420162],[-48.72882505037588,-26.87707587689536],[-48.72882411039251,-26.877053833805764],[-48.72881903904892,-26.877023954168937],[-48.728809049408866,-26.87698618652619],[-48.728808461628475,-26.876949900268432],[-48.72880943640179,-26.87691780666244],[-48.72881665072827,-26.876892144990226],[-48.7288189157642,-26.876889654086348],[-48.728812834044106,-26.87680581374421],[-48.72880332607367,-26.876782199677198],[-48.728797260003944,-26.876760296169834],[-48.72879218677273,-26.87674193721725],[-48.72879105685962,-26.87672269950706],[-48.72879767032877,-26.876692359784155],[-48.72879761016772,-26.876674983888094],[-48.72879230927004,-26.87665532805971],[-48.72878417263722,-26.87664074895976],[-48.72878055634291,-26.876622201356046],[-48.72878743195754,-26.87659551085603],[-48.72879330940517,-26.87657163259419],[-48.72879464813076,-26.87655510908322],[-48.72879064455662,-26.876499917136993],[-48.72878421561105,-26.87648135929235],[-48.728776744614066,-26.87645568530728],[-48.7287756459582,-26.876445152259066],[-48.728778559504306,-26.87643839821869],[-48.72878433847612,-26.876435249525336],[-48.72878595224082,-26.876435230399444],[-48.728783272982675,-26.876398294992573],[-48.72877646432772,-26.876388567169997],[-48.72877078546021,-26.876371005272],[-48.728773781876306,-26.87635623065854],[-48.72877432895035,-26.876344471466517],[-48.728772888837256,-26.876331990848982],[-48.72877259549908,-26.876319683891985],[-48.72877673503533,-26.876312501524605],[-48.72877078324651,-26.87623572947736],[-48.72876710338833,-26.876233035895247],[-48.72875842486455,-26.876219038372717],[-48.72874532702911,-26.876222679986768],[-48.728643810215786,-26.87621926331267],[-48.72861417479431,-26.876213693587758],[-48.72860372559091,-26.87621155576175],[-48.72858625995072,-26.876207687939747],[-48.72858557497967,-26.87620791579484],[-48.72853753991109,-26.876202756560893],[-48.72852570372614,-26.876194277550333],[-48.72850718683894,-26.87619017691418],[-48.728620340796034,-26.87801546429539],[-48.72863313521833,-26.87818056036739],[-48.72864903875445,-26.87816238863864],[-48.72867039483295,-26.878152213058826],[-48.728705365914465,-26.878145459209325],[-48.72871924356873,-26.878137557576707],[-48.7287246235275,-26.87812935505558],[-48.728728154636066,-26.878121060535968],[-48.72873898289983,-26.878115430074136],[-48.72875161332955,-26.878119624715573],[-48.72875603012127,-26.878133218992108],[-48.72875662826521,-26.87814543067547],[-48.728759721935475,-26.878150155126175],[-48.72877356143877,-26.8781515598713],[-48.72878142366044,-26.87815253820657],[-48.72878867707526,-26.878161567461483],[-48.72878651353201,-26.87817575442836],[-48.72877106065158,-26.878190112155444],[-48.72875350604232,-26.87820197599918],[-48.728742825732674,-26.878212587673275],[-48.728737086353064,-26.87822442130058],[-48.728729832089456,-26.878235717072936],[-48.72871456830883,-26.878254658684405],[-48.72869118159832,-26.87825969012448],[-48.72865579429164,-26.878255802771434],[-48.72863807193263,-26.87824426244567],[-48.72864972148206,-26.878394585055407],[-48.72879114811838,-26.878396862048845],[-48.72878918258804,-26.87838909388909],[-48.72879170268541,-26.878378213828494],[-48.72880102077716,-26.878368740802305],[-48.728812300970766,-26.878363761954027],[-48.72882020113471,-26.878365359980574],[-48.72883996833955,-26.87837732307168],[-48.728853262426824,-26.878384163538843],[-48.72886304075202,-26.87839264228189],[-48.72886485767053,-26.87839804872991]],[[-48.72883390219977,-26.878316618559975],[-48.72881879061186,-26.878109530660076],[-48.728808750142655,-26.87811011984876],[-48.72864810262665,-26.878119546772282],[-48.72863496240796,-26.877939470335466],[-48.72851670131668,-26.876318782280357],[-48.7286873865808,-26.876308766155287],[-48.72874762843567,-26.876305231002636],[-48.72889414512548,-26.878313083411484],[-48.72889611621894,-26.87834009487704],[-48.728898087311855,-26.87836710634161],[-48.72883784376087,-26.87837064152459],[-48.72883390160331,-26.87831661859461],[-48.72883390219977,-26.878316618559975]]]},"properties":{"label":"Solo restante · reserva geométrica não qualificada","area_cartografica_m2":1528.822953990365,"geometryRole":"reserva","role":"exploratory_land_use_layout","authority":"working_assumption","investmentAreaAllowed":false,"legalEnvelopeAdopted":false,"useRole":"free","color":"#E7EBE5","derivedGeometryNormalization":{"method":"metric_set_precision_on_derived_overlay_valid_output","outputGridM":1e-7,"sourceGeometryChanged":false,"sourceBytesChanged":false,"areaDeltaM2":9.130026228376664e-7,"maximumAllowedAreaDeltaM2":0.001,"makeValidAfterTransformApplied":false}}}]}