{"type":"FeatureCollection","features":[{"type":"Feature","geometry":{"type":"Polygon","coordinates":[[[-48.72862152570833,-26.878421204676425],[-48.72859021313247,-26.878017153965285],[-48.728429894396974,-26.875431033515472],[-48.72874852592992,-26.87555833271332],[-48.72881174307142,-26.87637376918602],[-48.728950006370056,-26.87827980155471],[-48.72896154882314,-26.87842667894178],[-48.72862152570833,-26.878421204676425]]]},"properties":{"objectid":9024,"setor":"215","quadra":"030","face":"03","lote":"1190","inscricao":"215.030.03.1190","inscrlig":"i215030031190","nomevia":"R. José Montagna","numero":55,"conflito":"n","source":"Prefeitura de Itajaí · Planta cadastral","sourceCRS":"EPSG:3857","outputCRS":"EPSG:4326","authority":"municipal_cadastral_observation","registryAdopted":false,"build":"20260929T070004"}}]}