{"type":"FeatureCollection","features":[{"type":"Feature","geometry":{"type":"LineString","coordinates":[[-48.726940000000006,-26.873419999999996],[-48.727720000000005,-26.871890000000004]]},"properties":{"categoria":"5000","cod":1269,"sourceRow":3,"distanceToParcelM":267.583}},{"type":"Feature","geometry":{"type":"LineString","coordinates":[[-48.72766,-26.874390000000002],[-48.72824000000001,-26.873439999999995]]},"properties":{"categoria":"global","cod":1175,"sourceRow":29,"distanceToParcelM":138.442}},{"type":"Feature","geometry":{"type":"LineString","coordinates":[[-48.72337,-26.877369999999992],[-48.72427,-26.87665],[-48.7255,-26.875340000000005]]},"properties":{"categoria":"5000","cod":1269,"sourceRow":80,"distanceToParcelM":291.368}},{"type":"Feature","geometry":{"type":"LineString","coordinates":[[-48.7255,-26.875340000000005],[-48.72651,-26.87415],[-48.726940000000006,-26.873419999999996]]},"properties":{"categoria":"5000","cod":1269,"sourceRow":81,"distanceToParcelM":237.836}},{"type":"Feature","geometry":{"type":"LineString","coordinates":[[-48.72673,-26.87663],[-48.72766,-26.874390000000002]]},"properties":{"categoria":"global","cod":1175,"sourceRow":87,"distanceToParcelM":111.965}},{"type":"Feature","geometry":{"type":"LineString","coordinates":[[-48.72766,-26.874390000000002],[-48.72807,-26.873359999999995]]},"properties":{"categoria":"global","cod":1175,"sourceRow":88,"distanceToParcelM":138.442}},{"type":"Feature","geometry":{"type":"LineString","coordinates":[[-48.72807,-26.873359999999995],[-48.72893,-26.871470000000006],[-48.7296,-26.86957]]},"properties":{"categoria":"global","cod":1175,"sourceRow":89,"distanceToParcelM":232.297}},{"type":"Feature","geometry":{"type":"LineString","coordinates":[[-48.72792,-26.875150000000005],[-48.72467,-26.882970000000004]]},"properties":{"categoria":"global","cod":1176,"sourceRow":94,"distanceToParcelM":58.363}},{"type":"Feature","geometry":{"type":"LineString","coordinates":[[-48.72176,-26.888989999999996],[-48.72824000000001,-26.873439999999995]]},"properties":{"categoria":"global","cod":1288,"sourceRow":308,"distanceToParcelM":94.914}},{"type":"Feature","geometry":{"type":"LineString","coordinates":[[-48.72998,-26.865900000000003],[-48.73019,-26.867540000000005],[-48.73011,-26.868650000000002],[-48.72987,-26.869739999999997],[-48.72491,-26.88172]]},"properties":{"categoria":"global","cod":1288,"sourceRow":335,"distanceToParcelM":85.342}},{"type":"Feature","geometry":{"type":"LineString","coordinates":[[-48.72918,-26.87222],[-48.72867000000001,-26.873390000000004]]},"properties":{"categoria":"global","cod":1176,"sourceRow":1993,"distanceToParcelM":227.457}},{"type":"Feature","geometry":{"type":"LineString","coordinates":[[-48.72867000000001,-26.873390000000004],[-48.72792,-26.875150000000005]]},"properties":{"categoria":"global","cod":1176,"sourceRow":1994,"distanceToParcelM":59.483}},{"type":"Feature","geometry":{"type":"LineString","coordinates":[[-48.72362,-26.884090000000004],[-48.72673,-26.87663]]},"properties":{"categoria":"global","cod":1175,"sourceRow":2080,"distanceToParcelM":176.06}},{"type":"Feature","geometry":{"type":"LineString","coordinates":[[-48.72824000000001,-26.873439999999995],[-48.72987,-26.869419999999998],[-48.73006,-26.868180000000002],[-48.73007,-26.86706],[-48.72999,-26.866450000000007],[-48.72959,-26.864949999999993],[-48.72789000000001,-26.859990000000003],[-48.72695,-26.855299999999996]]},"properties":{"categoria":"global","cod":1288,"sourceRow":2486,"distanceToParcelM":221.466}},{"type":"Feature","geometry":{"type":"LineString","coordinates":[[-48.72867000000001,-26.873390000000004],[-48.72948,-26.873380000000008]]},"properties":{"categoria":"5000","cod":1347,"sourceRow":2515,"distanceToParcelM":227.457}},{"type":"Feature","geometry":{"type":"LineString","coordinates":[[-48.72948,-26.873380000000008],[-48.73359,-26.873309999999996]]},"properties":{"categoria":"5000","cod":1347,"sourceRow":2516,"distanceToParcelM":250.108}}]}