{"type":"FeatureCollection","features":[{"type":"Feature","geometry":{"type":"Polygon","coordinates":[[[-48.72536,-26.89242100000001],[-48.726251,-26.892264999999995],[-48.726542,-26.892235000000007],[-48.726956,-26.892433000000004],[-48.727896,-26.892200000000006],[-48.728085,-26.892207999999993],[-48.728606,-26.892611999999996],[-48.729837,-26.893109999999997],[-48.731173,-26.892974999999996],[-48.733273,-26.892964999999997],[-48.73467,-26.892663999999993],[-48.734613,-26.89246399999999],[-48.734332,-26.888868000000002],[-48.738857,-26.887886999999996],[-48.738908,-26.88793499999999],[-48.738952,-26.887914000000002],[-48.739351,-26.88776799999999],[-48.739147,-26.886714000000005],[-48.739241,-26.886350999999998],[-48.740733,-26.885957],[-48.745173,-26.886177000000004],[-48.748171,-26.886226999999995],[-48.7489,-26.886360999999994],[-48.753209,-26.887681999999995],[-48.75521,-26.888745],[-48.759189,-26.891351000000004],[-48.766427,-26.892083000000003],[-48.766417,-26.892028999999994],[-48.766548,-26.891514999999995],[-48.766574,-26.890348999999997],[-48.76526,-26.889452999999996],[-48.764187,-26.88846699999999],[-48.76313,-26.887278000000002],[-48.762611,-26.886366999999996],[-48.762039,-26.884498000000004],[-48.761831,-26.882782],[-48.761917,-26.881701999999997],[-48.762444,-26.87965],[-48.762539,-26.877508999999993],[-48.762461,-26.875001999999995],[-48.762063,-26.869879999999995],[-48.761968,-26.867179000000004],[-48.762411,-26.861040999999997],[-48.762509,-26.858475],[-48.762306,-26.857332999999993],[-48.761826,-26.856327000000007],[-48.761301,-26.855807],[-48.76042700000001,-26.85538100000001],[-48.759597,-26.855151],[-48.758492,-26.855099],[-48.757405,-26.855147],[-48.756482,-26.855302999999992],[-48.752500000000005,-26.856619999999996],[-48.749273,-26.857298000000007],[-48.747098,-26.857349999999993],[-48.745717,-26.857239999999994],[-48.744486,-26.856953],[-48.743269,-26.856414000000004],[-48.741332,-26.855198000000005],[-48.739578,-26.853755999999994],[-48.73758,-26.851629000000003],[-48.736358,-26.849956],[-48.735662,-26.848509999999997],[-48.7352,-26.847028],[-48.734981,-26.845766000000005],[-48.734695,-26.842721],[-48.73452100000001,-26.841833],[-48.734176000000005,-26.840940999999997],[-48.733579,-26.840071],[-48.733044,-26.839542000000005],[-48.73224,-26.838928000000003],[-48.731654,-26.838573999999998],[-48.730956,-26.838275000000007],[-48.730147,-26.838080999999995],[-48.729252,-26.837987000000002],[-48.727596,-26.838092],[-48.726428,-26.838476999999994],[-48.724937,-26.839307999999996],[-48.7229,-26.840613],[-48.721476,-26.841823999999995],[-48.720583,-26.842854999999997],[-48.719536,-26.844538000000004],[-48.718681,-26.846169000000003],[-48.718401,-26.847203999999998],[-48.718391,-26.848488],[-48.718757,-26.851783999999995],[-48.719015,-26.853226000000003],[-48.719414,-26.85446200000001],[-48.720084,-26.85587599999999],[-48.720898,-26.857286999999996],[-48.72541,-26.863804999999996],[-48.726129,-26.865279],[-48.72641,-26.866352000000003],[-48.726504,-26.86744500000001],[-48.72641,-26.868393],[-48.726016,-26.869816999999998],[-48.725457,-26.871356000000002],[-48.724677,-26.872985000000003],[-48.72351,-26.875003000000003],[-48.722713,-26.875669999999992],[-48.721482,-26.876632999999995],[-48.720678,-26.877149],[-48.720014,-26.877461999999994],[-48.719278,-26.877651000000007],[-48.718289,-26.877670000000002],[-48.716834,-26.877509000000003],[-48.715644,-26.877280999999993],[-48.714387,-26.876893999999997],[-48.7127,-26.876130999999997],[-48.711033,-26.875002999999992],[-48.709648,-26.873470999999995],[-48.708873000000004,-26.872484],[-48.706985,-26.869397000000003],[-48.705699,-26.867642999999997],[-48.70428,-26.866271],[-48.702324,-26.864910000000005],[-48.701275,-26.864403000000003],[-48.700191,-26.864053999999992],[-48.698266,-26.863654],[-48.696767,-26.863456000000003],[-48.6955,-26.86344999999999],[-48.694672,-26.863550999999994],[-48.693552,-26.863864999999997],[-48.69245,-26.864322999999995],[-48.69106,-26.865214999999992],[-48.689861,-26.866365000000002],[-48.688542,-26.868339999999993],[-48.68820600000001,-26.869038000000003],[-48.688043,-26.869633],[-48.68801,-26.87047],[-48.688182,-26.871270000000003],[-48.688895,-26.873146000000002],[-48.689491,-26.874999999999996],[-48.691119,-26.878155],[-48.691261,-26.878629],[-48.692251,-26.878384999999998],[-48.692639,-26.878113],[-48.692934,-26.877709],[-48.693211,-26.877439999999993],[-48.69352,-26.876779],[-48.693852,-26.876414999999998],[-48.694479,-26.876078],[-48.694883,-26.876044999999998],[-48.695146,-26.876088999999997],[-48.695519,-26.875495],[-48.69578800000001,-26.874177000000007],[-48.695674,-26.873610000000003],[-48.695496,-26.87138999999999],[-48.695227,-26.867649999999998],[-48.696595,-26.867380999999995],[-48.697873,-26.867506],[-48.698357,-26.867531999999997],[-48.699438,-26.867315],[-48.700121,-26.867059999999995],[-48.70053,-26.866989000000004],[-48.701669,-26.867264],[-48.702454,-26.867525000000008],[-48.703473,-26.867932000000007],[-48.703818,-26.868137999999995],[-48.704097,-26.872418000000003],[-48.703718,-26.872597999999996],[-48.703348,-26.872677999999993],[-48.703335,-26.872715000000003],[-48.703347,-26.872931999999995],[-48.703354,-26.87304],[-48.703359,-26.873130000000003],[-48.703364,-26.873220000000003],[-48.70337000000001,-26.873309999999993],[-48.703375,-26.873402999999993],[-48.70338,-26.873493],[-48.703386,-26.873582999999996],[-48.703391,-26.873672999999997],[-48.703396,-26.873763000000004],[-48.703402,-26.873852999999997],[-48.703407,-26.873943],[-48.70341200000001,-26.87403400000001],[-48.703417,-26.874124999999996],[-48.703422,-26.87421700000001],[-48.703427,-26.87430699999999],[-48.703432,-26.874396999999995],[-48.703437,-26.874487],[-48.703441,-26.874576999999995],[-48.703446,-26.874667999999996],[-48.703451,-26.874758000000003],[-48.70345700000001,-26.874847999999997],[-48.703464,-26.874956999999995],[-48.703471,-26.875056],[-48.703483,-26.875237999999996],[-48.703489,-26.875327999999996],[-48.703495,-26.875418],[-48.703501,-26.875507999999996],[-48.703508,-26.875598000000004],[-48.703514,-26.875688000000004],[-48.70352,-26.875778],[-48.703526,-26.875868000000004],[-48.703532,-26.875958],[-48.703536,-26.876049000000002],[-48.70359,-26.877140000000004],[-48.703613,-26.877618000000005],[-48.703654,-26.878178999999985],[-48.704006,-26.877794],[-48.704479,-26.876928],[-48.704807,-26.876333],[-48.705221,-26.876],[-48.705627,-26.87582],[-48.705657,-26.87587600000001],[-48.70566600000001,-26.876041],[-48.705674,-26.876173999999995],[-48.705681,-26.876283],[-48.705689,-26.876420999999997],[-48.705697,-26.876562999999994],[-48.705706,-26.876709],[-48.705714,-26.876854999999995],[-48.705723,-26.877],[-48.705731,-26.877145999999996],[-48.70574,-26.87729],[-48.705748,-26.877433999999994],[-48.705757,-26.877578999999997],[-48.705765,-26.877715],[-48.705769,-26.877791999999996],[-48.705773,-26.877860000000002],[-48.705777,-26.877932000000005],[-48.705782,-26.878002],[-48.70579,-26.878151999999996],[-48.705799,-26.878296000000002],[-48.705805,-26.878405],[-48.705813,-26.878544999999995],[-48.705816,-26.878587000000003],[-48.705824,-26.878732000000003],[-48.705833,-26.878876],[-48.70584100000001,-26.879019999999997],[-48.70585,-26.879165],[-48.705858,-26.879309000000003],[-48.705866,-26.879447999999993],[-48.705874,-26.879571],[-48.705874,-26.879579999999997],[-48.705884000000005,-26.879742],[-48.705892,-26.879885999999996],[-48.7059,-26.880028999999993],[-48.705909,-26.880169999999996],[-48.705917,-26.88031399999999],[-48.705926,-26.880457999999997],[-48.705934,-26.880607],[-48.705939,-26.880687],[-48.705945,-26.880788000000003],[-48.705952,-26.880901000000005],[-48.705962,-26.881081],[-48.705971000000005,-26.881230000000002],[-48.70598,-26.881376999999986],[-48.705988,-26.881521],[-48.705997,-26.88167],[-48.706006,-26.881822],[-48.706015,-26.881974],[-48.706023,-26.882120000000004],[-48.706032,-26.882270999999992],[-48.706041,-26.882418999999995],[-48.706049,-26.882568000000006],[-48.706058000000006,-26.882721999999994],[-48.706071,-26.882929000000004],[-48.706078,-26.883059999999993],[-48.706084,-26.883151999999995],[-48.706095,-26.883342000000006],[-48.706103,-26.883488],[-48.706112,-26.883633999999997],[-48.70612,-26.883775999999997],[-48.706129,-26.883921],[-48.706137,-26.884063999999995],[-48.706146000000004,-26.884212],[-48.706148,-26.884254000000006],[-48.706154,-26.884351],[-48.706163,-26.884495999999995],[-48.706171,-26.884637000000005],[-48.706179,-26.884779000000005],[-48.706188000000004,-26.884926000000004],[-48.706197,-26.885075999999998],[-48.706202,-26.885166000000005],[-48.70621,-26.885313],[-48.706216,-26.885403999999994],[-48.706218,-26.885433000000003],[-48.70622,-26.885478],[-48.706223,-26.885529999999996],[-48.706231,-26.885669],[-48.70624,-26.885812999999995],[-48.706248,-26.885957],[-48.706257,-26.886102],[-48.706265,-26.886248000000002],[-48.706273,-26.886385999999998],[-48.706278,-26.886464],[-48.706298,-26.886460999999997],[-48.70635800000001,-26.88655199999999],[-48.706413,-26.886581999999997],[-48.706409,-26.886634999999995],[-48.706398,-26.886817000000004],[-48.706389,-26.886962],[-48.70638,-26.887107000000004],[-48.706371,-26.887251999999993],[-48.70636,-26.887428],[-48.706655,-26.88744899999999],[-48.706607,-26.888045000000005],[-48.708948,-26.889292000000005],[-48.70895,-26.889434],[-48.709062,-26.891297],[-48.709095,-26.891853000000008],[-48.70917,-26.89299700000001],[-48.709212,-26.89359699999999],[-48.70924,-26.893653000000004],[-48.709186,-26.893999],[-48.709191,-26.894089],[-48.709196,-26.894180000000002],[-48.709201,-26.89427],[-48.709206,-26.89436],[-48.709211,-26.89445],[-48.709216,-26.894539999999996],[-48.70922100000001,-26.894629999999996],[-48.709226,-26.894719999999996],[-48.709231,-26.894809999999993],[-48.709246,-26.895081],[-48.709251,-26.895170999999998],[-48.709256,-26.895260999999994],[-48.709261,-26.895351000000005],[-48.709265,-26.895440999999995],[-48.70927,-26.895530999999995],[-48.709275,-26.895621000000006],[-48.70928,-26.895712000000003],[-48.709309000000005,-26.895709999999994],[-48.709314,-26.895802000000007],[-48.709319,-26.895893],[-48.70930400000001,-26.895893],[-48.709309000000005,-26.895983],[-48.709314,-26.896073000000005],[-48.709326,-26.896342],[-48.709338,-26.896437999999993],[-48.70935000000001,-26.89652299999999],[-48.709357,-26.896608],[-48.709362,-26.896704],[-48.709353,-26.896789999999996],[-48.709358,-26.896877999999994],[-48.709363,-26.896967999999994],[-48.709368,-26.897063],[-48.709373,-26.897152999999996],[-48.709377,-26.897228],[-48.709378,-26.89724],[-48.709383,-26.897331],[-48.709388,-26.897420999999998],[-48.709393000000006,-26.89751100000001],[-48.709398,-26.897600999999998],[-48.709387,-26.897602000000003],[-48.70939200000001,-26.897691999999992],[-48.709395,-26.897757],[-48.709397,-26.897781999999992],[-48.709402,-26.897873],[-48.709407,-26.897962999999997],[-48.709412,-26.898052999999997],[-48.709417,-26.898142999999994],[-48.709421,-26.898232999999994],[-48.709426,-26.898323],[-48.709431,-26.898412999999998],[-48.709436,-26.898504999999997],[-48.709441,-26.898594999999997],[-48.709446,-26.898684999999997],[-48.709451,-26.898777000000003],[-48.709456,-26.898866],[-48.709461,-26.898956000000002],[-48.709466,-26.899045999999995],[-48.709471,-26.899136000000002],[-48.70947600000001,-26.89922599999999],[-48.709481000000004,-26.899315999999992],[-48.709486,-26.899405999999992],[-48.709491,-26.899496000000003],[-48.709496,-26.899586],[-48.709501,-26.899676999999993],[-48.709506,-26.899767],[-48.709511,-26.899856999999997],[-48.709526000000004,-26.900136000000003],[-48.709561,-26.900645000000004],[-48.70969600000001,-26.903125999999993],[-48.709762,-26.904334999999993],[-48.709783,-26.90470899999999],[-48.709824,-26.90546899999999],[-48.707043,-26.903793],[-48.706425,-26.903461999999998],[-48.706282,-26.903400999999995],[-48.706032,-26.903288],[-48.705673,-26.903085999999995],[-48.705425,-26.902882],[-48.705297,-26.902779000000002],[-48.705065,-26.902677999999995],[-48.704831,-26.902502000000002],[-48.704705,-26.902399000000003],[-48.704471,-26.902297],[-48.70447,-26.902273],[-48.704124,-26.902067],[-48.703985,-26.901985],[-48.703649,-26.901777999999997],[-48.703225,-26.901491000000004],[-48.703167,-26.901451000000005],[-48.702838,-26.901299999999996],[-48.70232,-26.901006000000002],[-48.702184,-26.900905999999996],[-48.701831,-26.900708000000005],[-48.701716,-26.90066],[-48.701371,-26.90046],[-48.70126,-26.900376999999995],[-48.700931,-26.900175999999995],[-48.700777,-26.90009],[-48.700413,-26.899901000000003],[-48.700054,-26.899700999999993],[-48.699804,-26.899499],[-48.699335,-26.899255999999994],[-48.698712,-26.898826],[-48.698507,-26.89874799999999],[-48.698433,-26.898682],[-48.69809,-26.898509],[-48.697768,-26.898292],[-48.69766,-26.898217],[-48.696148,-26.897295999999997],[-48.695881,-26.897094],[-48.695494,-26.896897000000003],[-48.695229,-26.896689999999996],[-48.69497,-26.896592000000005],[-48.694624,-26.896413],[-48.694046,-26.8961],[-48.693932,-26.895981999999997],[-48.693686,-26.895862999999995],[-48.693456,-26.895749000000002],[-48.69311,-26.895513000000005],[-48.692876,-26.895391],[-48.692765,-26.895274],[-48.692543,-26.89515099999999],[-48.692319,-26.895044999999993],[-48.691592,-26.894629999999992],[-48.691487,-26.894496000000004],[-48.69128,-26.894376999999988],[-48.690996,-26.894209000000004],[-48.690594,-26.893933],[-48.690239,-26.893761],[-48.690131,-26.893656999999994],[-48.689893,-26.893516999999992],[-48.68946400000001,-26.893241999999994],[-48.689456,-26.893153],[-48.689508000000004,-26.892996000000004],[-48.689241,-26.889496999999995],[-48.689101,-26.887356],[-48.690167,-26.886450999999997],[-48.69089100000001,-26.885637],[-48.691641,-26.88451],[-48.692026,-26.884185999999996],[-48.693346,-26.883642],[-48.693425,-26.88360899999999],[-48.693349,-26.881381000000005],[-48.69398,-26.881351999999996],[-48.693859,-26.878706999999995],[-48.693209,-26.878731],[-48.693203,-26.878522000000004],[-48.693075,-26.878642],[-48.692583000000006,-26.878986000000005],[-48.691365,-26.87929499999999],[-48.69138,-26.879408],[-48.691417,-26.881290999999997],[-48.691189,-26.882284],[-48.690452,-26.883536999999993],[-48.689204,-26.884817],[-48.6875,-26.886090999999997],[-48.686133,-26.88648],[-48.684439000000005,-26.88655],[-48.68263,-26.886527],[-48.682108,-26.886414],[-48.680891,-26.885901999999998],[-48.680139,-26.885248000000004],[-48.679148,-26.884627],[-48.677261,-26.883220999999995],[-48.676326,-26.882646999999995],[-48.675492,-26.882265],[-48.673561,-26.881583999999993],[-48.671756,-26.881201000000004],[-48.670789,-26.881136000000005],[-48.669571,-26.881346999999998],[-48.667483,-26.882195999999997],[-48.666595,-26.882818],[-48.665922,-26.883525],[-48.665492,-26.884214000000007],[-48.664763,-26.885851999999996],[-48.66468,-26.886699],[-48.66498200000001,-26.888225],[-48.665423,-26.888883],[-48.665835,-26.889340000000004],[-48.667079,-26.890342000000004],[-48.669671,-26.892007999999993],[-48.672207,-26.89359900000001],[-48.674654,-26.895587999999996],[-48.675222,-26.894921],[-48.674192,-26.894130000000008],[-48.678608,-26.888776000000004],[-48.679196000000005,-26.888133999999997],[-48.680264,-26.887453],[-48.681674,-26.890371999999996],[-48.681702,-26.891148999999995],[-48.68361300000001,-26.89019500000001],[-48.684147,-26.889676],[-48.687444,-26.892402999999998],[-48.688547,-26.893675999999992],[-48.691157,-26.89512699999999],[-48.692085,-26.895644],[-48.697679,-26.899051999999998],[-48.702465,-26.901940999999997],[-48.709882,-26.906416],[-48.710167,-26.912352999999992],[-48.70796,-26.914628999999994],[-48.705399,-26.914707999999997],[-48.705514,-26.91720299999999],[-48.706544,-26.917561],[-48.705223,-26.918826999999993],[-48.706001,-26.919517],[-48.706493,-26.919929999999997],[-48.706297,-26.920415999999996],[-48.705653,-26.921867],[-48.705419,-26.922393000000003],[-48.705161,-26.922300999999994],[-48.705109,-26.922286999999997],[-48.703132,-26.924232000000003],[-48.702066,-26.925207000000004],[-48.702052,-26.925297000000004],[-48.701968,-26.925376999999997],[-48.701899000000004,-26.925442999999998],[-48.701819,-26.92551999999999],[-48.702064,-26.925725999999997],[-48.703899,-26.92603099999999],[-48.70367400000001,-26.926730999999997],[-48.703323,-26.927588],[-48.703142,-26.928015999999996],[-48.703059,-26.92821199999999],[-48.702995,-26.92836399999999],[-48.702965,-26.928436],[-48.702955,-26.928459],[-48.702891,-26.928612],[-48.702826,-26.928765999999996],[-48.702787,-26.92885899999999],[-48.70272000000001,-26.929010000000005],[-48.702652,-26.929161],[-48.70261,-26.929250999999994],[-48.702591000000005,-26.929291999999997],[-48.702541,-26.929400999999995],[-48.702411,-26.929646999999996],[-48.702384,-26.929698],[-48.702308,-26.929839],[-48.70219800000001,-26.930025],[-48.702149,-26.930108000000004],[-48.702034,-26.93029],[-48.701918,-26.93047],[-48.70185300000001,-26.930562999999996],[-48.701729,-26.930736999999997],[-48.701624,-26.930879],[-48.701602,-26.930908999999996],[-48.701544,-26.930983999999995],[-48.701412,-26.931151],[-48.701291000000005,-26.931302],[-48.701233,-26.931364],[-48.701181,-26.931420999999993],[-48.701041,-26.93158100000001],[-48.700896,-26.931737999999992],[-48.70085600000001,-26.931778999999995],[-48.700829,-26.931805999999998],[-48.70068,-26.931958000000005],[-48.700525,-26.932107000000002],[-48.700219,-26.932481],[-48.7009,-26.932524999999995],[-48.70098600000001,-26.932914999999994],[-48.700906,-26.933141999999997],[-48.700827,-26.93340999999999],[-48.700386,-26.933671999999998],[-48.69877600000001,-26.93341],[-48.698129,-26.933541999999992],[-48.696884,-26.93438599999999],[-48.696151,-26.934802999999995],[-48.695651,-26.934942999999993],[-48.695216,-26.935184],[-48.694988,-26.93581899999999],[-48.695077,-26.936271],[-48.694249,-26.935944],[-48.693369,-26.935359],[-48.693227,-26.935402],[-48.693061,-26.935422000000003],[-48.693,-26.935525000000002],[-48.692917,-26.935609999999993],[-48.69389,-26.936261999999996],[-48.694108,-26.936822],[-48.694032,-26.937234],[-48.693852,-26.937323999999997],[-48.693471,-26.937362],[-48.693055,-26.937300000000004],[-48.692737,-26.937217999999998],[-48.692627,-26.937215999999996],[-48.692513,-26.937367999999996],[-48.691989,-26.937777999999994],[-48.691605,-26.937948],[-48.691214,-26.937841999999996],[-48.690828,-26.937517000000007],[-48.690754,-26.937516],[-48.69058900000001,-26.937755000000006],[-48.690329,-26.937872],[-48.690188,-26.938166999999993],[-48.689517,-26.938585],[-48.688411,-26.938611],[-48.68811800000001,-26.938506999999998],[-48.687861000000005,-26.93847],[-48.687393,-26.938539],[-48.687195,-26.938612999999997],[-48.687181,-26.938711999999995],[-48.687373,-26.938935],[-48.687703,-26.939612000000007],[-48.687864,-26.940153999999996],[-48.687776,-26.940239999999992],[-48.687481,-26.940268999999997],[-48.687282,-26.940386],[-48.687011,-26.94042599999999],[-48.68654,-26.940616],[-48.686,-26.940617999999997],[-48.685936,-26.940717000000003],[-48.685968,-26.940970000000004],[-48.685961,-26.941322000000003],[-48.685006,-26.941802000000003],[-48.685028,-26.941878999999993],[-48.685406,-26.942029],[-48.685687,-26.942120999999993],[-48.685782,-26.94228800000001],[-48.685569,-26.942460000000004],[-48.685192,-26.942916],[-48.685143,-26.943498999999996],[-48.684782,-26.944317999999996],[-48.68427,-26.94472800000001],[-48.681226,-26.94645],[-48.679395,-26.947740999999997],[-48.678184,-26.949295],[-48.677547,-26.950418],[-48.677066,-26.952303000000004],[-48.677014,-26.953623000000004],[-48.677446,-26.95352],[-48.677669,-26.953457],[-48.67761,-26.953335],[-48.677552,-26.953180000000003],[-48.677654,-26.952984000000004],[-48.677839,-26.952931999999997],[-48.677999,-26.952935000000004],[-48.678167,-26.953090999999997],[-48.678149,-26.953366000000003],[-48.677877,-26.953494000000003],[-48.678070000000005,-26.953639999999996],[-48.67849900000001,-26.954285999999996],[-48.678618,-26.955069000000005],[-48.678497,-26.955595000000002],[-48.67802400000001,-26.955874000000005],[-48.678108,-26.955996000000003],[-48.678437,-26.956132999999998],[-48.678701,-26.95582999999999],[-48.678777,-26.955721],[-48.678695,-26.955520999999994],[-48.67880600000001,-26.955490000000005],[-48.678953,-26.955493],[-48.679073,-26.955648999999998],[-48.679034,-26.955758000000003],[-48.679106,-26.955824999999997],[-48.679241000000005,-26.955828000000004],[-48.679341,-26.955729999999996],[-48.679466,-26.955654999999993],[-48.679942,-26.955806],[-48.680272,-26.955867000000005],[-48.680457,-26.955814999999987],[-48.680794,-26.955577999999992],[-48.680987,-26.955163],[-48.68119,-26.954824999999996],[-48.681415,-26.95463100000001],[-48.681272,-26.954408],[-48.68089,-26.953873999999995],[-48.680903,-26.953269000000002],[-48.681028,-26.953117000000006],[-48.681399,-26.953013],[-48.681328,-26.952901000000004],[-48.680648,-26.952505000000002],[-48.680275,-26.952136],[-48.680179,-26.951441],[-48.680377,-26.950761999999987],[-48.680806,-26.950162999999996],[-48.681255,-26.949841],[-48.681563,-26.949791000000005],[-48.681844,-26.94985],[-48.682029,-26.949852999999997],[-48.681986,-26.949511000000005],[-48.682015,-26.949335999999995],[-48.682204,-26.949097],[-48.682425,-26.949067],[-48.682509,-26.94919],[-48.682639,-26.94941199999999],[-48.682808,-26.949558],[-48.683053,-26.949595000000002],[-48.683263,-26.94955399999999],[-48.683402,-26.94935900000001],[-48.683602,-26.949186],[-48.683698,-26.94870299999999],[-48.68387100000001,-26.948617999999993],[-48.684031,-26.948597999999997],[-48.684249,-26.948755999999996],[-48.684807,-26.949723],[-48.684904,-26.950352000000002],[-48.684799,-26.950712999999997],[-48.684839,-26.951131999999994],[-48.68491300000001,-26.951132999999995],[-48.685126,-26.950927999999994],[-48.685203,-26.950753],[-48.685224,-26.950346],[-48.685813,-26.949760999999995],[-48.686481,-26.949541],[-48.686724,-26.949039],[-48.68721000000001,-26.948695],[-48.68769,-26.948031],[-48.688775,-26.947234999999996],[-48.689282,-26.947077999999994],[-48.689572,-26.947292],[-48.689843,-26.947857],[-48.689749,-26.948262999999994],[-48.689217,-26.949046999999997],[-48.689341,-26.949938999999997],[-48.696946,-26.945838],[-48.70228500000001,-26.948985000000004],[-48.704512,-26.949990000000003],[-48.704736,-26.953504000000002],[-48.704789,-26.955740000000006],[-48.703444,-26.95968],[-48.70311000000001,-26.961005999999998],[-48.703164,-26.961941999999993],[-48.71413,-26.961449],[-48.714445,-26.962279999999993],[-48.714869,-26.964421999999995],[-48.714996,-26.964819999999992],[-48.717998,-26.965188000000005],[-48.71744900000001,-26.96497],[-48.716787,-26.964904000000004],[-48.715982,-26.964659999999995],[-48.715742,-26.964380999999996],[-48.715491,-26.964013999999995],[-48.71553,-26.963904],[-48.715391,-26.963484],[-48.715212,-26.963228000000004],[-48.715194,-26.962896999999995],[-48.714999,-26.962850000000003],[-48.715001,-26.962729000000003],[-48.715304,-26.962327000000002],[-48.715783,-26.962313000000005],[-48.716615,-26.96248],[-48.71707,-26.962444000000005],[-48.717934,-26.962842999999996],[-48.718263,-26.962991],[-48.71838,-26.962674],[-48.718294,-26.962034000000003],[-48.717897,-26.961642],[-48.717036,-26.961121999999992],[-48.71635,-26.960418],[-48.715773,-26.959781000000003],[-48.715767,-26.959716],[-48.715921,-26.959619],[-48.716153000000006,-26.959544999999995],[-48.71653,-26.959515999999997],[-48.71688600000001,-26.959525],[-48.717005,-26.959581000000007],[-48.717501,-26.959962999999995],[-48.718406,-26.960769999999993],[-48.71903,-26.961473999999995],[-48.719291,-26.961345999999995],[-48.719493,-26.961668],[-48.71948,-26.961095999999994],[-48.719666,-26.960426999999996],[-48.719827,-26.960363999999995],[-48.718916,-26.959570999999993],[-48.719162,-26.959561999999995],[-48.719543,-26.959513],[-48.719752,-26.959331999999993],[-48.719796,-26.958921999999994],[-48.72014,-26.958839],[-48.72025,-26.965628999999996],[-48.721859,-26.965639999999993],[-48.738744,-26.965764999999998],[-48.73874,-26.965120999999996],[-48.738708,-26.96467],[-48.738661,-26.963994],[-48.738653,-26.96388599999999],[-48.738645,-26.963762999999997],[-48.738613,-26.963313000000003],[-48.738601,-26.963141],[-48.738587,-26.96295],[-48.73855,-26.962420999999996],[-48.738537,-26.962241999999993],[-48.738521,-26.962002000000002],[-48.738508,-26.961803999999997],[-48.738489,-26.961517999999998],[-48.73846000000001,-26.961071000000008],[-48.738431,-26.960622999999995],[-48.738398,-26.960114],[-48.73837,-26.959685999999994],[-48.738343,-26.959269999999993],[-48.738329,-26.959047],[-48.738314,-26.958821999999987],[-48.738299,-26.958597999999995],[-48.738285,-26.958383000000005],[-48.738253,-26.957897000000006],[-48.738224,-26.957446],[-48.738209,-26.957211000000004],[-48.738195,-26.956999000000003],[-48.738165,-26.956544999999988],[-48.739307,-26.956860999999996],[-48.739685,-26.956839000000002],[-48.743215,-26.957177999999992],[-48.744015,-26.957117000000004],[-48.74466,-26.957362999999994],[-48.751049,-26.959547],[-48.752792,-26.960163],[-48.752892,-26.960076999999995],[-48.752072,-26.957686000000006],[-48.754241,-26.955965000000003],[-48.754225,-26.955798999999995],[-48.75418700000001,-26.955402999999997],[-48.75421,-26.955400999999995],[-48.754201,-26.955284],[-48.75418700000001,-26.955174000000003],[-48.75418,-26.955066],[-48.754171,-26.954954000000004],[-48.754162,-26.954844999999995],[-48.75415,-26.954732000000003],[-48.754141,-26.954629000000008],[-48.754132,-26.954522999999995],[-48.754123,-26.95442299999999],[-48.754114,-26.954317],[-48.75410300000001,-26.954211000000004],[-48.754096,-26.954109],[-48.754085,-26.953997000000005],[-48.754076,-26.953867],[-48.754775,-26.953990999999995],[-48.757016,-26.954511000000004],[-48.759177,-26.95532],[-48.762974,-26.957904],[-48.768772,-26.962017],[-48.775637,-26.966851],[-48.77928,-26.969407999999998],[-48.780139,-26.968171999999996],[-48.782475,-26.964812000000002],[-48.771982,-26.957343999999992],[-48.761784,-26.950385999999998],[-48.761296,-26.950795999999997],[-48.759515,-26.949553999999996],[-48.757617,-26.948402000000005],[-48.756655,-26.948478000000005],[-48.753545,-26.947468999999995],[-48.75306100000001,-26.947215999999997],[-48.752979,-26.947165000000002],[-48.752343,-26.946809],[-48.751897,-26.946574999999992],[-48.750754,-26.945971999999998],[-48.750640000000004,-26.945908999999997],[-48.75063600000001,-26.945851],[-48.75050600000001,-26.945809],[-48.749513,-26.945941],[-48.74876,-26.94606599999999],[-48.748486,-26.946085000000004],[-48.748487,-26.946105000000006],[-48.748241,-26.946118999999992],[-48.748178,-26.946120999999998],[-48.745977,-26.945972999999995],[-48.743861,-26.945688],[-48.73981,-26.945231999999997],[-48.736712,-26.944950999999996],[-48.735822000000006,-26.945066999999998],[-48.735183,-26.944952000000004],[-48.72729,-26.940821000000003],[-48.726133,-26.940450000000002],[-48.725441,-26.940461000000003],[-48.723605,-26.940996000000002],[-48.721243,-26.941910000000004],[-48.722288,-26.944210000000005],[-48.716384,-26.942497000000003],[-48.717153,-26.941935],[-48.717255,-26.941166999999997],[-48.714862,-26.940045999999995],[-48.710372,-26.936816],[-48.709963,-26.936545999999993],[-48.709418,-26.936475],[-48.706642,-26.936285999999992],[-48.70433,-26.934788],[-48.703242,-26.93408099999999],[-48.702805,-26.933914999999995],[-48.702186,-26.933750999999997],[-48.701732,-26.933714999999996],[-48.702271,-26.932979999999997],[-48.703884,-26.933775999999998],[-48.704733,-26.934258999999994],[-48.70536,-26.934203999999994],[-48.705556,-26.933881999999993],[-48.70527,-26.932899000000003],[-48.705471,-26.932328000000002],[-48.706713,-26.932074000000004],[-48.707927,-26.931754999999995],[-48.708521,-26.93117700000001],[-48.709141,-26.930769999999995],[-48.709678,-26.930831],[-48.709845,-26.93043799999999],[-48.712949,-26.923131999999995],[-48.716247,-26.915362999999996],[-48.714654,-26.915010999999996],[-48.714049,-26.913971000000004],[-48.712846,-26.913025],[-48.712225,-26.913523999999992],[-48.711953,-26.913297000000004],[-48.712377,-26.912469],[-48.712765,-26.911980000000003],[-48.713103,-26.911829000000004],[-48.713341,-26.911559000000004],[-48.713649,-26.911459999999995],[-48.714562,-26.91233499999999],[-48.714185,-26.912994],[-48.715316,-26.913912999999997],[-48.716705,-26.914301000000005],[-48.717808,-26.911631],[-48.717914,-26.911372000000004],[-48.719433,-26.91216],[-48.720114,-26.91123199999999],[-48.719388,-26.910757000000007],[-48.71944100000001,-26.910288],[-48.719389,-26.910279000000006],[-48.718996,-26.909974999999996],[-48.719005,-26.90981799999999],[-48.719007,-26.909762],[-48.719011,-26.909661999999997],[-48.719015,-26.909547000000003],[-48.719018,-26.909456000000002],[-48.719027,-26.909364],[-48.719036,-26.909253000000003],[-48.719038,-26.90914400000001],[-48.719039,-26.909034999999992],[-48.719044,-26.908919000000008],[-48.719047,-26.908813],[-48.71905300000001,-26.908717],[-48.719056,-26.908621000000007],[-48.719061,-26.908485999999996],[-48.719066,-26.908382000000003],[-48.719071,-26.908299999999997],[-48.719076,-26.908197],[-48.719082,-26.908074000000003],[-48.719086,-26.907964],[-48.719088,-26.907851],[-48.71909,-26.907755999999996],[-48.71909,-26.907678999999998],[-48.719089,-26.907573000000003],[-48.719089,-26.907458999999996],[-48.719091,-26.907348],[-48.719094,-26.907229],[-48.719099,-26.907124999999997],[-48.719104,-26.907021],[-48.719092,-26.907021],[-48.719094,-26.906892],[-48.71909600000001,-26.906755000000004],[-48.719098,-26.906619999999993],[-48.719100000000005,-26.906507999999995],[-48.719108,-26.906315],[-48.719113,-26.906204999999993],[-48.719115,-26.90607899999999],[-48.719117,-26.90591799999999],[-48.719119,-26.905781999999995],[-48.719116,-26.90564300000001],[-48.719104,-26.905510999999997],[-48.719092,-26.905374000000005],[-48.719085,-26.905248000000007],[-48.719077,-26.90512],[-48.719075,-26.905003999999998],[-48.71905300000001,-26.904776999999992],[-48.719041,-26.904659],[-48.719034,-26.904545],[-48.719026,-26.904432],[-48.719013000000004,-26.904322999999998],[-48.719006,-26.904213],[-48.718999,-26.904105],[-48.718993,-26.903996999999997],[-48.718984,-26.903888999999996],[-48.718975,-26.903781000000002],[-48.718967000000006,-26.90367199999999],[-48.718961,-26.903565999999998],[-48.718956,-26.903456],[-48.71895,-26.903346000000003],[-48.718944,-26.903246],[-48.718939,-26.903159],[-48.718926,-26.902921999999997],[-48.71892100000001,-26.90282],[-48.718917,-26.902724999999993],[-48.718911,-26.902580999999994],[-48.718905,-26.902445],[-48.718896,-26.902444999999997],[-48.718894,-26.902335],[-48.718889,-26.902230999999997],[-48.718876,-26.90199],[-48.718866,-26.901821],[-48.718861,-26.90166],[-48.718838000000005,-26.901405],[-48.718845,-26.90136],[-48.718637,-26.901008],[-48.717465,-26.899658],[-48.71898,-26.895866],[-48.720461,-26.892108000000004],[-48.720894,-26.892146000000007],[-48.723874,-26.892304999999997],[-48.724536,-26.892402999999998],[-48.72536,-26.89242100000001]],[[-48.712102,-26.94517],[-48.710715,-26.94707699999999],[-48.710595,-26.947004],[-48.71055900000001,-26.946955],[-48.710437,-26.94685999999999],[-48.710139,-26.946672999999993],[-48.709823,-26.946475999999993],[-48.70969600000001,-26.94640699999999],[-48.70944,-26.94626699999999],[-48.709382,-26.946267999999996],[-48.709378,-26.946179],[-48.709374,-26.946070999999996],[-48.709369,-26.945963],[-48.709364,-26.94585199999999],[-48.709359,-26.945744],[-48.709354,-26.945636],[-48.709349,-26.94552699999999],[-48.709344,-26.945416999999996],[-48.709339,-26.945304999999994],[-48.709334,-26.945193000000003],[-48.70933,-26.945093],[-48.709324,-26.944955999999998],[-48.709316,-26.944844],[-48.709312,-26.944732999999996],[-48.709308,-26.944627999999998],[-48.70930500000001,-26.944517000000005],[-48.709303,-26.944411],[-48.709299,-26.944307999999996],[-48.709292,-26.944184],[-48.709287,-26.944082999999996],[-48.709283,-26.94397199999999],[-48.70928,-26.943866999999994],[-48.709276,-26.943756999999998],[-48.709268,-26.943513999999997],[-48.70926200000001,-26.943407],[-48.709251,-26.943178],[-48.709236,-26.94286],[-48.709219,-26.942509],[-48.709214,-26.942407000000003],[-48.70921,-26.942319000000005],[-48.709206,-26.942227000000003],[-48.709201,-26.94213599999999],[-48.709197,-26.942054],[-48.709193,-26.941962999999994],[-48.709189,-26.941869999999998],[-48.709184,-26.941780000000005],[-48.70918,-26.941686999999998],[-48.70917500000001,-26.941596000000004],[-48.709173,-26.941552],[-48.709171,-26.941504000000002],[-48.709167,-26.941415],[-48.709162,-26.94132799999999],[-48.709159,-26.941246000000003],[-48.709182,-26.941050999999995],[-48.709228,-26.940918],[-48.715104,-26.94382],[-48.71488,-26.94408999999999],[-48.714296,-26.94436899999999],[-48.71321,-26.944365999999995],[-48.712567,-26.944561],[-48.712102,-26.94517]],[[-48.71978800000001,-26.957582],[-48.719168,-26.957465],[-48.718154,-26.95686099999999],[-48.717877,-26.956495000000007],[-48.717307,-26.955565999999997],[-48.71658300000001,-26.957345],[-48.71616,-26.956783],[-48.715524,-26.956372999999992],[-48.715174,-26.956274999999998],[-48.71533,-26.955622],[-48.713517,-26.95618899999999],[-48.713223,-26.956155000000003],[-48.712392,-26.955662000000007],[-48.71211,-26.955032],[-48.712303,-26.954672999999996],[-48.712568,-26.954539999999998],[-48.712905,-26.954027],[-48.715074,-26.954776],[-48.716464,-26.955141],[-48.720084,-26.955864999999992],[-48.72013400000001,-26.957724999999993],[-48.71978800000001,-26.957582]],[[-48.709026,-26.955345999999995],[-48.709345,-26.955415999999996],[-48.709746,-26.955484],[-48.709918,-26.955633999999996],[-48.709995,-26.956166],[-48.709778,-26.956318999999993],[-48.709338,-26.956233],[-48.708925,-26.955770000000005],[-48.708362,-26.955308999999993],[-48.708287,-26.95519],[-48.708352,-26.955109],[-48.708576,-26.955082],[-48.708841,-26.955147],[-48.709026,-26.955345999999995]],[[-48.74551,-26.885025000000002],[-48.74153600000001,-26.884909000000007],[-48.737664,-26.88551699999999],[-48.734208,-26.88619199999999],[-48.734098,-26.884886000000005],[-48.733603,-26.884911999999996],[-48.732822,-26.876412],[-48.733867,-26.876302999999993],[-48.733548,-26.87331500000001],[-48.736441,-26.873169999999995],[-48.736385000000006,-26.872065],[-48.734993,-26.855079999999997],[-48.735209,-26.854919000000006],[-48.735544,-26.854427999999995],[-48.735896,-26.85426],[-48.739882,-26.858107],[-48.74265,-26.85935999999999],[-48.74434,-26.860195999999995],[-48.751864,-26.859724],[-48.759043000000005,-26.859020999999995],[-48.758163,-26.882],[-48.757584,-26.884772999999996],[-48.755642,-26.883925],[-48.753333,-26.882967000000004],[-48.753887000000006,-26.88438399999999],[-48.753704,-26.886034000000006],[-48.75295,-26.88592599999999],[-48.749927,-26.885278000000007],[-48.748537,-26.884969],[-48.747132,-26.884893999999996],[-48.74551,-26.885025000000002]]]},"properties":{"descr":"ZI","nome":"ZI","altura_max":"32 m uso comercial - 7,40 + ático para uso habitacional","altura_emb":"-","ca_total":"3","ca_basico":"1","outorga_on":"2","fator_contr":"0,1","transf_ind":"-","to_base":"80 %","to_torre":"-","permeab":"15 %","recuo_f_torre":"-","recuo_l_f_torre":"-","recuo_emb":"Recuos frontais: 4 m para casos com fachada ativa e 5 metros para os demais casos. - Recuos laterias e fundos: Zero quando não voltado para via pública. - Nas residencias unifamiliares: 4 m frontais e 1,5 m para laterais e fundos quando existirem aberturas. Quando sem aberturas, o recuo pode ser zero","lote_min":"200","test_min":"10","prof_min":"20","usos_permitidos":"H1, CO, CS1, CS2, CS3, CS(entre 750-1000m2), I1, I2, I3, I4, CSA, CSMV","usos_permissiveis":"H2, CSE","usos_proibidos":"-","area":"36408176.54747979","sourceRow":6,"distanceToParcelM":0}}]}