{"type":"FeatureCollection","features":[{"type":"Feature","properties":{"label":"Eixo hídrico traçado no raster municipal, captura 01/09","authority":"diagnostic_non_authoritative","source":"GeoPenha WMS camadas33/34","regulatoryMeaning":"none","appBufferM":null,"capturedAt":"2026-09-01"},"geometry":{"type":"LineString","coordinates":[[-48.611035198,-26.802114615],[-48.610044122,-26.802684399],[-48.609907329,-26.802880711],[-48.609840274,-26.803124902],[-48.609716892,-26.803352336],[-48.609751761,-26.803553434],[-48.60970214,-26.80375932],[-48.609381616,-26.803883809],[-48.609112054,-26.803910143],[-48.609040976,-26.803934084],[-48.608979285,-26.803996328],[-48.608943075,-26.804068149],[-48.608893454,-26.804108847],[-48.608748615,-26.80428361],[-48.608613163,-26.804386552]]}}]}