{"type":"FeatureCollection","features":[{"type":"Feature","properties":{"PROCESSO":"815240/2005","DSProcesso":"815.240/2005","FASE":"AUTORIZAÇÃO DE PESQUISA","SUBS":"SAIBRO","USO":"Construção civil","AREA_HA":204.29,"UF":"SC","ULT_EVENTO":"2481 - AUT PESQ/VENCIMENTO ALVARÁ ALTERADO RESOLUÇÃO 76/2021-COVID EM 01/10/2021","OBJECTID":49738,"layerClass":"815.240/2005"},"geometry":{"type":"Polygon","coordinates":[[[-48.596255830239876,-26.79786663866295],[-48.59600001811392,-26.797866661442495],[-48.59600000194481,-26.79500000018794],[-48.59997956692949,-26.79500021454904],[-48.599980210173364,-26.800574813173004],[-48.59625605574729,-26.800575119327114],[-48.596255830239876,-26.79786663866295]]]}},{"type":"Feature","properties":{"PROCESSO":"815304/2023","DSProcesso":"815.304/2023","FASE":"AUTORIZAÇÃO DE PESQUISA","SUBS":"ÁGUA MINERAL","USO":"Balneoterapia","AREA_HA":23.7,"UF":"SC","ULT_EVENTO":"264 - AUT PESQ/TAH - PAGAMENTO EFETUADO EM 03/03/2026","OBJECTID":203489,"layerClass":"815.304/2023"},"geometry":{"type":"Polygon","coordinates":[[[-48.5966327790772,-26.80057508326777],[-48.59964999605176,-26.80057484386445],[-48.59964999779091,-26.80770555379501],[-48.59663277755253,-26.807705558137183],[-48.5966327790772,-26.80057508326777]]]}},{"type":"Feature","properties":{"PROCESSO":"815699/2007","DSProcesso":"815.699/2007","FASE":"DISPONIBILIDADE","SUBS":"ARGILA","USO":"Industrial","AREA_HA":837.19,"UF":"SC","ULT_EVENTO":"312 - DISPONIB/HABILIT EDITAL DISPONIBI P/PESQUISA PROTOC EM 27/01/2012","OBJECTID":250993,"layerClass":"815.699/2007"},"geometry":{"type":"Polygon","coordinates":[[[-48.59997965739804,-26.795000216083043],[-48.615000003357196,-26.7950000038759],[-48.61500000400842,-26.80900000194894],[-48.59997975959216,-26.809000214562552],[-48.59997965739804,-26.795000216083043]]]}}],"metadata":{"sourceUrl":"https://geo.anm.gov.br/arcgis/rest/services/SIGMINE/dados_anm/MapServer/0","sourceSha256":"a9c2666fdf25ad3a663173341691cce7497247ae1f5b7921ce22a0a70300321b","capturedAt":"2026-10-02","sourceSurveyDate":null,"calculationCrs":"EPSG:31982","outputCrs":"EPSG:4326","clipExtent":[-48.615,-26.809,-48.596,-26.795],"authority":"official_consultive","limitation":"Consulta cartográfica e derivação métrica; nenhum efeito jurídico ou valor de terra adotado."}}