{"type":"FeatureCollection","name":"parcel","features":[{"type":"Feature","properties":{"id":"parcel","label":"Célula cadastral raster anterior (34 vértices, diagnóstico)","area_m2":48264.169463932514,"authority":"diagnostic_non_authoritative","sourceSha256":"ae3bcbaa05e16f62e22b1b349e5ffde4c6a7d951a3ba02ab40845d97570d3ded","derivedAt":"2026-10-02","calculationCrs":"EPSG:31982","noAreaNormalization":true},"geometry":{"type":"Polygon","coordinates":[[[-48.60788762569428,-26.80291901519265],[-48.60844016075134,-26.802851982049653],[-48.60857427120208,-26.80264130619944],[-48.60932528972625,-26.80254554431998],[-48.60934138298035,-26.802535968127582],[-48.60933601856232,-26.80243062995789],[-48.60975444316864,-26.80236359652622],[-48.60982418060302,-26.80268439901882],[-48.609834909439094,-26.802703551377736],[-48.60989391803742,-26.802703551377736],[-48.610478639602654,-26.80264130619944],[-48.611315488815315,-26.80251202764306],[-48.61154079437256,-26.802689187108847],[-48.611728549003594,-26.80286155821536],[-48.611851930618286,-26.802990836373315],[-48.61211478710174,-26.803407398324293],[-48.6115676164627,-26.80350315947603],[-48.61155152320861,-26.80351273558676],[-48.61157298088074,-26.803613284700575],[-48.61092925071717,-26.803699469584316],[-48.61089706420899,-26.803527099751335],[-48.6108648777008,-26.803522311696685],[-48.61072003841401,-26.803551040021578],[-48.610720038413994,-26.80359413249529],[-48.61074149608612,-26.80372340981817],[-48.610548377037055,-26.803747350046983],[-48.609142899513245,-26.803958023842558],[-48.608558177948,-26.80403463239847],[-48.6085206270218,-26.803847898952785],[-48.60850453376771,-26.803809594618233],[-48.60828459262848,-26.80383832287036],[-48.60825240612031,-26.803646801052036],[-48.6081612110138,-26.80338345802372],[-48.60808610916138,-26.803235028047382],[-48.60788762569428,-26.80291901519265]]]}}]}