{"type":"FeatureCollection","name":"r04","features":[{"type":"Feature","properties":{"id":"r04","label":"Cenário R04 reconstruído, não limite cadastral","area_m2":40479.986076533794,"authority":"diagnostic_non_authoritative","sourceSha256":"ae3bcbaa05e16f62e22b1b349e5ffde4c6a7d951a3ba02ab40845d97570d3ded","derivedAt":"2026-10-02","calculationCrs":"EPSG:31982","noAreaNormalization":true},"geometry":{"type":"Polygon","coordinates":[[[-48.608120273396814,-26.80328815294998],[-48.60858077228227,-26.803207057348697],[-48.60842203405593,-26.802875462038582],[-48.608465013082544,-26.802868804021784],[-48.60859538884526,-26.80265709569188],[-48.60934964748708,-26.802554888662286],[-48.609344449671,-26.802445910021934],[-48.609771549105375,-26.802372427499876],[-48.60992389131468,-26.802973374837492],[-48.611585687687835,-26.802729358649636],[-48.6118677232044,-26.803005259595512],[-48.61213585082641,-26.80342969174409],[-48.61158296795617,-26.803532417456747],[-48.61159681972313,-26.8036376148346],[-48.61094507349606,-26.803728819716405],[-48.61091128819897,-26.803555961455217],[-48.61079398662978,-26.80356681404631],[-48.610745884066326,-26.803581584574502],[-48.610773996972114,-26.80375288190365],[-48.60876920796863,-26.804047589813873],[-48.608598928842405,-26.803382337227884],[-48.60819932506172,-26.8034454606269],[-48.608120273396814,-26.80328815294998]]]}}]}