{"type":"FeatureCollection","name":"atlas","features":[{"type":"Feature","properties":{"id":"atlas","label":"BASE Atlas 26/09: nova célula raster, diferente do cadastro anterior","area_m2":48407.27677847445,"authority":"diagnostic_non_authoritative","sourceSha256":"0d5bd7ce6f892b4046a775436b5eee4775e74fa380837ca897a4f47d5cec2b41","derivedAt":"2026-10-02","calculationCrs":"EPSG:31982","noAreaNormalization":true},"geometry":{"type":"Polygon","coordinates":[[[-48.60788762569428,-26.80291901519265],[-48.60843479633331,-26.802851982049646],[-48.6084669828415,-26.802813677378726],[-48.60857427120208,-26.80264130619944],[-48.60931456089021,-26.802545544319965],[-48.60934138298035,-26.802531180031075],[-48.60933065414427,-26.802430629957883],[-48.60975444316865,-26.80235880842245],[-48.60982418060303,-26.802679610928593],[-48.60984027385713,-26.802703551377725],[-48.610473275184624,-26.80264130619944],[-48.611320853233345,-26.802512027643054],[-48.611535429954536,-26.802679610928593],[-48.61169636249542,-26.80282325354766],[-48.61185193061829,-26.80298604829603],[-48.61211478710174,-26.803407398324293],[-48.611562252044685,-26.8035079475315],[-48.61155152320863,-26.803522311696675],[-48.61157298088074,-26.803613284700575],[-48.61092925071717,-26.803699469584316],[-48.610897064208984,-26.803531887805782],[-48.61088633537294,-26.80352231169669],[-48.61075222492218,-26.8035414639141],[-48.610720038413994,-26.803555828075023],[-48.61074149608612,-26.80372340981817],[-48.610290884971626,-26.80378565440256],[-48.61016750335693,-26.80380959461824],[-48.60941112041473,-26.803914931507116],[-48.609116077423096,-26.803962811878833],[-48.60855281352997,-26.804034632398476],[-48.60851526260375,-26.803833534828836],[-48.60849916934966,-26.803809594618222],[-48.60828459262848,-26.803843110911664],[-48.6082524061203,-26.803651589101428],[-48.608220219612114,-26.803541463914094],[-48.608161211013794,-26.803388246084246],[-48.60809147357941,-26.803249392247128],[-48.60788762569428,-26.80291901519265]]]}}]}