{"type":"FeatureCollection","features":[{"type":"Feature","properties":{"classe":"Media","layerClass":"Media"},"geometry":{"type":"Polygon","coordinates":[[[-48.610775758146765,-26.79500022490818],[-48.61082603661524,-26.795000225319278],[-48.610825506084886,-26.795025538176258],[-48.61077524537823,-26.795024689792573],[-48.610775758146765,-26.79500022490818]]]}},{"type":"Feature","properties":{"classe":"Media","layerClass":"Media"},"geometry":{"type":"Polygon","coordinates":[[[-48.61057420257377,-26.795021296079664],[-48.61067472397155,-26.795022992971738],[-48.61063970330889,-26.795082322261855],[-48.61057231166994,-26.795111505816333],[-48.61057420257377,-26.795021296079664]]]}},{"type":"Feature","properties":{"classe":"Media","layerClass":"Media"},"geometry":{"type":"Polygon","coordinates":[[[-48.61045298638245,-26.795181747889423],[-48.61057136621469,-26.795156610684206],[-48.610568529835625,-26.795291925285863],[-48.61036748659053,-26.795288531248307],[-48.61045298638245,-26.795181747889423]]]}},{"type":"Feature","properties":{"classe":"Media","layerClass":"Media"},"geometry":{"type":"Polygon","coordinates":[[[-48.60692931470319,-26.799894809331473],[-48.60651274946268,-26.799665491240805],[-48.6063796260829,-26.799510397859603],[-48.60638435434146,-26.799171783625283],[-48.60643114468152,-26.799443299318938],[-48.60693849648601,-26.799492009368816],[-48.60697834989219,-26.79972327726564],[-48.60725715777236,-26.799748060983614],[-48.60725147600035,-26.80001868935226],[-48.60692931470319,-26.799894809331473]]]}},{"type":"Feature","properties":{"classe":"Media","layerClass":"Media"},"geometry":{"type":"Polygon","coordinates":[[[-48.607322749419524,-26.800051469841932],[-48.60730173877832,-26.800019539132528],[-48.60750278991247,-26.800022938075465],[-48.60748121752733,-26.800098719153176],[-48.607322749419524,-26.800051469841932]]]}},{"type":"Feature","properties":{"classe":"Baixa","layerClass":"Baixa"},"geometry":{"type":"Polygon","coordinates":[[[-48.613363726271494,-26.799735869734977],[-48.61472362460713,-26.799718665421636],[-48.614760631617344,-26.80025919661595],[-48.6135534441162,-26.800280519261754],[-48.61332950998747,-26.800301803127248],[-48.613363726271494,-26.799735869734977]]]}},{"type":"Feature","properties":{"classe":"Baixa","layerClass":"Baixa"},"geometry":{"type":"Polygon","coordinates":[[[-48.6083160294397,-26.80056583284146],[-48.608359601316195,-26.800644014449443],[-48.608293742860276,-26.800667997632043],[-48.6083160294397,-26.80056583284146]]]}},{"type":"Feature","properties":{"classe":"Media","layerClass":"Media"},"geometry":{"type":"Polygon","coordinates":[[[-48.614167169073546,-26.797540541713325],[-48.6139065452108,-26.79749030533862],[-48.61390263508997,-26.795328046513433],[-48.614214657773246,-26.795223635343437],[-48.61420467590301,-26.79500005546964],[-48.615000003357196,-26.7950000038759],[-48.615000010998415,-26.79643618458997],[-48.61499472967584,-26.79643724166767],[-48.615000017298684,-26.796462797007848],[-48.61500002186203,-26.79778323328964],[-48.614214939326764,-26.797784377084266],[-48.614167169073546,-26.797540541713325]]]}},{"type":"Feature","properties":{"classe":"Baixa","layerClass":"Baixa"},"geometry":{"type":"Polygon","coordinates":[[[-48.60918901667697,-26.80113433248975],[-48.60888743667746,-26.801129237364755],[-48.60887697155596,-26.800562551293734],[-48.60867120192649,-26.800518944123105],[-48.60856614997715,-26.80024842073159],[-48.607966851787396,-26.800305053346854],[-48.60782682246535,-26.800200488009857],[-48.6077815989098,-26.80004771179389],[-48.60750278991247,-26.800022938075465],[-48.60730173877832,-26.800019539132528],[-48.60725147600035,-26.80001868935226],[-48.60725715777236,-26.799748060983614],[-48.607236799860075,-26.79954422226199],[-48.60723570350327,-26.798914841577734],[-48.60750229637398,-26.798872801931427],[-48.607561987044654,-26.798376580294068],[-48.60776496832572,-26.798335793006963],[-48.60781992409557,-26.798065094925374],[-48.609430239556666,-26.798048085037813],[-48.60948424523197,-26.79782249084176],[-48.60968722504832,-26.79778170068124],[-48.60975352634357,-26.796969743584725],[-48.61001498895731,-26.79692849664218],[-48.61001412600329,-26.79644306337988],[-48.609765803342256,-26.79638428287523],[-48.60972772315077,-26.795838508250263],[-48.60947573834968,-26.795838863953332],[-48.609431146458746,-26.795560022283546],[-48.60752391898381,-26.795562729662585],[-48.60746615329963,-26.79580397954564],[-48.60641495231462,-26.79586302915589],[-48.606364220953225,-26.795603963264956],[-48.60586153625311,-26.795551243006315],[-48.60581703640421,-26.795323984210636],[-48.60561591706268,-26.795276363810554],[-48.605561381012556,-26.79505777884368],[-48.60532003854288,-26.795000633938425],[-48.60532003493397,-26.795000327056435],[-48.610775758146765,-26.79500022490818],[-48.61077524537823,-26.795024689792573],[-48.61067472397155,-26.795022992971738],[-48.61057420257377,-26.795021296079664],[-48.61057231166994,-26.795111505816333],[-48.61057136621469,-26.795156610684206],[-48.61045298638245,-26.795181747889423],[-48.61036748659053,-26.795288531248307],[-48.610317225784804,-26.795287682694386],[-48.60998676445139,-26.795507355201675],[-48.61002894309791,-26.795802561943507],[-48.610281248672834,-26.795850219216618],[-48.61030686911209,-26.79693527499471],[-48.61055917731442,-26.796982931939432],[-48.61059709199672,-26.797481624629715],[-48.61083954927802,-26.797537796077005],[-48.61089299015302,-26.79775734465075],[-48.61114317385417,-26.797815306481045],[-48.61109027560706,-26.79803139967313],[-48.610886408165,-26.798071355669606],[-48.61083279577835,-26.79829989904339],[-48.61032690598374,-26.79837775561038],[-48.61027378910581,-26.798604186389653],[-48.60976834682412,-26.798639048306548],[-48.60971522868819,-26.79886547878652],[-48.60835992263852,-26.798907393999638],[-48.608301257928815,-26.79915743651439],[-48.608048818354305,-26.799206909102548],[-48.60809261860118,-26.799424635084765],[-48.60859624388933,-26.79947654297246],[-48.60863982834166,-26.799704606868453],[-48.608892141640894,-26.79975226713177],[-48.6089357267533,-26.79998033097485],[-48.60913777797023,-26.800027141646346],[-48.609181363640644,-26.80025520544532],[-48.6094336784472,-26.800302864835118],[-48.60943465647155,-26.801409206685356],[-48.60918333914874,-26.801404961188215],[-48.60918901667697,-26.80113433248975]]]}},{"type":"Feature","properties":{"classe":"Baixa","layerClass":"Baixa"},"geometry":{"type":"Polygon","coordinates":[[[-48.614173805477854,-26.801609383422942],[-48.61414403531105,-26.801417415657195],[-48.61444633159803,-26.80138837322777],[-48.61448513943919,-26.80114861435702],[-48.614699061993605,-26.801121907920567],[-48.61473142702857,-26.801393178686673],[-48.614998597674855,-26.801427993699548],[-48.61500002803116,-26.80143989362111],[-48.615000024349804,-26.801668313509076],[-48.6142059190333,-26.801670206286538],[-48.614173805477854,-26.801609383422942]]]}},{"type":"Feature","properties":{"classe":"Media","layerClass":"Media"},"geometry":{"type":"Polygon","coordinates":[[[-48.61001335264251,-26.80139056381774],[-48.60943465647155,-26.801409206685356],[-48.6094336784472,-26.800302864835118],[-48.609181363640644,-26.80025520544532],[-48.60913777797023,-26.800027141646346],[-48.6089357267533,-26.79998033097485],[-48.608892141640894,-26.79975226713177],[-48.60863982834166,-26.799704606868453],[-48.60859624388933,-26.79947654297246],[-48.60809261860118,-26.799424635084765],[-48.608048818354305,-26.799206909102548],[-48.608301257928815,-26.79915743651439],[-48.60835992263852,-26.798907393999638],[-48.60971522868819,-26.79886547878652],[-48.60976834682412,-26.798639048306548],[-48.61027378910581,-26.798604186389653],[-48.61032690598374,-26.79837775561038],[-48.61083279577835,-26.79829989904339],[-48.610886408165,-26.798071355669606],[-48.61109027560706,-26.79803139967313],[-48.61114317385417,-26.797815306481045],[-48.61089299015302,-26.79775734465075],[-48.61083954927802,-26.797537796077005],[-48.61059709199672,-26.797481624629715],[-48.61055917731442,-26.796982931939432],[-48.61030686911209,-26.79693527499471],[-48.610281248672834,-26.795850219216618],[-48.61002894309791,-26.795802561943507],[-48.60998676445139,-26.795507355201675],[-48.610317225784804,-26.795287682694386],[-48.61033618269298,-26.79553702456454],[-48.61053822691827,-26.795583832776487],[-48.61058018666265,-26.79667579726056],[-48.61081709441935,-26.796671376977244],[-48.61085974607974,-26.796944608677823],[-48.61111205461512,-26.79699226465283],[-48.611155643629196,-26.797220328117955],[-48.61135769121695,-26.797267135369683],[-48.61143168813461,-26.79749144352556],[-48.61165805396254,-26.797543894792067],[-48.61168215915278,-26.798582829762815],[-48.61088139482006,-26.798626672209746],[-48.61082100112895,-26.798884149856956],[-48.61001390260544,-26.798913928982465],[-48.61001913831371,-26.799139964300643],[-48.609708469462426,-26.79918777072953],[-48.609746224004915,-26.799732276315364],[-48.61028266590394,-26.799722267300094],[-48.610320388113514,-26.801086617129453],[-48.61054229703664,-26.801138029647934],[-48.61061629419964,-26.801362338178926],[-48.6114195428724,-26.801422074353138],[-48.61136511614425,-26.801651515510304],[-48.61005789053116,-26.801675937875306],[-48.61001335264251,-26.80139056381774]]]}},{"type":"Feature","properties":{"classe":"Baixa","layerClass":"Baixa"},"geometry":{"type":"Polygon","coordinates":[[[-48.60855692442971,-26.801459143570224],[-48.6084611975424,-26.80087122682117],[-48.60861286764587,-26.800834209843025],[-48.60865842704956,-26.801105713267432],[-48.60888743667746,-26.801129237364755],[-48.60890519482848,-26.801648841285168],[-48.608648484016044,-26.801688343009637],[-48.60859536176532,-26.80191477273748],[-48.60856881964613,-26.80193602730215],[-48.60855692442971,-26.801459143570224]]]}},{"type":"Feature","properties":{"classe":"Baixa","layerClass":"Baixa"},"geometry":{"type":"Polygon","coordinates":[[[-48.59600002423067,-26.802090230624305],[-48.59601027293933,-26.80209683890716],[-48.596042768465324,-26.802220127715568],[-48.59600001447455,-26.802219401439334],[-48.59600002423067,-26.802090230624305]]]}},{"type":"Feature","properties":{"classe":"Baixa","layerClass":"Baixa"},"geometry":{"type":"Polygon","coordinates":[[[-48.60884372201488,-26.802985443559113],[-48.60868208736724,-26.802611088805147],[-48.60865704247872,-26.802524087897798],[-48.608886523368454,-26.802502282761427],[-48.608897951458665,-26.803024486898128],[-48.60884372201488,-26.802985443559113]]]}},{"type":"Feature","properties":{"classe":"Media","layerClass":"Media"},"geometry":{"type":"Polygon","coordinates":[[[-48.59600001447455,-26.802219401439334],[-48.596042768465324,-26.802220127715568],[-48.5961200799559,-26.802256887668708],[-48.59614044076749,-26.802357148379134],[-48.59613187753799,-26.802763087465433],[-48.59600001607965,-26.80276084750149],[-48.59600001447455,-26.802219401439334]]]}},{"type":"Feature","properties":{"classe":"Baixa","layerClass":"Baixa"},"geometry":{"type":"Polygon","coordinates":[[[-48.608848154326175,-26.80336896362814],[-48.60889132631957,-26.803340220227078],[-48.60888564754221,-26.80361084878234],[-48.608734854290795,-26.803608300759866],[-48.608848154326175,-26.80336896362814]]]}},{"type":"Feature","properties":{"classe":"Baixa","layerClass":"Baixa"},"geometry":{"type":"Polygon","coordinates":[[[-48.59636511406608,-26.803447213781233],[-48.59628055094018,-26.802981397180695],[-48.59600002255576,-26.802817266286375],[-48.59600001607965,-26.80276084750149],[-48.59613187753799,-26.802763087465433],[-48.59614044076749,-26.802357148379134],[-48.5961679342348,-26.802377666948853],[-48.59635863164316,-26.802671825074917],[-48.59690856925313,-26.803021932982396],[-48.59693038802991,-26.80304737245422],[-48.59667906940214,-26.803043104523713],[-48.59667241042182,-26.80335883502096],[-48.5964210911552,-26.803354566586815],[-48.59641823697524,-26.803489879627346],[-48.59636511406608,-26.803447213781233]]]}},{"type":"Feature","properties":{"classe":"Media","layerClass":"Media"},"geometry":{"type":"Polygon","coordinates":[[[-48.612273735783376,-26.80387155136911],[-48.61222053675412,-26.80359992883563],[-48.61197689303581,-26.80364003594115],[-48.61192288851093,-26.803865631064703],[-48.61114282080487,-26.803874574034566],[-48.611123401348046,-26.803625630637885],[-48.61087200030927,-26.803577168114856],[-48.610827488516456,-26.803349910258042],[-48.610527010215414,-26.803291982455036],[-48.610600272594354,-26.802228152288468],[-48.61139334916957,-26.80222701162547],[-48.61144778178679,-26.8025049179736],[-48.61164938772313,-26.802504629716946],[-48.611700344201864,-26.80282319434842],[-48.6119455745544,-26.80278311440893],[-48.61200052353831,-26.802512414340327],[-48.612252995886685,-26.802461672154614],[-48.61220825567561,-26.802245194611377],[-48.61195888882644,-26.802186156049633],[-48.6119580207501,-26.801701137709866],[-48.612237978186265,-26.801656968608146],[-48.61223406136079,-26.799471890115694],[-48.612468824401574,-26.799407880674707],[-48.61253336117737,-26.799138244309148],[-48.61277514331043,-26.79918654120293],[-48.61282723511182,-26.799452459727863],[-48.61498197135327,-26.799449334067248],[-48.615000024955535,-26.79956212468958],[-48.61500002803116,-26.80143989362111],[-48.614998597674855,-26.801427993699548],[-48.61473142702857,-26.801393178686673],[-48.614699061993605,-26.801121907920567],[-48.61448513943919,-26.80114861435702],[-48.61444633159803,-26.80138837322777],[-48.61414403531105,-26.801417415657195],[-48.614173805477854,-26.801609383422942],[-48.6142059190333,-26.801670206286538],[-48.615000024349804,-26.801668313509076],[-48.61500002218038,-26.802238298468186],[-48.613918095615176,-26.80218469481696],[-48.61387357797903,-26.801957437511074],[-48.6136262620146,-26.80189888766863],[-48.61362538363221,-26.801413056622444],[-48.61393527557685,-26.801364172880778],[-48.61388151045246,-26.801101177344027],[-48.613386937000634,-26.80113705616189],[-48.61333293682073,-26.801362652160822],[-48.612779020977115,-26.801401850567835],[-48.612822985012784,-26.80167174699281],[-48.61334581759025,-26.801670990642773],[-48.613348268861806,-26.8030323820162],[-48.61309499596447,-26.803072328735833],[-48.61304099398172,-26.80329792446775],[-48.612838004974,-26.80333871884048],[-48.61278305739376,-26.803609419311325],[-48.61252980318707,-26.80364936525649],[-48.61246526296604,-26.803919001293405],[-48.612273735783376,-26.80387155136911]],[[-48.6135534441162,-26.800280519261754],[-48.614760631617344,-26.80025919661595],[-48.61472362460713,-26.799718665421636],[-48.613363726271494,-26.799735869734977],[-48.61332950998747,-26.800301803127248],[-48.6135534441162,-26.800280519261754]]]}},{"type":"Feature","properties":{"classe":"Baixa","layerClass":"Baixa"},"geometry":{"type":"Polygon","coordinates":[[[-48.607975207332736,-26.803866186607088],[-48.608075736336275,-26.80386788586097],[-48.60807478953465,-26.80391299059069],[-48.607974260491424,-26.8039112913335],[-48.607975207332736,-26.803866186607088]]]}},{"type":"Feature","properties":{"classe":"Media","layerClass":"Media"},"geometry":{"type":"Polygon","coordinates":[[[-48.60753560926386,-26.80442321541322],[-48.607491104025776,-26.80419595695136],[-48.607465933123095,-26.804173422230868],[-48.60748970434004,-26.8041495852829],[-48.60789487741082,-26.8039312825401],[-48.607974260491424,-26.8039112913335],[-48.60807478953465,-26.80391299059069],[-48.608075736336275,-26.80386788586097],[-48.60810680049299,-26.803829092719997],[-48.60848972757041,-26.80374777772228],[-48.608734854290795,-26.803608300759866],[-48.60888564754221,-26.80361084878234],[-48.60889132631957,-26.803340220227078],[-48.6089378460373,-26.803183083614854],[-48.608897951458665,-26.803024486898128],[-48.608886523368454,-26.802502282761427],[-48.60865704247872,-26.802524087897798],[-48.60861255136584,-26.802408684247673],[-48.60856881964613,-26.80193602730215],[-48.60859536176532,-26.80191477273748],[-48.608648484016044,-26.801688343009637],[-48.60890519482848,-26.801648841285168],[-48.60888743667746,-26.801129237364755],[-48.60918901667697,-26.80113433248975],[-48.60918333914874,-26.801404961188215],[-48.609185721253255,-26.802465790625426],[-48.60945660992263,-26.80251800534859],[-48.60945949096194,-26.80414570433897],[-48.607841951177164,-26.80420188830456],[-48.607777389556574,-26.804471521254357],[-48.60753560926386,-26.80442321541322]]]}},{"type":"Feature","properties":{"classe":"Media","layerClass":"Media"},"geometry":{"type":"Polygon","coordinates":[[[-48.61500002429181,-26.804801082761617],[-48.61500002027144,-26.80502180493497],[-48.61499054505358,-26.805022376194696],[-48.61500002429181,-26.804801082761617]]]}},{"type":"Feature","properties":{"classe":"Media","layerClass":"Media"},"geometry":{"type":"Polygon","coordinates":[[[-48.607558019136334,-26.805555285051515],[-48.607492521184334,-26.805301889693116],[-48.607716455689165,-26.80528060662009],[-48.60972989369062,-26.80527451896044],[-48.6097497225884,-26.805565639140024],[-48.6081649560205,-26.805560554976108],[-48.60758736907608,-26.805574217596682],[-48.607558019136334,-26.805555285051515]]]}},{"type":"Feature","properties":{"classe":"Media","layerClass":"Media"},"geometry":{"type":"Polygon","coordinates":[[[-48.613936454056756,-26.80611051803281],[-48.61389854751355,-26.80556752637353],[-48.61364714066713,-26.80551906843419],[-48.61359961550215,-26.805276464410944],[-48.61221934223737,-26.80529148791024],[-48.61224791544413,-26.805037028461555],[-48.61305808513968,-26.80496930780126],[-48.61310851718099,-26.804740394204522],[-48.613864265819686,-26.804712179103017],[-48.613902281618344,-26.805254270229042],[-48.614157395436834,-26.805299532467952],[-48.61416268962561,-26.806136441909402],[-48.613936454056756,-26.80611051803281]]]}},{"type":"Feature","properties":{"classe":"Baixa","layerClass":"Baixa"},"geometry":{"type":"Polygon","coordinates":[[[-48.61195667185949,-26.80582850495737],[-48.6121074684028,-26.80583104974305],[-48.61202140778921,-26.806118749569382],[-48.61197545104573,-26.806351835097352],[-48.61194532755396,-26.80636976307991],[-48.61195667185949,-26.80582850495737]]]}},{"type":"Feature","properties":{"classe":"Media","layerClass":"Media"},"geometry":{"type":"Polygon","coordinates":[[[-48.59712360914598,-26.80691012669562],[-48.59707810531485,-26.806860885519267],[-48.59668714902155,-26.80665743923672],[-48.5965685469015,-26.80636013822834],[-48.59679805060572,-26.806189392820578],[-48.59695631627377,-26.805748112941124],[-48.596932163133914,-26.80539465285994],[-48.59684231205209,-26.80470163715184],[-48.59674774857832,-26.804177255962955],[-48.59644003682655,-26.803559600115797],[-48.59641823697524,-26.803489879627346],[-48.5964210911552,-26.803354566586815],[-48.59667241042182,-26.80335883502096],[-48.59667906940214,-26.803043104523713],[-48.59693038802991,-26.80304737245422],[-48.59697779123218,-26.803082775826557],[-48.59716202744334,-26.80357619282081],[-48.59727361918122,-26.80452211715253],[-48.59732575410921,-26.80469847606086],[-48.597388239042125,-26.805061232084523],[-48.59730403741566,-26.80542407836781],[-48.597106430857785,-26.805814399374235],[-48.59715190429159,-26.80620220624763],[-48.59748013327635,-26.80662185950351],[-48.597506785051834,-26.806711921353813],[-48.59750202952999,-26.806937443159672],[-48.59715017131336,-26.80693146855316],[-48.59712360914598,-26.80691012669562]]]}},{"type":"Feature","properties":{"classe":"Media","layerClass":"Media"},"geometry":{"type":"Polygon","coordinates":[[[-48.61112878169422,-26.806942550434396],[-48.61082718590289,-26.80693745842324],[-48.61083853579612,-26.806396200786555],[-48.61058720722231,-26.806391957053002],[-48.61059288264452,-26.806121328267054],[-48.610291289143966,-26.806116235258198],[-48.61029696520086,-26.805845606520293],[-48.60974404530128,-26.805836267780286],[-48.6097497225884,-26.805565639140024],[-48.60997822444661,-26.805548607817837],[-48.61002955068685,-26.80532052293213],[-48.61027699750196,-26.80528292917837],[-48.61033224675499,-26.80558701963203],[-48.61083276070845,-26.805559419696593],[-48.61087358612843,-26.805834452345447],[-48.61111829365052,-26.80588870389742],[-48.611177001132084,-26.806142606004386],[-48.61170408767753,-26.806113547585927],[-48.61166730564023,-26.805576431512648],[-48.61193951876194,-26.805536599749605],[-48.6119908411242,-26.805308513890445],[-48.61221934223737,-26.80529148791024],[-48.61221178040984,-26.805652326760335],[-48.612167714843636,-26.805795202697922],[-48.6121074684028,-26.80583104974305],[-48.61195667185949,-26.80582850495737],[-48.61194532755396,-26.80636976307991],[-48.61192308360122,-26.806624951862048],[-48.61188844400751,-26.80668464863464],[-48.61168738048094,-26.806681255140745],[-48.611676034477824,-26.807222513091585],[-48.61112310734234,-26.807213179295037],[-48.61112878169422,-26.806942550434396]]]}},{"type":"Feature","properties":{"classe":"Baixa","layerClass":"Baixa"},"geometry":{"type":"Polygon","coordinates":[[[-48.59747115960872,-26.8073626490548],[-48.59721989308112,-26.807048359527762],[-48.59715017131336,-26.80693146855316],[-48.59750202952999,-26.806937443159672],[-48.597506785051834,-26.806711921353813],[-48.59757129068752,-26.806767621409115],[-48.59786877668482,-26.80712062329059],[-48.59788608486546,-26.807801253254365],[-48.597483958037564,-26.807794425949275],[-48.59747115960872,-26.8073626490548]]]}},{"type":"Feature","properties":{"classe":"Alta","layerClass":"Alta"},"geometry":{"type":"Polygon","coordinates":[[[-48.61447663992157,-26.80891212746099],[-48.61498829768267,-26.80888471038231],[-48.61499190799635,-26.809000009869077],[-48.614459713557835,-26.809000044289295],[-48.61447663992157,-26.80891212746099]]]}},{"type":"Feature","properties":{"classe":"Media","layerClass":"Media"},"geometry":{"type":"Polygon","coordinates":[[[-48.613927118177294,-26.808914069656467],[-48.61362657455128,-26.80885847481561],[-48.61359507115186,-26.808096295064736],[-48.6138977284603,-26.808050872920948],[-48.6139539620276,-26.807806183413998],[-48.61446637644043,-26.80774335186102],[-48.61445608460639,-26.807516825148678],[-48.614714270113744,-26.807478069259876],[-48.61477774377865,-26.806713546746007],[-48.61419352897828,-26.80665438962447],[-48.61416268962561,-26.806136441909402],[-48.614440800964836,-26.80610025129591],[-48.614484633404274,-26.806419895365956],[-48.61498946362693,-26.8063616262923],[-48.61500002258049,-26.806863223296972],[-48.61500000400842,-26.80900000194894],[-48.61499190799635,-26.809000009869077],[-48.61498829768267,-26.80888471038231],[-48.61447663992157,-26.80891212746099],[-48.614459713557835,-26.809000044289295],[-48.613917693714725,-26.809000073446438],[-48.613927118177294,-26.808914069656467]]]}},{"type":"Feature","properties":{"classe":"Baixa","layerClass":"Baixa"},"geometry":{"type":"Polygon","coordinates":[[[-48.61116254787623,-26.80890542289015],[-48.611365547376316,-26.80886463165049],[-48.6114193301599,-26.80864981716541],[-48.61116914940623,-26.808590591380632],[-48.61112463587723,-26.808363333594794],[-48.610877607786364,-26.808314944419713],[-48.61081261240121,-26.808855296114025],[-48.61061922380028,-26.80889624884878],[-48.610566027409824,-26.808624625974883],[-48.61031461582604,-26.808576161774997],[-48.610283142960604,-26.80668587366099],[-48.610053701591745,-26.806631562601844],[-48.61000919076211,-26.80640430460606],[-48.609757784322625,-26.80635583974338],[-48.60971327415381,-26.806128581692747],[-48.60921054085907,-26.806075870219793],[-48.60916386048591,-26.805837547871214],[-48.60810978208709,-26.805839045990055],[-48.60762060689026,-26.805821806432853],[-48.60758736907608,-26.805574217596682],[-48.6081649560205,-26.805560554976108],[-48.6097497225884,-26.805565639140024],[-48.60974404530128,-26.805836267780286],[-48.61029696520086,-26.805845606520293],[-48.610291289143966,-26.806116235258198],[-48.61059288264452,-26.806121328267054],[-48.61058720722231,-26.806391957053002],[-48.61083853579612,-26.806396200786555],[-48.61082718590289,-26.80693745842324],[-48.61112878169422,-26.806942550434396],[-48.61112310734234,-26.807213179295037],[-48.611676034477824,-26.807222513091585],[-48.61168738048094,-26.806681255140745],[-48.61188844400751,-26.80668464863464],[-48.6119285547907,-26.806899865928546],[-48.612087171948865,-26.807065311551153],[-48.61249044434266,-26.807239713217378],[-48.61255919583198,-26.807529429802354],[-48.61305453713345,-26.807495201622885],[-48.613104876486894,-26.807358152564255],[-48.6133033868307,-26.807280418925636],[-48.613465444431256,-26.8069485453077],[-48.61342256926437,-26.80624821477092],[-48.61316790604867,-26.805618716260476],[-48.61279511179149,-26.805375570444625],[-48.612605060641876,-26.805362184892974],[-48.61221178040984,-26.805652326760335],[-48.61221934223737,-26.80529148791024],[-48.61359961550215,-26.805276464410944],[-48.61364714066713,-26.80551906843419],[-48.61389854751355,-26.80556752637353],[-48.613936454056756,-26.80611051803281],[-48.61416268962561,-26.806136441909402],[-48.61419352897828,-26.80665438962447],[-48.61477774377865,-26.806713546746007],[-48.614714270113744,-26.807478069259876],[-48.61445608460639,-26.807516825148678],[-48.61446637644043,-26.80774335186102],[-48.6139539620276,-26.807806183413998],[-48.6138977284603,-26.808050872920948],[-48.61359507115186,-26.808096295064736],[-48.61362657455128,-26.80885847481561],[-48.613927118177294,-26.808914069656467],[-48.613917693714725,-26.809000073446438],[-48.612242184947554,-26.80900016223076],[-48.6122442513153,-26.808901572082355],[-48.611942650094974,-26.808896482104377],[-48.6119404764383,-26.809000178097275],[-48.611157764423794,-26.80900021305552],[-48.61116254787623,-26.80890542289015]]]}},{"type":"Feature","properties":{"classe":"Alta","layerClass":"Alta"},"geometry":{"type":"MultiPolygon","coordinates":[[[[-48.61498946362693,-26.8063616262923],[-48.614484633404274,-26.806419895365956],[-48.614440800964836,-26.80610025129591],[-48.61416268962561,-26.806136441909402],[-48.614157395436834,-26.805299532467952],[-48.613902281618344,-26.805254270229042],[-48.613864265819686,-26.804712179103017],[-48.61310851718099,-26.804740394204522],[-48.61305808513968,-26.80496930780126],[-48.61224791544413,-26.805037028461555],[-48.61221934223737,-26.80529148791024],[-48.6119908411242,-26.805308513890445],[-48.61193951876194,-26.805536599749605],[-48.61166730564023,-26.805576431512648],[-48.61170408767753,-26.806113547585927],[-48.611177001132084,-26.806142606004386],[-48.61111829365052,-26.80588870389742],[-48.61087358612843,-26.805834452345447],[-48.61083276070845,-26.805559419696593],[-48.61033224675499,-26.80558701963203],[-48.61027699750196,-26.80528292917837],[-48.61002955068685,-26.80532052293213],[-48.60997822444661,-26.805548607817837],[-48.6097497225884,-26.805565639140024],[-48.60972989369062,-26.80527451896044],[-48.607716455689165,-26.80528060662009],[-48.607492521184334,-26.805301889693116],[-48.607469051626076,-26.804976091308177],[-48.6071767293446,-26.80474134877721],[-48.60713528450374,-26.80444405147682],[-48.60728079970392,-26.804220042121308],[-48.607465933123095,-26.804173422230868],[-48.607491104025776,-26.80419595695136],[-48.60753560926386,-26.80442321541322],[-48.607777389556574,-26.804471521254357],[-48.607841951177164,-26.80420188830456],[-48.60945949096194,-26.80414570433897],[-48.60945660992263,-26.80251800534859],[-48.609185721253255,-26.802465790625426],[-48.60918333914874,-26.801404961188215],[-48.60943465647155,-26.801409206685356],[-48.61001335264251,-26.80139056381774],[-48.61005789053116,-26.801675937875306],[-48.61136511614425,-26.801651515510304],[-48.6114195428724,-26.801422074353138],[-48.61061629419964,-26.801362338178926],[-48.61054229703664,-26.801138029647934],[-48.610320388113514,-26.801086617129453],[-48.61028266590394,-26.799722267300094],[-48.609746224004915,-26.799732276315364],[-48.609708469462426,-26.79918777072953],[-48.61001913831371,-26.799139964300643],[-48.61001390260544,-26.798913928982465],[-48.61082100112895,-26.798884149856956],[-48.61088139482006,-26.798626672209746],[-48.61168215915278,-26.798582829762815],[-48.61165805396254,-26.797543894792067],[-48.61143168813461,-26.79749144352556],[-48.61135769121695,-26.797267135369683],[-48.611155643629196,-26.797220328117955],[-48.61111205461512,-26.79699226465283],[-48.61085974607974,-26.796944608677823],[-48.61081709441935,-26.796671376977244],[-48.61058018666265,-26.79667579726056],[-48.61053822691827,-26.795583832776487],[-48.61033618269298,-26.79553702456454],[-48.610317225784804,-26.795287682694386],[-48.61036748659053,-26.795288531248307],[-48.610568529835625,-26.795291925285863],[-48.61057136621469,-26.795156610684206],[-48.61057231166994,-26.795111505816333],[-48.61063970330889,-26.795082322261855],[-48.61067472397155,-26.795022992971738],[-48.61077524537823,-26.795024689792573],[-48.610825506084886,-26.795025538176258],[-48.61082603661524,-26.795000225319278],[-48.61420467590301,-26.79500005546964],[-48.614214657773246,-26.795223635343437],[-48.61390263508997,-26.795328046513433],[-48.6139065452108,-26.79749030533862],[-48.614167169073546,-26.797540541713325],[-48.614214939326764,-26.797784377084266],[-48.61500002186203,-26.79778323328964],[-48.615000024955535,-26.79956212468958],[-48.61498197135327,-26.799449334067248],[-48.61282723511182,-26.799452459727863],[-48.61277514331043,-26.79918654120293],[-48.61253336117737,-26.799138244309148],[-48.612468824401574,-26.799407880674707],[-48.61223406136079,-26.799471890115694],[-48.612237978186265,-26.801656968608146],[-48.6119580207501,-26.801701137709866],[-48.61195888882644,-26.802186156049633],[-48.61220825567561,-26.802245194611377],[-48.612252995886685,-26.802461672154614],[-48.61200052353831,-26.802512414340327],[-48.6119455745544,-26.80278311440893],[-48.611700344201864,-26.80282319434842],[-48.61164938772313,-26.802504629716946],[-48.61144778178679,-26.8025049179736],[-48.61139334916957,-26.80222701162547],[-48.610600272594354,-26.802228152288468],[-48.610527010215414,-26.803291982455036],[-48.610827488516456,-26.803349910258042],[-48.61087200030927,-26.803577168114856],[-48.611123401348046,-26.803625630637885],[-48.61114282080487,-26.803874574034566],[-48.61192288851093,-26.803865631064703],[-48.61197689303581,-26.80364003594115],[-48.61222053675412,-26.80359992883563],[-48.612273735783376,-26.80387155136911],[-48.61246526296604,-26.803919001293405],[-48.61252980318707,-26.80364936525649],[-48.61278305739376,-26.803609419311325],[-48.612838004974,-26.80333871884048],[-48.61304099398172,-26.80329792446775],[-48.61309499596447,-26.803072328735833],[-48.613348268861806,-26.8030323820162],[-48.61334581759025,-26.801670990642773],[-48.612822985012784,-26.80167174699281],[-48.612779020977115,-26.801401850567835],[-48.61333293682073,-26.801362652160822],[-48.613386937000634,-26.80113705616189],[-48.61388151045246,-26.801101177344027],[-48.61393527557685,-26.801364172880778],[-48.61362538363221,-26.801413056622444],[-48.6136262620146,-26.80189888766863],[-48.61387357797903,-26.801957437511074],[-48.613918095615176,-26.80218469481696],[-48.61500002218038,-26.802238298468186],[-48.61500002429181,-26.804801082761617],[-48.61499054505358,-26.805022376194696],[-48.61500002027144,-26.80502180493497],[-48.61500002258049,-26.806863223296972],[-48.61498946362693,-26.8063616262923]]],[[[-48.61499472967584,-26.79643724166767],[-48.615000010998415,-26.79643618458997],[-48.615000017298684,-26.796462797007848],[-48.61499472967584,-26.79643724166767]]]]}},{"type":"Feature","properties":{"classe":"Media","layerClass":"Media"},"geometry":{"type":"Polygon","coordinates":[[[-48.59726806623501,-26.808599021597214],[-48.597453579494314,-26.80808805069505],[-48.597483958037564,-26.807794425949275],[-48.59788608486546,-26.807801253254365],[-48.59790696066567,-26.80804890415434],[-48.597940064294775,-26.808773117899943],[-48.59797920633021,-26.809000124911673],[-48.59749386207633,-26.809000096596588],[-48.59726806623501,-26.808599021597214]]]}}],"metadata":{"sourceUrl":"https://geo.ima.sc.gov.br/server/rest/services/Susceptibilidade_SGB_DCSC_MIL1/MapServer/3","sourceSha256":"4048e0d697b46b98847405315a508686f145720ee78b7a9c53a7f53fbfb372a5","capturedAt":"2026-10-02","sourceSurveyDate":"2015, revisão abril/2016","calculationCrs":"EPSG:31982","outputCrs":"EPSG:4326","clipExtent":[-48.615,-26.809,-48.596,-26.795],"authority":"official_consultive","limitation":"Consulta cartográfica e derivação métrica; nenhum efeito jurídico ou valor de terra adotado."}}