{"type":"FeatureCollection","features":[{"type":"Feature","properties":{"classe":"Baixa","layerClass":"Baixa"},"geometry":{"type":"Polygon","coordinates":[[[-48.59792642711285,-26.799264086020028],[-48.597306125814455,-26.79900297508826],[-48.59703427690744,-26.79865266414211],[-48.5977237356956,-26.79813967959128],[-48.59986513367811,-26.798330701904565],[-48.60113144558031,-26.797724533970186],[-48.60184975864802,-26.79812693738383],[-48.60034812302479,-26.799244272927666],[-48.60002561562456,-26.79986128807573],[-48.59909317792176,-26.80009605438306],[-48.59864897075525,-26.80023395046791],[-48.59792642711285,-26.799264086020028]]]}},{"type":"Feature","properties":{"classe":"Alta","layerClass":"Alta"},"geometry":{"type":"MultiPolygon","coordinates":[[[[-48.60218798386868,-26.79663918342791],[-48.60223241702163,-26.79595814498007],[-48.60078601457975,-26.795315319449962],[-48.60029585706264,-26.795000225964703],[-48.60326495875968,-26.795000304480943],[-48.6037142521845,-26.795798362989554],[-48.603150613153176,-26.7969080738591],[-48.60219460332314,-26.796925865874012],[-48.60218798386868,-26.79663918342791]]],[[[-48.59600000194481,-26.79500000018794],[-48.59851681390119,-26.795000148404643],[-48.598226088733114,-26.79601032034697],[-48.59600001118051,-26.79621112585414],[-48.59600000194481,-26.79500000018794]]]]}},{"type":"Feature","properties":{"classe":"Baixa","layerClass":"Baixa"},"geometry":{"type":"MultiPolygon","coordinates":[[[[-48.609516473673814,-26.808810392572447],[-48.609479075244195,-26.80798634337581],[-48.60740330267138,-26.806751860260935],[-48.606946627105515,-26.806275441944823],[-48.60530920707761,-26.805904264184925],[-48.604274239761565,-26.804381312910692],[-48.604779881791444,-26.803188065399056],[-48.60514493069983,-26.8021941076556],[-48.605067971634796,-26.800497187882534],[-48.604239394943896,-26.79938877978541],[-48.60362035475655,-26.798115597314304],[-48.60426505365525,-26.7965940866883],[-48.604625382935694,-26.79537723372404],[-48.604343639675164,-26.7950003188072],[-48.615000003357196,-26.7950000038759],[-48.61500000400842,-26.80900000194894],[-48.60949986803455,-26.809000268848987],[-48.609516473673814,-26.808810392572447]]],[[[-48.597265674377006,-26.808595127690033],[-48.597494910195714,-26.808005676603603],[-48.59751673439533,-26.807427142056124],[-48.59705828000564,-26.80683769080118],[-48.59668714358199,-26.806684872404997],[-48.59656707592745,-26.806357406013824],[-48.596785381688676,-26.806215500955688],[-48.59696003784397,-26.80573520850865],[-48.59690545700551,-26.805189424422014],[-48.59685087726202,-26.804752795857446],[-48.596730810965134,-26.804119683311946],[-48.596359673901034,-26.8034429071224],[-48.59628326213002,-26.802984448258176],[-48.59600002014886,-26.802816427004164],[-48.596000017007334,-26.80179025133087],[-48.59614577509948,-26.802177686445557],[-48.59937001225173,-26.802572230036937],[-48.59992751735585,-26.803583354131757],[-48.59828290289711,-26.804483219977055],[-48.59778840988839,-26.805681737285067],[-48.5991112120772,-26.807451399240456],[-48.59861378463343,-26.809000157679417],[-48.597494284504144,-26.80900009474525],[-48.597265674377006,-26.808595127690033]]]]}},{"type":"Feature","properties":{"classe":"Alta","layerClass":"Alta"},"geometry":{"type":"Polygon","coordinates":[[[-48.602176408911646,-26.799172132747646],[-48.60288252928197,-26.798839065765364],[-48.6035980333877,-26.800415895242505],[-48.60286534088643,-26.800576154401377],[-48.602176408911646,-26.799172132747646]]]}},{"type":"Feature","properties":{"classe":"Alta","layerClass":"Alta"},"geometry":{"type":"Polygon","coordinates":[[[-48.60386965497626,-26.801602276765156],[-48.604131060439705,-26.802071355144957],[-48.603735930008355,-26.802215241734103],[-48.60386965497626,-26.801602276765156]]]}},{"type":"Feature","properties":{"classe":"Alta","layerClass":"Alta"},"geometry":{"type":"Polygon","coordinates":[[[-48.600993334372504,-26.80205293282575],[-48.59975256418694,-26.80157247599368],[-48.59910521611586,-26.80097908776571],[-48.60138218779543,-26.800703803101225],[-48.60175685478201,-26.802152442446683],[-48.60131758257534,-26.802444995442762],[-48.600993334372504,-26.80205293282575]]]}},{"type":"Feature","properties":{"classe":"Baixa","layerClass":"Baixa"},"geometry":{"type":"Polygon","coordinates":[[[-48.60174558439303,-26.803994336577112],[-48.60259244923906,-26.803719454139998],[-48.602282468529786,-26.80448227250091],[-48.60157359558229,-26.804615123772948],[-48.60174558439303,-26.803994336577112]]]}},{"type":"Feature","properties":{"classe":"Alta","layerClass":"Alta"},"geometry":{"type":"Polygon","coordinates":[[[-48.60287346984546,-26.80527239375227],[-48.60356821556174,-26.80479434955977],[-48.604399705907475,-26.805983631961354],[-48.603644868592035,-26.8065452815734],[-48.60287346984546,-26.80527239375227]]]}},{"type":"Feature","properties":{"classe":"Baixa","layerClass":"Baixa"},"geometry":{"type":"Polygon","coordinates":[[[-48.5999322342378,-26.80559813072493],[-48.60076479846161,-26.805303002067657],[-48.60105723608823,-26.80633410144957],[-48.60032734904844,-26.806489059569525],[-48.5999322342378,-26.80559813072493]]]}},{"type":"Feature","properties":{"classe":"Media","layerClass":"Media"},"geometry":{"type":"Polygon","coordinates":[[[-48.60564400821874,-26.8084799668635],[-48.60697700134696,-26.808679832729002],[-48.60704537450511,-26.809000317208195],[-48.6017916278184,-26.809000272419432],[-48.60564400821874,-26.8084799668635]]]}},{"type":"Feature","properties":{"classe":"Alta","layerClass":"Alta"},"geometry":{"type":"Polygon","coordinates":[[[-48.599932353838355,-26.80787922061839],[-48.60326928353915,-26.808420134445754],[-48.604049593574025,-26.808026145094317],[-48.60529439870582,-26.807806436095177],[-48.60629490573055,-26.80717624450706],[-48.607722588809544,-26.807696581553422],[-48.60862147233931,-26.80874364182541],[-48.608580413153966,-26.809000289374794],[-48.60704537450511,-26.809000317208195],[-48.60697700134696,-26.808679832729002],[-48.60564400821874,-26.8084799668635],[-48.6017916278184,-26.809000272419432],[-48.5991658768289,-26.80900017770412],[-48.599932353838355,-26.80787922061839]]]}},{"type":"Feature","properties":{"classe":"Media","layerClass":"Media"},"geometry":{"type":"Polygon","coordinates":[[[-48.5991112120772,-26.807451399240456],[-48.59778840988839,-26.805681737285067],[-48.59828290289711,-26.804483219977055],[-48.59992751735585,-26.803583354131757],[-48.59937001225173,-26.802572230036937],[-48.59614577509948,-26.802177686445557],[-48.596000017007334,-26.80179025133087],[-48.59600001118051,-26.79621112585414],[-48.598226088733114,-26.79601032034697],[-48.59851681390119,-26.795000148404643],[-48.60029585706264,-26.795000225964703],[-48.60078601457975,-26.795315319449962],[-48.60223241702163,-26.79595814498007],[-48.60218798386868,-26.79663918342791],[-48.60219460332314,-26.796925865874012],[-48.603150613153176,-26.7969080738591],[-48.6037142521845,-26.795798362989554],[-48.60326495875968,-26.795000304480943],[-48.604343639675164,-26.7950003188072],[-48.604625382935694,-26.79537723372404],[-48.60426505365525,-26.7965940866883],[-48.60362035475655,-26.798115597314304],[-48.604239394943896,-26.79938877978541],[-48.605067971634796,-26.800497187882534],[-48.60514493069983,-26.8021941076556],[-48.604779881791444,-26.803188065399056],[-48.604274239761565,-26.804381312910692],[-48.60530920707761,-26.805904264184925],[-48.606946627105515,-26.806275441944823],[-48.60740330267138,-26.806751860260935],[-48.609479075244195,-26.80798634337581],[-48.609516473673814,-26.808810392572447],[-48.60949986803455,-26.809000268848987],[-48.608580413153966,-26.809000289374794],[-48.60862147233931,-26.80874364182541],[-48.607722588809544,-26.807696581553422],[-48.60629490573055,-26.80717624450706],[-48.60529439870582,-26.807806436095177],[-48.604049593574025,-26.808026145094317],[-48.60326928353915,-26.808420134445754],[-48.599932353838355,-26.80787922061839],[-48.5991658768289,-26.80900017770412],[-48.59861378463343,-26.809000157679417],[-48.5991112120772,-26.807451399240456]],[[-48.59909317792176,-26.80009605438306],[-48.60002561562456,-26.79986128807573],[-48.60034812302479,-26.799244272927666],[-48.60184975864802,-26.79812693738383],[-48.60113144558031,-26.797724533970186],[-48.59986513367811,-26.798330701904565],[-48.5977237356956,-26.79813967959128],[-48.59703427690744,-26.79865266414211],[-48.597306125814455,-26.79900297508826],[-48.59792642711285,-26.799264086020028],[-48.59864897075525,-26.80023395046791],[-48.59909317792176,-26.80009605438306]],[[-48.6035980333877,-26.800415895242505],[-48.60288252928197,-26.798839065765364],[-48.602176408911646,-26.799172132747646],[-48.60286534088643,-26.800576154401377],[-48.6035980333877,-26.800415895242505]],[[-48.60175685478201,-26.802152442446683],[-48.60138218779543,-26.800703803101225],[-48.59910521611586,-26.80097908776571],[-48.59975256418694,-26.80157247599368],[-48.600993334372504,-26.80205293282575],[-48.60131758257534,-26.802444995442762],[-48.60175685478201,-26.802152442446683]],[[-48.604131060439705,-26.802071355144957],[-48.60386965497626,-26.801602276765156],[-48.603735930008355,-26.802215241734103],[-48.604131060439705,-26.802071355144957]],[[-48.602282468529786,-26.80448227250091],[-48.60259244923906,-26.803719454139998],[-48.60174558439303,-26.803994336577112],[-48.60157359558229,-26.804615123772948],[-48.602282468529786,-26.80448227250091]],[[-48.604399705907475,-26.805983631961354],[-48.60356821556174,-26.80479434955977],[-48.60287346984546,-26.80527239375227],[-48.603644868592035,-26.8065452815734],[-48.604399705907475,-26.805983631961354]],[[-48.60105723608823,-26.80633410144957],[-48.60076479846161,-26.805303002067657],[-48.5999322342378,-26.80559813072493],[-48.60032734904844,-26.806489059569525],[-48.60105723608823,-26.80633410144957]]]}}],"metadata":{"sourceUrl":"https://geo.ima.sc.gov.br/server/rest/services/Susceptibilidade_SGB_DCSC_MIL1/MapServer/4","sourceSha256":"a9971ec2dff1f6ae3edfed4344ef9d1fc171598c3cfeee55db4cc2727311234f","capturedAt":"2026-10-02","sourceSurveyDate":"2015, revisão abril/2016","calculationCrs":"EPSG:31982","outputCrs":"EPSG:4326","clipExtent":[-48.615,-26.809,-48.596,-26.795],"authority":"official_consultive","limitation":"Consulta cartográfica e derivação métrica; nenhum efeito jurídico ou valor de terra adotado."}}