{"type":"FeatureCollection","features":[{"type":"Feature","properties":{"simb":"AMa2","fid":8,"sbcs_1":"NEOSSOLO QUARTZARENICO","sbcs_2":"ESPODOSSOLO FERROCARBICO","relevo1":"PLANO","relevo2":"PLANO","drenagem1":"BEM DRENADO","drenagem2":"MAL DRENADO","textura1":" ","textura2":"ARENOSA","vegetacao1":"FLORESTA TROPICAL DE RESTINGA","vegetacao2":"FLORESTA TROPICAL DE RESTINGA","layerClass":"AMa2"},"geometry":{"type":"Polygon","coordinates":[[[-48.60980494346886,-26.80769649703837],[-48.60808138713381,-26.80500524938826],[-48.60636169841301,-26.802133566475554],[-48.60500732290096,-26.800693862353096],[-48.60192166279178,-26.79691464498853],[-48.600345813367085,-26.795000233669],[-48.615000003357196,-26.7950000038759],[-48.61500000400842,-26.80900000194894],[-48.61057679510058,-26.809000230552904],[-48.60980494346886,-26.80769649703837]]]}}],"metadata":{"sourceUrl":"https://geo.ima.sc.gov.br/server/rest/services/Hosted/Restinga_(EMBRAPA)/FeatureServer/0","sourceSha256":"32f14236913d8802b4618263792f2ca74b5e8751e17e3ca2fe813a562c5502c3","capturedAt":"2026-10-02","sourceSurveyDate":null,"calculationCrs":"EPSG:31982","outputCrs":"EPSG:4326","clipExtent":[-48.615,-26.809,-48.596,-26.795],"authority":"official_consultive","limitation":"Consulta cartográfica e derivação métrica; nenhum efeito jurídico ou valor de terra adotado."}}