{"type":"FeatureCollection","name":"intersection","features":[{"type":"Feature","properties":{"id":"intersection","label":"Recorte E13: interseção R04 × célula raster anterior","area_m2":39032.11124652624,"authority":"diagnostic_non_authoritative","sourceSha256":"ae3bcbaa05e16f62e22b1b349e5ffde4c6a7d951a3ba02ab40845d97570d3ded","derivedAt":"2026-10-02","calculationCrs":"EPSG:31982","noAreaNormalization":true},"geometry":{"type":"Polygon","coordinates":[[[-48.60859892883557,-26.803382337584114],[-48.608199325177154,-26.803445460858608],[-48.608120272994796,-26.803288153161013],[-48.60858077179143,-26.803207057007405],[-48.6084220336272,-26.80287546223734],[-48.60846501354501,-26.802868804125154],[-48.608595388422884,-26.802657095287003],[-48.60934964709298,-26.80255488860199],[-48.60934444939056,-26.802445909950283],[-48.60975691164977,-26.80237494634952],[-48.60982418027294,-26.802684399086747],[-48.60983490894347,-26.802703551773035],[-48.609855490311396,-26.802703551957073],[-48.60992389120544,-26.802973375254847],[-48.611584708473586,-26.802729503128262],[-48.61160302863581,-26.802746322930926],[-48.611837179997984,-26.802975380514702],[-48.61185193064488,-26.802990836058534],[-48.61211478692363,-26.8034073980059],[-48.61156761694624,-26.803503159215797],[-48.61155152300683,-26.803512735649498],[-48.6115729807619,-26.803613284947183],[-48.610939080555376,-26.803698154059393],[-48.61091128798427,-26.80355596135035],[-48.61090260347903,-26.803556764977163],[-48.61089706384475,-26.803527100189772],[-48.61086487800689,-26.803522311839714],[-48.610720038001,-26.8035510404005],[-48.61072003853446,-26.80359413256581],[-48.61074149659525,-26.803723409460858],[-48.610548377044154,-26.803747350243935],[-48.60914289912898,-26.803958023706436],[-48.608759152735225,-26.804008302494285],[-48.60859892883557,-26.803382337584114]]]}}]}