{"type": "FeatureCollection", "name": "talma-envelope-v2", "features": [{"type": "Feature", "id": "lote_principal", "properties": {"id": "lote_principal", "kind": "cadastro", "label": "SQL 062.096.0003-4 — cadastro WFS", "status": "hipotese_cartografica_nao_aprovada", "area_fiscal_m2": 7338, "sql": "06209600034", "status_fonte": "cadastro_observado_area_divergente", "area_cartografica_m2": 8664.906}, "geometry": {"type": "Polygon", "coordinates": [[[-46.558542161853914, -23.524777928579436], [-46.55819054502862, -23.52578215477188], [-46.55825967299121, -23.525811333953328], [-46.55802338835363, -23.52605571950714], [-46.557976749418984, -23.526103957168996], [-46.557889084841534, -23.52594585165214], [-46.55777629518035, -23.52572864146783], [-46.55772495201567, -23.525629763167707], [-46.55772431669466, -23.52562820723885], [-46.55766917623131, -23.52549327356255], [-46.55765816443166, -23.52549712242604], [-46.557530969270104, -23.52525214091005], [-46.55742979241493, -23.525056747629304], [-46.557429031407196, -23.525054497603126], [-46.55742868485833, -23.52505334515854], [-46.557428347995824, -23.525052183586467], [-46.55742804051087, -23.52505102172043], [-46.55742775261097, -23.5250498596584], [-46.55742748418984, -23.525048688370884], [-46.55742724504009, -23.52504750775991], [-46.55742702547538, -23.525046326952932], [-46.55742682549581, -23.52504514594998], [-46.55742665478753, -23.525043955623563], [-46.55742649397804, -23.525042774228734], [-46.55742636243984, -23.52504158351025], [-46.557426260173024, -23.525040383468475], [-46.557426167805, -23.525039192358108], [-46.55742611450077, -23.52503799182629], [-46.557426071095335, -23.525036800225955], [-46.55742604716876, -23.52503559940015], [-46.55742605272602, -23.52503440730996], [-46.55742608755466, -23.525033205896197], [-46.55742613228198, -23.525032013413934], [-46.55742620628069, -23.5250308116083], [-46.5574262999707, -23.52502961863608], [-46.55742642303836, -23.52502842536996], [-46.55742656579732, -23.52502724093736], [-46.55742672803505, -23.525026047279187], [-46.55742690996408, -23.52502486245461], [-46.55742712137703, -23.525023686365547], [-46.55742735226873, -23.525022501051016], [-46.557427602958015, -23.525021333599554], [-46.55742787312615, -23.525020156922533], [-46.557428172884286, -23.525018998010523], [-46.557428492227544, -23.525017838902606], [-46.55742883115592, -23.525016679598615], [-46.55742919956802, -23.525015529030245], [-46.557429577879006, -23.525014387393355], [-46.55742998556753, -23.52501324546249], [-46.55743041305363, -23.525012121394614], [-46.55743086012485, -23.525010997130845], [-46.55743133667988, -23.525009881602504], [-46.55743182302743, -23.52500876597625], [-46.55743233896506, -23.525007668115006], [-46.55743286480157, -23.525006579185252], [-46.55743342001561, -23.525005489961515], [-46.557433995027225, -23.525004418600776], [-46.55743458973014, -23.52500335607363], [-46.55743520412444, -23.5250023023799], [-46.55743583821004, -23.52500125751976], [-46.557436491986934, -23.52500022149312], [-46.55743716545512, -23.524999194300076], [-46.557437858720874, -23.524998184969935], [-46.55743857167802, -23.524997184473392], [-46.55743929453395, -23.524996192908333], [-46.55744004687367, -23.524995210078778], [-46.55744080921846, -23.524994245210216], [-46.55744160115333, -23.524993298106743], [-46.55744240288079, -23.524992350905187], [-46.5574432245121, -23.52499143059619], [-46.55744406572842, -23.524990510091214], [-46.5574449169498, -23.524989607547308], [-46.55744578796884, -23.524988722866393], [-46.55744667878534, -23.524987856048373], [-46.55744758929323, -23.52498699806403], [-46.55744850969991, -23.5249861490111], [-46.557449440111625, -23.524985317919143], [-46.55745040011353, -23.52498450459228], [-46.55745137012039, -23.52498370922648], [-46.55745235013239, -23.52498293182158], [-46.55745334983558, -23.52498216325025], [-46.557454359543925, -23.524981412639825], [-46.55745538904984, -23.52498067989257], [-46.557456428560805, -23.5249799651062], [-46.557457477970644, -23.524979259251406], [-46.55745854728423, -23.524978580289098], [-46.55745962649658, -23.52497791025828], [-46.55746071582036, -23.52497726721792], [-46.55746182483544, -23.524976633011157], [-46.55746293416933, -23.52497602589285], [-46.557464063194516, -23.52497542760813], [-46.55774436976763, -23.52492565439123], [-46.55784533719524, -23.52490772956086], [-46.55800099394585, -23.52487745427113], [-46.55842042115694, -23.524800248426867], [-46.558542161853914, -23.524777928579436]]]}}, {"type": "Feature", "id": "borda_norte", "properties": {"id": "borda_norte", "kind": "borda", "label": "Frente norte aparente — Hely — 5 m", "status": "hipotese_cartografica_nao_aprovada", "recuo_hipotese_m": 5, "comprimento_cartografico_m": 112.241}, "geometry": {"type": "LineString", "coordinates": [[-46.557464063194516, -23.52497542760813], [-46.55774436976763, -23.52492565439123], [-46.55784533719524, -23.52490772956086], [-46.55800099394585, -23.52487745427113], [-46.55842042115694, -23.524800248426867], [-46.558542161853914, -23.524777928579436]]}}, {"type": "Feature", "id": "borda_leste", "properties": {"id": "borda_leste", "kind": "borda", "label": "Frente leste/sudeste aparente — Talma — 5 m", "status": "hipotese_cartografica_nao_aprovada", "recuo_hipotese_m": 5, "comprimento_cartografico_m": 140.356}, "geometry": {"type": "LineString", "coordinates": [[-46.557976749418984, -23.526103957168996], [-46.557889084841534, -23.52594585165214], [-46.55777629518035, -23.52572864146783], [-46.55772495201567, -23.525629763167707], [-46.55772431669466, -23.52562820723885], [-46.55766917623131, -23.52549327356255], [-46.55765816443166, -23.52549712242604], [-46.557530969270104, -23.52525214091005], [-46.55742979241493, -23.525056747629304], [-46.557429031407196, -23.525054497603126], [-46.55742868485833, -23.52505334515854], [-46.557428347995824, -23.525052183586467], [-46.55742804051087, -23.52505102172043], [-46.55742775261097, -23.5250498596584], [-46.55742748418984, -23.525048688370884], [-46.55742724504009, -23.52504750775991], [-46.55742702547538, -23.525046326952932], [-46.55742682549581, -23.52504514594998], [-46.55742665478753, -23.525043955623563], [-46.55742649397804, -23.525042774228734], [-46.55742636243984, -23.52504158351025], [-46.557426260173024, -23.525040383468475], [-46.557426167805, -23.525039192358108], [-46.55742611450077, -23.52503799182629], [-46.557426071095335, -23.525036800225955], [-46.55742604716876, -23.52503559940015], [-46.55742605272602, -23.52503440730996], [-46.55742608755466, -23.525033205896197], [-46.55742613228198, -23.525032013413934], [-46.55742620628069, -23.5250308116083], [-46.5574262999707, -23.52502961863608], [-46.55742642303836, -23.52502842536996], [-46.55742656579732, -23.52502724093736], [-46.55742672803505, -23.525026047279187], [-46.55742690996408, -23.52502486245461], [-46.55742712137703, -23.525023686365547], [-46.55742735226873, -23.525022501051016], [-46.557427602958015, -23.525021333599554], [-46.55742787312615, -23.525020156922533], [-46.557428172884286, -23.525018998010523], [-46.557428492227544, -23.525017838902606], [-46.55742883115592, -23.525016679598615], [-46.55742919956802, -23.525015529030245], [-46.557429577879006, -23.525014387393355], [-46.55742998556753, -23.52501324546249], [-46.55743041305363, -23.525012121394614], [-46.55743086012485, -23.525010997130845], [-46.55743133667988, -23.525009881602504], [-46.55743182302743, -23.52500876597625], [-46.55743233896506, -23.525007668115006], [-46.55743286480157, -23.525006579185252], [-46.55743342001561, -23.525005489961515], [-46.557433995027225, -23.525004418600776], [-46.55743458973014, -23.52500335607363], [-46.55743520412444, -23.5250023023799], [-46.55743583821004, -23.52500125751976], [-46.557436491986934, -23.52500022149312], [-46.55743716545512, -23.524999194300076], [-46.557437858720874, -23.524998184969935], [-46.55743857167802, -23.524997184473392], [-46.55743929453395, -23.524996192908333], [-46.55744004687367, -23.524995210078778], [-46.55744080921846, -23.524994245210216], [-46.55744160115333, -23.524993298106743], [-46.55744240288079, -23.524992350905187], [-46.5574432245121, -23.52499143059619], [-46.55744406572842, -23.524990510091214], [-46.5574449169498, -23.524989607547308], [-46.55744578796884, -23.524988722866393], [-46.55744667878534, -23.524987856048373], [-46.55744758929323, -23.52498699806403], [-46.55744850969991, -23.5249861490111], [-46.557449440111625, -23.524985317919143], [-46.55745040011353, -23.52498450459228], [-46.55745137012039, -23.52498370922648], [-46.55745235013239, -23.52498293182158], [-46.55745334983558, -23.52498216325025], [-46.557454359543925, -23.524981412639825], [-46.55745538904984, -23.52498067989257], [-46.557456428560805, -23.5249799651062], [-46.557457477970644, -23.524979259251406], [-46.55745854728423, -23.524978580289098], [-46.55745962649658, -23.52497791025828], [-46.55746071582036, -23.52497726721792], [-46.55746182483544, -23.524976633011157], [-46.55746293416933, -23.52497602589285], [-46.557464063194516, -23.52497542760813]]}}, {"type": "Feature", "id": "borda_oeste_0004", "properties": {"id": "borda_oeste_0004", "kind": "borda", "label": "Confrontacao cadastral com lote 0004 — 3 m", "status": "hipotese_cartografica_nao_aprovada", "recuo_hipotese_m": 3, "comprimento_cartografico_m": 124.625}, "geometry": {"type": "LineString", "coordinates": [[-46.558542161853914, -23.524777928579436], [-46.55819054502862, -23.52578215477188], [-46.55825967299121, -23.525811333953328]]}}, {"type": "Feature", "id": "borda_sudoeste_pendente", "properties": {"id": "borda_sudoeste_pendente", "kind": "borda_pendente", "label": "Confrontacao sudoeste nao identificada — 3 m no ensaio", "status": "hipotese_cartografica_nao_aprovada", "recuo_hipotese_m": 3, "comprimento_cartografico_m": 43.414}, "geometry": {"type": "LineString", "coordinates": [[-46.55825967299121, -23.525811333953328], [-46.55802338835363, -23.52605571950714], [-46.557976749418984, -23.526103957168996]]}}, {"type": "Feature", "id": "faixa_norte_5m", "properties": {"id": "faixa_norte_5m", "kind": "faixa_recuo", "label": "norte 5m", "status": "hipotese_cartografica_nao_aprovada", "area_nao_aditiva": true, "area_cartografica_m2": 567.159}, "geometry": {"type": "Polygon", "coordinates": [[[-46.558542161853914, -23.524777928579436], [-46.55852493812849, -23.52482712029915], [-46.55842998854294, -23.524844528277615], [-46.55801084020258, -23.524921682797604], [-46.55785544336316, -23.524951907537538], [-46.55785459463917, -23.52495206540052], [-46.55775362806954, -23.52496999008056], [-46.557473322406345, -23.525019763141408], [-46.55747095197875, -23.525020128664544], [-46.55746856495545, -23.525020386498877], [-46.55746616708699, -23.525020536023277], [-46.55746376415008, -23.525020576877505], [-46.557461361933576, -23.525020508963156], [-46.55745896622466, -23.525020332443837], [-46.55745658279479, -23.525020047744803], [-46.557454217385875, -23.52501965555192], [-46.557451875696394, -23.52501915681], [-46.5574495633677, -23.525018552720578], [-46.55744728597038, -23.525017844738937], [-46.5574450489909, -23.525017034570684], [-46.55744285781835, -23.525016124167593], [-46.557440717731446, -23.52501511572288], [-46.55743863388586, -23.525014011666006], [-46.55743661130176, -23.525012814656726], [-46.557434654851725, -23.52501152757876], [-46.55743276924902, -23.525010153532776], [-46.55743162116716, -23.525009229020874], [-46.55743182302743, -23.52500876597625], [-46.55743233896506, -23.525007668115006], [-46.55743286480157, -23.525006579185252], [-46.55743342001561, -23.525005489961515], [-46.557433995027225, -23.525004418600776], [-46.55743458973014, -23.52500335607363], [-46.55743520412444, -23.5250023023799], [-46.55743583821004, -23.52500125751976], [-46.557436491986934, -23.52500022149312], [-46.55743716545512, -23.524999194300076], [-46.557437858720874, -23.524998184969935], [-46.55743857167802, -23.524997184473392], [-46.55743929453395, -23.524996192908333], [-46.55744004687367, -23.524995210078778], [-46.55744080921846, -23.524994245210216], [-46.55744160115333, -23.524993298106743], [-46.55744240288079, -23.524992350905187], [-46.5574432245121, -23.52499143059619], [-46.55744406572842, -23.524990510091214], [-46.5574449169498, -23.524989607547308], [-46.55744578796884, -23.524988722866393], [-46.55744667878534, -23.524987856048373], [-46.55744758929323, -23.52498699806403], [-46.55744850969991, -23.5249861490111], [-46.557449440111625, -23.524985317919143], [-46.55745040011353, -23.52498450459228], [-46.55745137012039, -23.52498370922648], [-46.55745235013239, -23.52498293182158], [-46.55745334983558, -23.52498216325025], [-46.557454359543925, -23.524981412639825], [-46.55745538904984, -23.52498067989257], [-46.557456428560805, -23.5249799651062], [-46.557457477970644, -23.524979259251406], [-46.55745854728423, -23.524978580289098], [-46.55745962649658, -23.52497791025828], [-46.55746071582036, -23.52497726721792], [-46.55746182483544, -23.524976633011157], [-46.55746293416933, -23.52497602589285], [-46.557464063194516, -23.52497542760813], [-46.55774436976763, -23.52492565439123], [-46.55784533719524, -23.52490772956086], [-46.55800099394585, -23.52487745427113], [-46.55842042115694, -23.524800248426867], [-46.558542161853914, -23.524777928579436]]]}}, {"type": "Feature", "id": "faixa_leste_5m", "properties": {"id": "faixa_leste_5m", "kind": "faixa_recuo", "label": "leste 5m", "status": "hipotese_cartografica_nao_aprovada", "area_nao_aditiva": true, "area_cartografica_m2": 690.484}, "geometry": {"type": "Polygon", "coordinates": [[[-46.557464063194516, -23.52497542760813], [-46.55751213437808, -23.52496689178707], [-46.557512255052266, -23.52496743364726], [-46.55751262239454, -23.524969623686648], [-46.55751287275348, -23.52497182770821], [-46.55751300552591, -23.52497404040226], [-46.557513020392, -23.524976256438233], [-46.557512917315904, -23.5249784704775], [-46.55751269654595, -23.52498067718624], [-46.55751235861398, -23.52498287124831], [-46.5575119043341, -23.52498504737801], [-46.5575113348007, -23.524987200332863], [-46.55751065138583, -23.524989324926207], [-46.5575098557359, -23.524991416039708], [-46.557508949767694, -23.524993468635696], [-46.55750793566376, -23.52499547776927], [-46.55750681586715, -23.52499743860026], [-46.557505593075554, -23.52499934640486], [-46.557504270234794, -23.525001196586985], [-46.55750285053169, -23.525002984689387], [-46.55750133738644, -23.525004706404356], [-46.55749973444434, -23.525006357584147], [-46.557498045567016, -23.525007934250915], [-46.557496274823116, -23.52500943260632], [-46.55749442647851, -23.525010849040697], [-46.55749250498605, -23.525012180141722], [-46.55749051497476, -23.525013422702678], [-46.557488461238755, -23.525014573730097], [-46.55748763035262, -23.525015014027232], [-46.55748722695925, -23.52501523479712], [-46.5574868212846, -23.525015466788236], [-46.55748650436851, -23.525015653867474], [-46.557486107282465, -23.52501590039906], [-46.55748579685669, -23.525016097504416], [-46.55748549356514, -23.525016301504635], [-46.55748498672633, -23.525016650016138], [-46.5574846890331, -23.525016861898315], [-46.55748439653828, -23.525017079337037], [-46.557483997118894, -23.52501738641053], [-46.55748360824209, -23.525017694891243], [-46.557483235935536, -23.5250180001674], [-46.557483045335566, -23.525018161646383], [-46.55748286236572, -23.525018325084556], [-46.55748240464123, -23.525018747324463], [-46.55748195097228, -23.525019174823182], [-46.55748169025985, -23.525019428512127], [-46.55748152219407, -23.52501959921406], [-46.55748126406796, -23.525019872903403], [-46.55748084967635, -23.525020326353538], [-46.55748061158127, -23.525020593043873], [-46.55748029072921, -23.525020972114934], [-46.557479993512516, -23.52502132756724], [-46.557479839288455, -23.52502152276239], [-46.55747962061631, -23.525021808427915], [-46.55747935257481, -23.525022176109367], [-46.55747900601252, -23.52502266244229], [-46.55747880497426, -23.52502295513535], [-46.55747860763605, -23.525023256121404], [-46.557478367527224, -23.525023636617068], [-46.55747813598568, -23.52502401815649], [-46.55747791260154, -23.525024401263245], [-46.557477696992166, -23.5250247864824], [-46.55747752450372, -23.52502510786282], [-46.55747739256106, -23.525025366709237], [-46.557477170162294, -23.525025827264567], [-46.55747701153719, -23.52502616480244], [-46.55747683252841, -23.525026575428644], [-46.557476631965955, -23.525027044909137], [-46.55747650499499, -23.525027364207237], [-46.557476348312605, -23.525027776201433], [-46.557476252412435, -23.525028044816974], [-46.557476095396474, -23.525028518647808], [-46.557475957365746, -23.52502894972479], [-46.55747586261197, -23.525029273830295], [-46.5574757192264, -23.525029794272072], [-46.55747564750231, -23.525030071569077], [-46.557475573356186, -23.525030394501997], [-46.55747546966064, -23.52503087740946], [-46.55747537386801, -23.52503136917508], [-46.557475310870025, -23.52503171963323], [-46.55747526480208, -23.525032019654404], [-46.557475193799085, -23.525032542057804], [-46.55747513179811, -23.5250330564648], [-46.55747509772468, -23.52503338684254], [-46.55747507140829, -23.525033721935515], [-46.557475049755574, -23.525034073597215], [-46.55747503040765, -23.525034589440324], [-46.557475015384696, -23.525035107663935], [-46.55747501457344, -23.525035281699097], [-46.55747502146645, -23.52503562763874], [-46.55747504634098, -23.52503631050716], [-46.55747506177743, -23.52503665816795], [-46.55747508865936, -23.525037004816024], [-46.55747513314144, -23.525037526785113], [-46.55747514945314, -23.525037674442483], [-46.557475218901295, -23.525038184645393], [-46.557475293232876, -23.52503870294842], [-46.55747534844218, -23.525039028992826], [-46.55747544484719, -23.52503954745268], [-46.55747551118509, -23.525039874942504], [-46.557475577446226, -23.525040164080377], [-46.557475679861504, -23.525040577462725], [-46.55757514545845, -23.525232665827545], [-46.55768902842241, -23.525452007585585], [-46.55768932381931, -23.525452122580237], [-46.55769149205575, -23.525453084977837], [-46.55769360639642, -23.525454144436424], [-46.55769566173487, -23.52545529839729], [-46.5576976531072, -23.52545654407347], [-46.55769957570395, -23.525457878456457], [-46.55770142488179, -23.525459298323543], [-46.55770319617471, -23.52546080024556], [-46.557704885304766, -23.525462380595147], [-46.557706488192494, -23.525464035555558], [-46.55770800096669, -23.525465761129816], [-46.5577094199738, -23.525467553150445], [-46.55771074178671, -23.52546940728945], [-46.55771196321305, -23.525471319068835], [-46.55771308130292, -23.52547328387138], [-46.557714093355976, -23.52547529695183], [-46.55771499692795, -23.525477353448306], [-46.55777003064242, -23.525612025794196], [-46.55782045954165, -23.52570914331117], [-46.557932973603464, -23.525925822613534], [-46.55801170025311, -23.5260678082663], [-46.557976749418984, -23.526103957168996], [-46.557889084841534, -23.52594585165214], [-46.55777629518035, -23.52572864146783], [-46.55772495201567, -23.525629763167707], [-46.55772431669466, -23.52562820723885], [-46.55766917623131, -23.52549327356255], [-46.55765816443166, -23.52549712242604], [-46.557530969270104, -23.52525214091005], [-46.55742979241493, -23.525056747629304], [-46.557429031407196, -23.525054497603126], [-46.55742868485833, -23.52505334515854], [-46.557428347995824, -23.525052183586467], [-46.55742804051087, -23.52505102172043], [-46.55742775261097, -23.5250498596584], [-46.55742748418984, -23.525048688370884], [-46.55742724504009, -23.52504750775991], [-46.55742702547538, -23.525046326952932], [-46.55742682549581, -23.52504514594998], [-46.55742665478753, -23.525043955623563], [-46.55742649397804, -23.525042774228734], [-46.55742636243984, -23.52504158351025], [-46.557426260173024, -23.525040383468475], [-46.557426167805, -23.525039192358108], [-46.55742611450077, -23.52503799182629], [-46.557426071095335, -23.525036800225955], [-46.55742604716876, -23.52503559940015], [-46.55742605272602, -23.52503440730996], [-46.55742608755466, -23.525033205896197], [-46.55742613228198, -23.525032013413934], [-46.55742620628069, -23.5250308116083], [-46.5574262999707, -23.52502961863608], [-46.55742642303836, -23.52502842536996], [-46.55742656579732, -23.52502724093736], [-46.55742672803505, -23.525026047279187], [-46.55742690996408, -23.52502486245461], [-46.55742712137703, -23.525023686365547], [-46.55742735226873, -23.525022501051016], [-46.557427602958015, -23.525021333599554], [-46.55742787312615, -23.525020156922533], [-46.557428172884286, -23.525018998010523], [-46.557428492227544, -23.525017838902606], [-46.55742883115592, -23.525016679598615], [-46.55742919956802, -23.525015529030245], [-46.557429577879006, -23.525014387393355], [-46.55742998556753, -23.52501324546249], [-46.55743041305363, -23.525012121394614], [-46.55743086012485, -23.525010997130845], [-46.55743133667988, -23.525009881602504], [-46.55743182302743, -23.52500876597625], [-46.55743233896506, -23.525007668115006], [-46.55743286480157, -23.525006579185252], [-46.55743342001561, -23.525005489961515], [-46.557433995027225, -23.525004418600776], [-46.55743458973014, -23.52500335607363], [-46.55743520412444, -23.5250023023799], [-46.55743583821004, -23.52500125751976], [-46.557436491986934, -23.52500022149312], [-46.55743716545512, -23.524999194300076], [-46.557437858720874, -23.524998184969935], [-46.55743857167802, -23.524997184473392], [-46.55743929453395, -23.524996192908333], [-46.55744004687367, -23.524995210078778], [-46.55744080921846, -23.524994245210216], [-46.55744160115333, -23.524993298106743], [-46.55744240288079, -23.524992350905187], [-46.5574432245121, -23.52499143059619], [-46.55744406572842, -23.524990510091214], [-46.5574449169498, -23.524989607547308], [-46.55744578796884, -23.524988722866393], [-46.55744667878534, -23.524987856048373], [-46.55744758929323, -23.52498699806403], [-46.55744850969991, -23.5249861490111], [-46.557449440111625, -23.524985317919143], [-46.55745040011353, -23.52498450459228], [-46.55745137012039, -23.52498370922648], [-46.55745235013239, -23.52498293182158], [-46.55745334983558, -23.52498216325025], [-46.557454359543925, -23.524981412639825], [-46.55745538904984, -23.52498067989257], [-46.557456428560805, -23.5249799651062], [-46.557457477970644, -23.524979259251406], [-46.55745854728423, -23.524978580289098], [-46.55745962649658, -23.52497791025828], [-46.55746071582036, -23.52497726721792], [-46.55746182483544, -23.524976633011157], [-46.55746293416933, -23.52497602589285], [-46.557464063194516, -23.52497542760813]]]}}, {"type": "Feature", "id": "faixa_oeste_3m", "properties": {"id": "faixa_oeste_3m", "kind": "faixa_recuo", "label": "oeste 3m", "status": "hipotese_cartografica_nao_aprovada", "area_nao_aditiva": true, "area_cartografica_m2": 494.213}, "geometry": {"type": "Polygon", "coordinates": [[[-46.557976749418984, -23.526103957168996], [-46.55796240420055, -23.526078085197696], [-46.558001458414935, -23.526037692255542], [-46.55821126380277, -23.525820693881762], [-46.55817831624323, -23.525806786583264], [-46.55817703658485, -23.52580621145836], [-46.55817578864247, -23.525805579851617], [-46.55817457534611, -23.525804893245958], [-46.55817339954441, -23.52580415325344], [-46.558172263998, -23.52580336161146], [-46.55817117137299, -23.525802520178694], [-46.558170124234714, -23.525801630930715], [-46.55816912504171, -23.52580069595535], [-46.55816817613995, -23.525799717447804], [-46.55816727975732, -23.525798697705465], [-46.55816643799842, -23.525797639122572], [-46.55816565283957, -23.525796544184523], [-46.55816492612422, -23.525795415462085], [-46.558164259558595, -23.52579425560535], [-46.558163654707705, -23.525793067337496], [-46.55816311299166, -23.52579185344842], [-46.55816263568233, -23.52579061678819], [-46.55816222390037, -23.525789360260283], [-46.55816187861257, -23.525788086814877], [-46.55816160062965, -23.525786799441835], [-46.558161390604255, -23.525785501163757], [-46.558161249029496, -23.525784195028802], [-46.558161176237775, -23.5257828841036], [-46.558161172399984, -23.525781571466048], [-46.55816123752514, -23.52578026019801], [-46.558161371460336, -23.525778953378193], [-46.55816157389111, -23.52577765407482], [-46.55816184434217, -23.525776365338473], [-46.55816218217854, -23.52577509019493], [-46.558162586607025, -23.525773831638077], [-46.558509171673116, -23.524783976984313], [-46.558542161853914, -23.524777928579436], [-46.55819054502862, -23.52578215477188], [-46.55825967299121, -23.525811333953328], [-46.55802338835363, -23.52605571950714], [-46.557976749418984, -23.526103957168996]]]}}, {"type": "Feature", "id": "faixas_uniao_5_3", "properties": {"id": "faixas_uniao_5_3", "kind": "faixa_recuo_uniao", "label": "Uniao dos recuos 5/3 m — sem dupla contagem", "status": "hipotese_cartografica_nao_aprovada", "area_cartografica_m2": 1686.063}, "geometry": {"type": "Polygon", "coordinates": [[[-46.55842042115694, -23.524800248426867], [-46.558542161853914, -23.524777928579436], [-46.55819054502862, -23.52578215477188], [-46.55825967299121, -23.525811333953328], [-46.55802338835363, -23.52605571950714], [-46.557976749418984, -23.526103957168996], [-46.557889084841534, -23.52594585165214], [-46.55777629518035, -23.52572864146783], [-46.55772495201567, -23.525629763167707], [-46.55772431669466, -23.52562820723885], [-46.55766917623131, -23.52549327356255], [-46.55765816443166, -23.52549712242604], [-46.557530969270104, -23.52525214091005], [-46.55742979241493, -23.525056747629304], [-46.557429031407196, -23.525054497603126], [-46.55742868485833, -23.52505334515854], [-46.557428347995824, -23.525052183586467], [-46.55742804051087, -23.52505102172043], [-46.55742775261097, -23.5250498596584], [-46.55742748418984, -23.525048688370884], [-46.55742724504009, -23.52504750775991], [-46.55742702547538, -23.525046326952932], [-46.55742682549581, -23.52504514594998], [-46.55742665478753, -23.525043955623563], [-46.55742649397804, -23.525042774228734], [-46.55742636243984, -23.52504158351025], [-46.557426260173024, -23.525040383468475], [-46.557426167805, -23.525039192358108], [-46.55742611450077, -23.52503799182629], [-46.557426071095335, -23.525036800225955], [-46.55742604716876, -23.52503559940015], [-46.55742605272602, -23.52503440730996], [-46.55742608755466, -23.525033205896197], [-46.55742613228198, -23.525032013413934], [-46.55742620628069, -23.5250308116083], [-46.5574262999707, -23.52502961863608], [-46.55742642303836, -23.52502842536996], [-46.55742656579732, -23.52502724093736], [-46.55742672803505, -23.525026047279187], [-46.55742690996408, -23.52502486245461], [-46.55742712137703, -23.525023686365547], [-46.55742735226873, -23.525022501051016], [-46.557427602958015, -23.525021333599554], [-46.55742787312615, -23.525020156922533], [-46.557428172884286, -23.525018998010523], [-46.557428492227544, -23.525017838902606], [-46.55742883115592, -23.525016679598615], [-46.55742919956802, -23.525015529030245], [-46.557429577879006, -23.525014387393355], [-46.55742998556753, -23.52501324546249], [-46.55743041305363, -23.525012121394614], [-46.55743086012485, -23.525010997130845], [-46.55743133667988, -23.525009881602504], [-46.55743182302743, -23.52500876597625], [-46.55743233896506, -23.525007668115006], [-46.55743286480157, -23.525006579185252], [-46.55743342001561, -23.525005489961515], [-46.557433995027225, -23.525004418600776], [-46.55743458973014, -23.52500335607363], [-46.55743520412444, -23.5250023023799], [-46.55743583821004, -23.52500125751976], [-46.557436491986934, -23.52500022149312], [-46.55743716545512, -23.524999194300076], [-46.557437858720874, -23.524998184969935], [-46.55743857167802, -23.524997184473392], [-46.55743929453395, -23.524996192908333], [-46.55744004687367, -23.524995210078778], [-46.55744080921846, -23.524994245210216], [-46.55744160115333, -23.524993298106743], [-46.55744240288079, -23.524992350905187], [-46.5574432245121, -23.52499143059619], [-46.55744406572842, -23.524990510091214], [-46.5574449169498, -23.524989607547308], [-46.55744578796884, -23.524988722866393], [-46.55744667878534, -23.524987856048373], [-46.55744758929323, -23.52498699806403], [-46.55744850969991, -23.5249861490111], [-46.557449440111625, -23.524985317919143], [-46.55745040011353, -23.52498450459228], [-46.55745137012039, -23.52498370922648], [-46.55745235013239, -23.52498293182158], [-46.55745334983558, -23.52498216325025], [-46.557454359543925, -23.524981412639825], [-46.55745538904984, -23.52498067989257], [-46.557456428560805, -23.5249799651062], [-46.557457477970644, -23.524979259251406], [-46.55745854728423, -23.524978580289098], [-46.55745962649658, -23.52497791025828], [-46.55746071582036, -23.52497726721792], [-46.55746182483544, -23.524976633011157], [-46.55746293416933, -23.52497602589285], [-46.557464063194516, -23.52497542760813], [-46.55774436976763, -23.52492565439123], [-46.55784533719524, -23.52490772956086], [-46.55800099394585, -23.52487745427113], [-46.55842042115694, -23.524800248426867]], [[-46.55816184434217, -23.525776365338473], [-46.55816218217854, -23.52577509019493], [-46.558162586607025, -23.525773831638077], [-46.55849194793455, -23.524833168701026], [-46.55842998854294, -23.524844528277615], [-46.55801084020258, -23.524921682797604], [-46.55785544336316, -23.524951907537538], [-46.55785459463917, -23.52495206540052], [-46.55775362806954, -23.52496999008056], [-46.557483231953384, -23.52501800354114], [-46.557483045335566, -23.525018161646383], [-46.55748286236572, -23.525018325084556], [-46.55748240464123, -23.525018747324463], [-46.55748195097228, -23.525019174823182], [-46.55748169025985, -23.525019428512127], [-46.55748152219407, -23.52501959921406], [-46.55748126406796, -23.525019872903403], [-46.55748084967635, -23.525020326353538], [-46.55748061158127, -23.525020593043873], [-46.55748029072921, -23.525020972114934], [-46.557479993512516, -23.52502132756724], [-46.557479839288455, -23.52502152276239], [-46.55747962061631, -23.525021808427915], [-46.55747935257481, -23.525022176109367], [-46.55747900601252, -23.52502266244229], [-46.55747880497426, -23.52502295513535], [-46.55747860763605, -23.525023256121404], [-46.557478367527224, -23.525023636617068], [-46.55747813598568, -23.52502401815649], [-46.55747791260154, -23.525024401263245], [-46.557477696992166, -23.5250247864824], [-46.55747752450372, -23.52502510786282], [-46.55747739256106, -23.525025366709237], [-46.557477170162294, -23.525025827264567], [-46.55747701153719, -23.52502616480244], [-46.55747683252841, -23.525026575428644], [-46.557476631965955, -23.525027044909137], [-46.55747650499499, -23.525027364207237], [-46.557476348312605, -23.525027776201433], [-46.557476252412435, -23.525028044816974], [-46.557476095396474, -23.525028518647808], [-46.557475957365746, -23.52502894972479], [-46.55747586261197, -23.525029273830295], [-46.5574757192264, -23.525029794272072], [-46.55747564750231, -23.525030071569077], [-46.557475573356186, -23.525030394501997], [-46.55747546966064, -23.52503087740946], [-46.55747537386801, -23.52503136917508], [-46.557475310870025, -23.52503171963323], [-46.55747526480208, -23.525032019654404], [-46.557475193799085, -23.525032542057804], [-46.55747513179811, -23.5250330564648], [-46.55747509772468, -23.52503338684254], [-46.55747507140829, -23.525033721935515], [-46.557475049755574, -23.525034073597215], [-46.55747503040765, -23.525034589440324], [-46.557475015384696, -23.525035107663935], [-46.55747501457344, -23.525035281699097], [-46.55747502146645, -23.52503562763874], [-46.55747504634098, -23.52503631050716], [-46.55747506177743, -23.52503665816795], [-46.55747508865936, -23.525037004816024], [-46.55747513314144, -23.525037526785113], [-46.55747514945314, -23.525037674442483], [-46.557475218901295, -23.525038184645393], [-46.557475293232876, -23.52503870294842], [-46.55747534844218, -23.525039028992826], [-46.55747544484719, -23.52503954745268], [-46.55747551118509, -23.525039874942504], [-46.557475577446226, -23.525040164080377], [-46.557475679861504, -23.525040577462725], [-46.55757514545845, -23.525232665827545], [-46.55768902842241, -23.525452007585585], [-46.55768932381931, -23.525452122580237], [-46.55769149205575, -23.525453084977837], [-46.55769360639642, -23.525454144436424], [-46.55769566173487, -23.52545529839729], [-46.5576976531072, -23.52545654407347], [-46.55769957570395, -23.525457878456457], [-46.55770142488179, -23.525459298323543], [-46.55770319617471, -23.52546080024556], [-46.557704885304766, -23.525462380595147], [-46.557706488192494, -23.525464035555558], [-46.55770800096669, -23.525465761129816], [-46.5577094199738, -23.525467553150445], [-46.55771074178671, -23.52546940728945], [-46.55771196321305, -23.525471319068835], [-46.55771308130292, -23.52547328387138], [-46.557714093355976, -23.52547529695183], [-46.55771499692795, -23.525477353448306], [-46.55777003064242, -23.525612025794196], [-46.55782045954165, -23.52570914331117], [-46.557932973603464, -23.525925822613534], [-46.5579973550324, -23.52604193629827], [-46.558001458414935, -23.526037692255542], [-46.55821126380277, -23.525820693881762], [-46.55817831624323, -23.525806786583264], [-46.55817703658485, -23.52580621145836], [-46.55817578864247, -23.525805579851617], [-46.55817457534611, -23.525804893245958], [-46.55817339954441, -23.52580415325344], [-46.558172263998, -23.52580336161146], [-46.55817117137299, -23.525802520178694], [-46.558170124234714, -23.525801630930715], [-46.55816912504171, -23.52580069595535], [-46.55816817613995, -23.525799717447804], [-46.55816727975732, -23.525798697705465], [-46.55816643799842, -23.525797639122572], [-46.55816565283957, -23.525796544184523], [-46.55816492612422, -23.525795415462085], [-46.558164259558595, -23.52579425560535], [-46.558163654707705, -23.525793067337496], [-46.55816311299166, -23.52579185344842], [-46.55816263568233, -23.52579061678819], [-46.55816222390037, -23.525789360260283], [-46.55816187861257, -23.525788086814877], [-46.55816160062965, -23.525786799441835], [-46.558161390604255, -23.525785501163757], [-46.558161249029496, -23.525784195028802], [-46.558161176237775, -23.5257828841036], [-46.558161172399984, -23.525781571466048], [-46.55816123752514, -23.52578026019801], [-46.558161371460336, -23.525778953378193], [-46.55816157389111, -23.52577765407482], [-46.55816184434217, -23.525776365338473]]]}}, {"type": "Feature", "id": "envelope_5_3", "properties": {"id": "envelope_5_3", "kind": "envelope", "label": "Poligono interior aos recuos 5/3 m — nao e projecao edificavel autorizada", "status": "hipotese_cartografica_nao_aprovada", "altura_referencia_zm_m": 28, "desconta_app": false, "desconta_melhoramento_viario": false, "area_cartografica_m2": 6978.844}, "geometry": {"type": "Polygon", "coordinates": [[[-46.55816218217854, -23.52577509019493], [-46.55816184434217, -23.525776365338473], [-46.55816157389111, -23.52577765407482], [-46.558161371460336, -23.525778953378193], [-46.55816123752514, -23.52578026019801], [-46.558161172399984, -23.525781571466048], [-46.558161176237775, -23.5257828841036], [-46.558161249029496, -23.525784195028802], [-46.558161390604255, -23.525785501163757], [-46.55816160062965, -23.525786799441835], [-46.55816187861257, -23.525788086814877], [-46.55816222390037, -23.525789360260283], [-46.55816263568233, -23.52579061678819], [-46.55816311299166, -23.52579185344842], [-46.558163654707705, -23.525793067337496], [-46.558164259558595, -23.52579425560535], [-46.55816492612422, -23.525795415462085], [-46.55816565283957, -23.525796544184523], [-46.55816643799842, -23.525797639122572], [-46.55816727975732, -23.525798697705465], [-46.55816817613995, -23.525799717447804], [-46.55816912504171, -23.52580069595535], [-46.558170124234714, -23.525801630930715], [-46.55817117137299, -23.525802520178694], [-46.558172263998, -23.52580336161146], [-46.55817339954441, -23.52580415325344], [-46.55817457534611, -23.525804893245958], [-46.55817578864247, -23.525805579851617], [-46.55817703658485, -23.52580621145836], [-46.55817831624323, -23.525806786583264], [-46.55821126380277, -23.525820693881762], [-46.558001458414935, -23.526037692255542], [-46.5579973550324, -23.52604193629827], [-46.557932973603464, -23.525925822613534], [-46.55782045954165, -23.52570914331117], [-46.55777003064242, -23.525612025794196], [-46.55771499692795, -23.525477353448306], [-46.557714093355976, -23.52547529695183], [-46.55771308130292, -23.52547328387138], [-46.55771196321305, -23.525471319068835], [-46.55771074178671, -23.52546940728945], [-46.5577094199738, -23.525467553150445], [-46.55770800096669, -23.525465761129816], [-46.557706488192494, -23.525464035555558], [-46.557704885304766, -23.525462380595147], [-46.55770319617471, -23.52546080024556], [-46.55770142488179, -23.525459298323543], [-46.55769957570395, -23.525457878456457], [-46.5576976531072, -23.52545654407347], [-46.55769566173487, -23.52545529839729], [-46.55769360639642, -23.525454144436424], [-46.55769149205575, -23.525453084977837], [-46.55768932381931, -23.525452122580237], [-46.55768902842241, -23.525452007585585], [-46.55757514545845, -23.525232665827545], [-46.557475679861504, -23.525040577462725], [-46.557475577446226, -23.525040164080377], [-46.55747551118509, -23.525039874942504], [-46.55747544484719, -23.52503954745268], [-46.55747534844218, -23.525039028992826], [-46.557475293232876, -23.52503870294842], [-46.557475218901295, -23.525038184645393], [-46.55747514945314, -23.525037674442483], [-46.55747513314144, -23.525037526785113], [-46.55747508865936, -23.525037004816024], [-46.55747506177743, -23.52503665816795], [-46.55747504634098, -23.52503631050716], [-46.55747502146645, -23.52503562763874], [-46.55747501457344, -23.525035281699097], [-46.557475015384696, -23.525035107663935], [-46.55747503040765, -23.525034589440324], [-46.557475049755574, -23.525034073597215], [-46.55747507140829, -23.525033721935515], [-46.55747509772468, -23.52503338684254], [-46.55747513179811, -23.5250330564648], [-46.557475193799085, -23.525032542057804], [-46.55747526480208, -23.525032019654404], [-46.557475310870025, -23.52503171963323], [-46.55747537386801, -23.52503136917508], [-46.55747546966064, -23.52503087740946], [-46.557475573356186, -23.525030394501997], [-46.55747564750231, -23.525030071569077], [-46.5574757192264, -23.525029794272072], [-46.55747586261197, -23.525029273830295], [-46.557475957365746, -23.52502894972479], [-46.557476095396474, -23.525028518647808], [-46.557476252412435, -23.525028044816974], [-46.557476348312605, -23.525027776201433], [-46.55747650499499, -23.525027364207237], [-46.557476631965955, -23.525027044909137], [-46.55747683252841, -23.525026575428644], [-46.55747701153719, -23.52502616480244], [-46.557477170162294, -23.525025827264567], [-46.55747739256106, -23.525025366709237], [-46.55747752450372, -23.52502510786282], [-46.557477696992166, -23.5250247864824], [-46.55747791260154, -23.525024401263245], [-46.55747813598568, -23.52502401815649], [-46.557478367527224, -23.525023636617068], [-46.55747860763605, -23.525023256121404], [-46.55747880497426, -23.52502295513535], [-46.55747900601252, -23.52502266244229], [-46.55747935257481, -23.525022176109367], [-46.55747962061631, -23.525021808427915], [-46.557479839288455, -23.52502152276239], [-46.557479993512516, -23.52502132756724], [-46.55748029072921, -23.525020972114934], [-46.55748061158127, -23.525020593043873], [-46.55748084967635, -23.525020326353538], [-46.55748126406796, -23.525019872903403], [-46.55748152219407, -23.52501959921406], [-46.55748169025985, -23.525019428512127], [-46.55748195097228, -23.525019174823182], [-46.55748240464123, -23.525018747324463], [-46.55748286236572, -23.525018325084556], [-46.557483045335566, -23.525018161646383], [-46.557483231953384, -23.52501800354114], [-46.55775362806954, -23.52496999008056], [-46.55785459463917, -23.52495206540052], [-46.55785544336316, -23.524951907537538], [-46.55801084020258, -23.524921682797604], [-46.55842998854294, -23.524844528277615], [-46.55849194793455, -23.524833168701026], [-46.558162586607025, -23.525773831638077], [-46.55816218217854, -23.52577509019493]]]}}, {"type": "Feature", "id": "envelope_5_todas", "properties": {"id": "envelope_5_todas", "kind": "envelope_conservador", "label": "Poligono interior a 5 m de todas as bordas", "status": "hipotese_cartografica_nao_aprovada", "altura_referencia_zm_m": 28, "desconta_app": false, "desconta_melhoramento_viario": false, "area_cartografica_m2": 6682.548}, "geometry": {"type": "Polygon", "coordinates": [[[-46.55846995447001, -23.52483720096515], [-46.55814394766109, -23.525768282879298], [-46.55814327361333, -23.525770380474007], [-46.558142710552424, -23.52577250571318], [-46.55814225980034, -23.525774653607048], [-46.55814192241541, -23.52577681911266], [-46.55814169918977, -23.525778997145686], [-46.55814159064751, -23.525781182592407], [-46.558141597043495, -23.52578337032168], [-46.55814171836272, -23.52578555519704], [-46.55814195432034, -23.525787732088673], [-46.558142304362356, -23.52578989588554], [-46.558142767666936, -23.52579204150735], [-46.558143343146305, -23.525794163916444], [-46.55814402944932, -23.525796258129716], [-46.55814482496464, -23.525798319230226], [-46.5581457278245, -23.525800342378794], [-46.558146735909126, -23.52580232282533], [-46.55814784685166, -23.52580425592003], [-46.55814905804377, -23.52580613712422], [-46.55815036664175, -23.525807962021112], [-46.55815176957318, -23.525809726326084], [-46.55815326354417, -23.52581142589678], [-46.558154845047085, -23.52581305674284], [-46.558156510368775, -23.52581461503526], [-46.558158255599274, -23.525816097115374], [-46.55816007664104, -23.525817499503454], [-46.55816196921849, -23.525818818906885], [-46.55816392888813, -23.52582005222788], [-46.55816595104889, -23.525821196570785], [-46.55816803095304, -23.525822249248804], [-46.55817016371723, -23.525823207790413], [-46.55817899100616, -23.525826933825886], [-46.557987791554275, -23.52602468831701], [-46.557932973603464, -23.525925822613534], [-46.55782045954165, -23.52570914331117], [-46.55777003064242, -23.525612025794196], [-46.55771499692795, -23.525477353448306], [-46.557714093355976, -23.52547529695183], [-46.55771308130292, -23.52547328387138], [-46.55771196321305, -23.525471319068835], [-46.55771074178671, -23.52546940728945], [-46.5577094199738, -23.525467553150445], [-46.55770800096669, -23.525465761129816], [-46.557706488192494, -23.525464035555558], [-46.557704885304766, -23.525462380595147], [-46.55770319617471, -23.52546080024556], [-46.55770142488179, -23.525459298323543], [-46.55769957570395, -23.525457878456457], [-46.5576976531072, -23.52545654407347], [-46.55769566173487, -23.52545529839729], [-46.55769360639642, -23.525454144436424], [-46.55769149205575, -23.525453084977837], [-46.55768932381931, -23.525452122580237], [-46.55768902842241, -23.525452007585585], [-46.55757514545845, -23.525232665827545], [-46.557475679861504, -23.525040577462725], [-46.557475577446226, -23.525040164080377], [-46.55747551118509, -23.525039874942504], [-46.55747544484719, -23.52503954745268], [-46.55747534844218, -23.525039028992826], [-46.557475293232876, -23.52503870294842], [-46.557475218901295, -23.525038184645393], [-46.55747514945314, -23.525037674442483], [-46.55747513314144, -23.525037526785113], [-46.55747508865936, -23.525037004816024], [-46.55747506177743, -23.52503665816795], [-46.55747504634098, -23.52503631050716], [-46.55747502146645, -23.52503562763874], [-46.55747501457344, -23.525035281699097], [-46.557475015384696, -23.525035107663935], [-46.55747503040765, -23.525034589440324], [-46.557475049755574, -23.525034073597215], [-46.55747507140829, -23.525033721935515], [-46.55747509772468, -23.52503338684254], [-46.55747513179811, -23.5250330564648], [-46.557475193799085, -23.525032542057804], [-46.55747526480208, -23.525032019654404], [-46.557475310870025, -23.52503171963323], [-46.55747537386801, -23.52503136917508], [-46.55747546966064, -23.52503087740946], [-46.557475573356186, -23.525030394501997], [-46.55747564750231, -23.525030071569077], [-46.5574757192264, -23.525029794272072], [-46.55747586261197, -23.525029273830295], [-46.557475957365746, -23.52502894972479], [-46.557476095396474, -23.525028518647808], [-46.557476252412435, -23.525028044816974], [-46.557476348312605, -23.525027776201433], [-46.55747650499499, -23.525027364207237], [-46.557476631965955, -23.525027044909137], [-46.55747683252841, -23.525026575428644], [-46.55747701153719, -23.52502616480244], [-46.557477170162294, -23.525025827264567], [-46.55747739256106, -23.525025366709237], [-46.55747752450372, -23.52502510786282], [-46.557477696992166, -23.5250247864824], [-46.55747791260154, -23.525024401263245], [-46.55747813598568, -23.52502401815649], [-46.557478367527224, -23.525023636617068], [-46.55747860763605, -23.525023256121404], [-46.55747880497426, -23.52502295513535], [-46.55747900601252, -23.52502266244229], [-46.55747935257481, -23.525022176109367], [-46.55747962061631, -23.525021808427915], [-46.557479839288455, -23.52502152276239], [-46.557479993512516, -23.52502132756724], [-46.55748029072921, -23.525020972114934], [-46.55748061158127, -23.525020593043873], [-46.55748084967635, -23.525020326353538], [-46.55748126406796, -23.525019872903403], [-46.55748152219407, -23.52501959921406], [-46.55748169025985, -23.525019428512127], [-46.55748195097228, -23.525019174823182], [-46.55748240464123, -23.525018747324463], [-46.55748286236572, -23.525018325084556], [-46.557483045335566, -23.525018161646383], [-46.557483231953384, -23.52501800354114], [-46.55775362806954, -23.52496999008056], [-46.55785459463917, -23.52495206540052], [-46.55785544336316, -23.524951907537538], [-46.55801084020258, -23.524921682797604], [-46.55842998854294, -23.524844528277615], [-46.55846995447001, -23.52483720096515]]]}}, {"type": "Feature", "id": "ganho_geometrico_5_3", "properties": {"id": "ganho_geometrico_5_3", "kind": "diferenca_envelopes", "label": "Diferenca cartografica entre recuos 5/3 m e 5 m integral", "status": "hipotese_cartografica_nao_aprovada", "precisao_diferenca_m": 0.001, "area_cartografica_m2": 296.276}, "geometry": {"type": "Polygon", "coordinates": [[[-46.55849194544813, -23.524833166618603], [-46.55816258487181, -23.525773835635118], [-46.55816217846448, -23.525775085920067], [-46.55816184092412, -23.52577636260717], [-46.558161572144385, -23.525777656666968], [-46.55816137191264, -23.52577895004047], [-46.55816124044152, -23.525780260786657], [-46.55816116772582, -23.525781570944588], [-46.558161173350676, -23.525782880318197], [-46.55816124762985, -23.52578419803499], [-46.558161390244365, -23.52578549700652], [-46.558161601406866, -23.525786795291772], [-46.55816188101103, -23.525788083861222], [-46.5581622192643, -23.525789362812944], [-46.558162635539155, -23.525790613891886], [-46.55816311046312, -23.525791855353077], [-46.55816365361609, -23.525793069039512], [-46.558164255205526, -23.525794255049238], [-46.55816492502398, -23.525795413284207], [-46.55816565327888, -23.52579654384246], [-46.55816643986391, -23.52579763769451], [-46.558167274986495, -23.525798694938405], [-46.55816817823179, -23.525799715378042], [-46.55816912022206, -23.525800699307563], [-46.55817012032981, -23.525801628471907], [-46.558171168975115, -23.525802521028083], [-46.55817226594532, -23.525803358917123], [-46.558173401554185, -23.52580415126655], [-46.558174575695375, -23.525804889046878], [-46.558175788475225, -23.525805581287603], [-46.558177039681084, -23.525806209929726], [-46.558178319626684, -23.525806784100805], [-46.55821126304588, -23.52582069544829], [-46.558001460713484, -23.526037695916333], [-46.55799735809317, -23.526041936193543], [-46.557987792143514, -23.52602468426744], [-46.558178987824945, -23.525826933600815], [-46.558170159016775, -23.525823211101702], [-46.558168032231386, -23.52582224806479], [-46.55816595334561, -23.525821194242774], [-46.55816393215202, -23.525820049537607], [-46.55816196875696, -23.525818822978785], [-46.558160072740336, -23.525817496409296], [-46.558158254213716, -23.525816096819547], [-46.55815651307076, -23.525814615180064], [-46.558154849417804, -23.525813060520345], [-46.558153263148526, -23.52581142381089], [-46.55815177406071, -23.525809722914605], [-46.55815036256922, -23.52580795802756], [-46.5581490581581, -23.525806137885134], [-46.55814785092845, -23.525804253555883], [-46.55814673130034, -23.525802323196817], [-46.55814572865148, -23.525800346513826], [-46.55814482339674, -23.52579832370297], [-46.558144025328666, -23.525796254666247], [-46.558143344558815, -23.52579416639404], [-46.55814277108196, -23.52579204092546], [-46.55814230511074, -23.525789896319434], [-46.55814195643774, -23.525787732477966], [-46.558141715376685, -23.52578555852856], [-46.558141601512716, -23.525783374275136], [-46.5581415952607, -23.525781179913785], [-46.55814169683328, -23.52577899350347], [-46.558141925815576, -23.525776814848133], [-46.558142262728786, -23.52577465317331], [-46.55814270757289, -23.525772508479022], [-46.55814327014046, -23.525770380667222], [-46.55814395053781, -23.525768278767387], [-46.5584699572049, -23.524837197692285], [-46.55849194544813, -23.524833166618603]]]}}, {"type": "Feature", "id": "volume_a", "properties": {"id": "volume_a", "kind": "massa_ilustrativa", "label": "Barra A — 80 × 20 m", "status": "hipotese_cartografica_nao_aprovada", "largura_m": 80, "profundidade_m": 20, "pavimentos_hipotese": 8, "altura_ilustrativa_m": 24, "pavimento_a_pavimento_hipotese_m": 3, "variante_pavimentos": 7, "variante_altura_m": 21, "area_empilhada_8_pav_m2": 12800.0, "area_empilhada_7_pav_m2": 11200.0, "metodo": "dimensoes_escolhidas_para_ilustrar_area_bruta_do_modelo_nao_estimativa_independente", "unidades_nao_comprovadas": true, "datum_vertical_nao_definido": true, "area_cartografica_m2": 1600.0}, "geometry": {"type": "Polygon", "coordinates": [[[-46.557564196726474, -23.525058355807246], [-46.55833262546069, -23.524917586191027], [-46.55837079228644, -23.52509472443532], [-46.557602362587325, -23.525235494289447], [-46.557564196726474, -23.525058355807246]]]}}, {"type": "Feature", "id": "volume_b", "properties": {"id": "volume_b", "kind": "massa_ilustrativa", "label": "Barra B — 47 × 20 m", "status": "hipotese_cartografica_nao_aprovada", "largura_m": 47, "profundidade_m": 20, "pavimentos_hipotese": 8, "altura_ilustrativa_m": 24, "pavimento_a_pavimento_hipotese_m": 3, "variante_pavimentos": 7, "variante_altura_m": 21, "area_empilhada_8_pav_m2": 7520.0, "area_empilhada_7_pav_m2": 6580.0, "metodo": "dimensoes_escolhidas_para_ilustrar_area_bruta_do_modelo_nao_estimativa_independente", "unidades_nao_comprovadas": true, "datum_vertical_nao_definido": true, "area_cartografica_m2": 940.0}, "geometry": {"type": "Polygon", "coordinates": [[[-46.55773855466009, -23.525357849400702], [-46.55819000763708, -23.525275147149486], [-46.55822817440709, -23.525452285425608], [-46.55777672086322, -23.525534987816588], [-46.55773855466009, -23.525357849400702]]]}}, {"type": "Feature", "id": "volume_c", "properties": {"id": "volume_c", "kind": "massa_ilustrativa", "label": "Barra C — 20 × 28 m", "status": "hipotese_cartografica_nao_aprovada", "largura_m": 20, "profundidade_m": 28, "pavimentos_hipotese": 8, "altura_ilustrativa_m": 24, "pavimento_a_pavimento_hipotese_m": 3, "variante_pavimentos": 7, "variante_altura_m": 21, "area_empilhada_8_pav_m2": 4480.0, "area_empilhada_7_pav_m2": 3920.0, "metodo": "dimensoes_escolhidas_para_ilustrar_area_bruta_do_modelo_nao_estimativa_independente", "unidades_nao_comprovadas": true, "datum_vertical_nao_definido": true, "area_cartografica_m2": 560.0}, "geometry": {"type": "Polygon", "coordinates": [[[-46.55788988595142, -23.525643148148962], [-46.558081994037494, -23.525607955652717], [-46.55813542752132, -23.52585594926456], [-46.55794331909752, -23.525891141844077], [-46.55788988595142, -23.525643148148962]]]}}, {"type": "Feature", "id": "solo_sem_barras", "properties": {"id": "solo_sem_barras", "kind": "solo_livre_geometrico", "label": "Solo fora das barras — nao equivale a solo permeavel ou livre de restricoes", "status": "hipotese_cartografica_nao_aprovada", "area_cartografica_m2": 5564.906}, "geometry": {"type": "Polygon", "coordinates": [[[-46.55842042115694, -23.524800248426867], [-46.558542161853914, -23.524777928579436], [-46.55819054502862, -23.52578215477188], [-46.55825967299121, -23.525811333953328], [-46.55802338835363, -23.52605571950714], [-46.557976749418984, -23.526103957168996], [-46.557889084841534, -23.52594585165214], [-46.55777629518035, -23.52572864146783], [-46.55772495201567, -23.525629763167707], [-46.55772431669466, -23.52562820723885], [-46.55766917623131, -23.52549327356255], [-46.55765816443166, -23.52549712242604], [-46.557530969270104, -23.52525214091005], [-46.55742979241493, -23.525056747629304], [-46.557429031407196, -23.525054497603126], [-46.55742868485833, -23.52505334515854], [-46.557428347995824, -23.525052183586467], [-46.55742804051087, -23.52505102172043], [-46.55742775261097, -23.5250498596584], [-46.55742748418984, -23.525048688370884], [-46.55742724504009, -23.52504750775991], [-46.55742702547538, -23.525046326952932], [-46.55742682549581, -23.52504514594998], [-46.55742665478753, -23.525043955623563], [-46.55742649397804, -23.525042774228734], [-46.55742636243984, -23.52504158351025], [-46.557426260173024, -23.525040383468475], [-46.557426167805, -23.525039192358108], [-46.55742611450077, -23.52503799182629], [-46.557426071095335, -23.525036800225955], [-46.55742604716876, -23.52503559940015], [-46.55742605272602, -23.52503440730996], [-46.55742608755466, -23.525033205896197], [-46.55742613228198, -23.525032013413934], [-46.55742620628069, -23.5250308116083], [-46.5574262999707, -23.52502961863608], [-46.55742642303836, -23.52502842536996], [-46.55742656579732, -23.52502724093736], [-46.55742672803505, -23.525026047279187], [-46.55742690996408, -23.52502486245461], [-46.55742712137703, -23.525023686365547], [-46.55742735226873, -23.525022501051016], [-46.557427602958015, -23.525021333599554], [-46.55742787312615, -23.525020156922533], [-46.557428172884286, -23.525018998010523], [-46.557428492227544, -23.525017838902606], [-46.55742883115592, -23.525016679598615], [-46.55742919956802, -23.525015529030245], [-46.557429577879006, -23.525014387393355], [-46.55742998556753, -23.52501324546249], [-46.55743041305363, -23.525012121394614], [-46.55743086012485, -23.525010997130845], [-46.55743133667988, -23.525009881602504], [-46.55743182302743, -23.52500876597625], [-46.55743233896506, -23.525007668115006], [-46.55743286480157, -23.525006579185252], [-46.55743342001561, -23.525005489961515], [-46.557433995027225, -23.525004418600776], [-46.55743458973014, -23.52500335607363], [-46.55743520412444, -23.5250023023799], [-46.55743583821004, -23.52500125751976], [-46.557436491986934, -23.52500022149312], [-46.55743716545512, -23.524999194300076], [-46.557437858720874, -23.524998184969935], [-46.55743857167802, -23.524997184473392], [-46.55743929453395, -23.524996192908333], [-46.55744004687367, -23.524995210078778], [-46.55744080921846, -23.524994245210216], [-46.55744160115333, -23.524993298106743], [-46.55744240288079, -23.524992350905187], [-46.5574432245121, -23.52499143059619], [-46.55744406572842, -23.524990510091214], [-46.5574449169498, -23.524989607547308], [-46.55744578796884, -23.524988722866393], [-46.55744667878534, -23.524987856048373], [-46.55744758929323, -23.52498699806403], [-46.55744850969991, -23.5249861490111], [-46.557449440111625, -23.524985317919143], [-46.55745040011353, -23.52498450459228], [-46.55745137012039, -23.52498370922648], [-46.55745235013239, -23.52498293182158], [-46.55745334983558, -23.52498216325025], [-46.557454359543925, -23.524981412639825], [-46.55745538904984, -23.52498067989257], [-46.557456428560805, -23.5249799651062], [-46.557457477970644, -23.524979259251406], [-46.55745854728423, -23.524978580289098], [-46.55745962649658, -23.52497791025828], [-46.55746071582036, -23.52497726721792], [-46.55746182483544, -23.524976633011157], [-46.55746293416933, -23.52497602589285], [-46.557464063194516, -23.52497542760813], [-46.55774436976763, -23.52492565439123], [-46.55784533719524, -23.52490772956086], [-46.55800099394585, -23.52487745427113], [-46.55842042115694, -23.524800248426867]], [[-46.55788988595142, -23.525643148148962], [-46.55794331909752, -23.525891141844077], [-46.55813542752132, -23.52585594926456], [-46.558081994037494, -23.525607955652717], [-46.55788988595142, -23.525643148148962]], [[-46.55777672086322, -23.525534987816588], [-46.55822817440709, -23.525452285425608], [-46.55819000763708, -23.525275147149486], [-46.55773855466009, -23.525357849400702], [-46.55777672086322, -23.525534987816588]], [[-46.557602362587325, -23.525235494289447], [-46.55837079228644, -23.52509472443532], [-46.55833262546069, -23.524917586191027], [-46.557564196726474, -23.525058355807246], [-46.557602362587325, -23.525235494289447]]]}}]}