{"type":"FeatureCollection","features":[{"type":"Feature","id":"envelope_5_3","properties":{"id":"envelope_5_3","kind":"envelope","label":"Poligono interior aos recuos 5/3 m — nao e projecao edificavel autorizada","status":"hipotese_cartografica_nao_aprovada","altura_referencia_zm_m":28,"desconta_app":false,"desconta_melhoramento_viario":false,"area_cartografica_m2":6978.844},"geometry":{"type":"Polygon","coordinates":[[[-46.55816218217854,-23.52577509019493],[-46.55816184434217,-23.525776365338473],[-46.55816157389111,-23.52577765407482],[-46.558161371460336,-23.525778953378193],[-46.55816123752514,-23.52578026019801],[-46.558161172399984,-23.525781571466048],[-46.558161176237775,-23.5257828841036],[-46.558161249029496,-23.525784195028802],[-46.558161390604255,-23.525785501163757],[-46.55816160062965,-23.525786799441835],[-46.55816187861257,-23.525788086814877],[-46.55816222390037,-23.525789360260283],[-46.55816263568233,-23.52579061678819],[-46.55816311299166,-23.52579185344842],[-46.558163654707705,-23.525793067337496],[-46.558164259558595,-23.52579425560535],[-46.55816492612422,-23.525795415462085],[-46.55816565283957,-23.525796544184523],[-46.55816643799842,-23.525797639122572],[-46.55816727975732,-23.525798697705465],[-46.55816817613995,-23.525799717447804],[-46.55816912504171,-23.52580069595535],[-46.558170124234714,-23.525801630930715],[-46.55817117137299,-23.525802520178694],[-46.558172263998,-23.52580336161146],[-46.55817339954441,-23.52580415325344],[-46.55817457534611,-23.525804893245958],[-46.55817578864247,-23.525805579851617],[-46.55817703658485,-23.52580621145836],[-46.55817831624323,-23.525806786583264],[-46.55821126380277,-23.525820693881762],[-46.558001458414935,-23.526037692255542],[-46.5579973550324,-23.52604193629827],[-46.557932973603464,-23.525925822613534],[-46.55782045954165,-23.52570914331117],[-46.55777003064242,-23.525612025794196],[-46.55771499692795,-23.525477353448306],[-46.557714093355976,-23.52547529695183],[-46.55771308130292,-23.52547328387138],[-46.55771196321305,-23.525471319068835],[-46.55771074178671,-23.52546940728945],[-46.5577094199738,-23.525467553150445],[-46.55770800096669,-23.525465761129816],[-46.557706488192494,-23.525464035555558],[-46.557704885304766,-23.525462380595147],[-46.55770319617471,-23.52546080024556],[-46.55770142488179,-23.525459298323543],[-46.55769957570395,-23.525457878456457],[-46.5576976531072,-23.52545654407347],[-46.55769566173487,-23.52545529839729],[-46.55769360639642,-23.525454144436424],[-46.55769149205575,-23.525453084977837],[-46.55768932381931,-23.525452122580237],[-46.55768902842241,-23.525452007585585],[-46.55757514545845,-23.525232665827545],[-46.557475679861504,-23.525040577462725],[-46.557475577446226,-23.525040164080377],[-46.55747551118509,-23.525039874942504],[-46.55747544484719,-23.52503954745268],[-46.55747534844218,-23.525039028992826],[-46.557475293232876,-23.52503870294842],[-46.557475218901295,-23.525038184645393],[-46.55747514945314,-23.525037674442483],[-46.55747513314144,-23.525037526785113],[-46.55747508865936,-23.525037004816024],[-46.55747506177743,-23.52503665816795],[-46.55747504634098,-23.52503631050716],[-46.55747502146645,-23.52503562763874],[-46.55747501457344,-23.525035281699097],[-46.557475015384696,-23.525035107663935],[-46.55747503040765,-23.525034589440324],[-46.557475049755574,-23.525034073597215],[-46.55747507140829,-23.525033721935515],[-46.55747509772468,-23.52503338684254],[-46.55747513179811,-23.5250330564648],[-46.557475193799085,-23.525032542057804],[-46.55747526480208,-23.525032019654404],[-46.557475310870025,-23.52503171963323],[-46.55747537386801,-23.52503136917508],[-46.55747546966064,-23.52503087740946],[-46.557475573356186,-23.525030394501997],[-46.55747564750231,-23.525030071569077],[-46.5574757192264,-23.525029794272072],[-46.55747586261197,-23.525029273830295],[-46.557475957365746,-23.52502894972479],[-46.557476095396474,-23.525028518647808],[-46.557476252412435,-23.525028044816974],[-46.557476348312605,-23.525027776201433],[-46.55747650499499,-23.525027364207237],[-46.557476631965955,-23.525027044909137],[-46.55747683252841,-23.525026575428644],[-46.55747701153719,-23.52502616480244],[-46.557477170162294,-23.525025827264567],[-46.55747739256106,-23.525025366709237],[-46.55747752450372,-23.52502510786282],[-46.557477696992166,-23.5250247864824],[-46.55747791260154,-23.525024401263245],[-46.55747813598568,-23.52502401815649],[-46.557478367527224,-23.525023636617068],[-46.55747860763605,-23.525023256121404],[-46.55747880497426,-23.52502295513535],[-46.55747900601252,-23.52502266244229],[-46.55747935257481,-23.525022176109367],[-46.55747962061631,-23.525021808427915],[-46.557479839288455,-23.52502152276239],[-46.557479993512516,-23.52502132756724],[-46.55748029072921,-23.525020972114934],[-46.55748061158127,-23.525020593043873],[-46.55748084967635,-23.525020326353538],[-46.55748126406796,-23.525019872903403],[-46.55748152219407,-23.52501959921406],[-46.55748169025985,-23.525019428512127],[-46.55748195097228,-23.525019174823182],[-46.55748240464123,-23.525018747324463],[-46.55748286236572,-23.525018325084556],[-46.557483045335566,-23.525018161646383],[-46.557483231953384,-23.52501800354114],[-46.55775362806954,-23.52496999008056],[-46.55785459463917,-23.52495206540052],[-46.55785544336316,-23.524951907537538],[-46.55801084020258,-23.524921682797604],[-46.55842998854294,-23.524844528277615],[-46.55849194793455,-23.524833168701026],[-46.558162586607025,-23.525773831638077],[-46.55816218217854,-23.52577509019493]]]}}]}